{"type":"FeatureCollection","features":[{"type":"Feature","properties":{"pais":"PY","nome":"Pedro Juan Caballero","area_km2":43.97,"fonte":"INE Paraguai, Cartografía Censal 2022"},"geometry":{"type":"Polygon","coordinates":[[[-55.74759,-22.58044],[-55.7483,-22.58074],[-55.74856,-22.58127],[-55.74872,-22.58142],[-55.74887,-22.58198],[-55.74913,-22.58241],[-55.74962,-22.58294],[-55.75003,-22.58301],[-55.75028,-22.58336],[-55.75051,-22.58347],[-55.75085,-22.58451],[-55.75112,-22.58493],[-55.7513,-22.58503],[-55.75149,-22.58546],[-55.75134,-22.58563],[-55.7516,-22.58576],[-55.75128,-22.58591],[-55.75116,-22.58617],[-55.75134,-22.58627],[-55.75162,-22.58688],[-55.75242,-22.58718],[-55.75274,-22.58765],[-55.75309,-22.58766],[-55.75315,-22.58834],[-55.75356,-22.58846],[-55.75369,-22.58874],[-55.75411,-22.58905],[-55.75398,-22.58973],[-55.75445,-22.59062],[-55.75479,-22.59094],[-55.75501,-22.59091],[-55.75513,-22.59117],[-55.75537,-22.59133],[-55.75545,-22.5915],[-55.75564,-22.59151],[-55.75585,-22.59177],[-55.75637,-22.59199],[-55.75685,-22.592],[-55.7569,-22.59213],[-55.75706,-22.5922],[-55.75723,-22.59215],[-55.75743,-22.5927],[-55.75771,-22.59297],[-55.75775,-22.59329],[-55.75784,-22.59336],[-55.758,-22.5933],[-55.75821,-22.59336],[-55.75829,-22.59365],[-55.75851,-22.59377],[-55.75855,-22.59403],[-55.75902,-22.59431],[-55.7593,-22.59483],[-55.75962,-22.5949],[-55.75991,-22.59523],[-55.76,-22.5955],[-55.76054,-22.59555],[-55.76134,-22.59604],[-55.76186,-22.59655],[-55.7618,-22.59686],[-55.76198,-22.59722],[-55.76252,-22.59756],[-55.76282,-22.59763],[-55.76352,-22.59829],[-55.76381,-22.5987],[-55.764,-22.5987],[-55.76393,-22.59821],[-55.76407,-22.59795],[-55.76428,-22.59667],[-55.76424,-22.59642],[-55.76443,-22.59653],[-55.76475,-22.59627],[-55.76629,-22.59333],[-55.76996,-22.58719],[-55.77117,-22.5875],[-55.77131,-22.58733],[-55.77153,-22.58739],[-55.77638,-22.57847],[-55.77697,-22.57726],[-55.77742,-22.57655],[-55.7819,-22.57864],[-55.78518,-22.57215],[-55.78185,-22.57072],[-55.78221,-22.56973],[-55.78063,-22.56905],[-55.78028,-22.56948],[-55.7798,-22.56928],[-55.77951,-22.56978],[-55.78081,-22.57015],[-55.77826,-22.57497],[-55.77709,-22.5744],[-55.77703,-22.57418],[-55.77606,-22.57369],[-55.77673,-22.57253],[-55.77704,-22.57259],[-55.77718,-22.57244],[-55.77733,-22.57138],[-55.77872,-22.56913],[-55.77966,-22.56724],[-55.77901,-22.56691],[-55.77872,-22.56694],[-55.77847,-22.56714],[-55.7786,-22.56737],[-55.77857,-22.56746],[-55.77826,-22.56754],[-55.77799,-22.56786],[-55.77789,-22.56786],[-55.77745,-22.56733],[-55.77749,-22.567],[-55.77732,-22.5667],[-55.77671,-22.5665],[-55.77664,-22.56635],[-55.7767,-22.56608],[-55.77649,-22.56591],[-55.77645,-22.56575],[-55.7765,-22.56554],[-55.77646,-22.56545],[-55.77627,-22.56538],[-55.77606,-22.56553],[-55.77596,-22.56575],[-55.77598,-22.5664],[-55.7758,-22.56657],[-55.77551,-22.56664],[-55.7746,-22.56652],[-55.77383,-22.5661],[-55.77346,-22.56579],[-55.77334,-22.56562],[-55.7731,-22.56452],[-55.7724,-22.56405],[-55.77208,-22.56394],[-55.77148,-22.56398],[-55.7713,-22.5641],[-55.77102,-22.56398],[-55.76977,-22.56426],[-55.76971,-22.56417],[-55.76938,-22.56407],[-55.76905,-22.56431],[-55.76887,-22.56424],[-55.76875,-22.56402],[-55.76787,-22.56374],[-55.76731,-22.56367],[-55.76704,-22.56384],[-55.76685,-22.56385],[-55.76671,-22.56373],[-55.76632,-22.5637],[-55.76566,-22.56384],[-55.76538,-22.56382],[-55.76516,-22.56328],[-55.76473,-22.56321],[-55.76436,-22.56332],[-55.76412,-22.56328],[-55.76254,-22.56236],[-55.76214,-22.56201],[-55.76144,-22.56173],[-55.76068,-22.56112],[-55.76078,-22.5608],[-55.7604,-22.56035],[-55.75987,-22.56036],[-55.75946,-22.56],[-55.75928,-22.55996],[-55.75921,-22.56022],[-55.75888,-22.56008],[-55.75847,-22.55948],[-55.75802,-22.55939],[-55.75798,-22.55925],[-55.75808,-22.55903],[-55.75753,-22.55857],[-55.75759,-22.55827],[-55.75738,-22.55812],[-55.75866,-22.55667],[-55.76235,-22.55203],[-55.76037,-22.55067],[-55.7651,-22.54489],[-55.75298,-22.5365],[-55.7571,-22.53126],[-55.74759,-22.52628],[-55.74865,-22.5244],[-55.74861,-22.52431],[-55.74714,-22.52355],[-55.74863,-22.52101],[-55.74916,-22.51962],[-55.75552,-22.51947],[-55.75561,-22.51953],[-55.76185,-22.51923],[-55.76166,-22.51574],[-55.7674,-22.51275],[-55.76668,-22.51152],[-55.76394,-22.51232],[-55.76149,-22.51284],[-55.76134,-22.51195],[-55.76233,-22.50832],[-55.76039,-22.50814],[-55.76059,-22.5053],[-55.75488,-22.50493],[-55.75595,-22.5006],[-55.75587,-22.49893],[-55.76276,-22.49919],[-55.76287,-22.4972],[-55.76848,-22.49763],[-55.7686,-22.4953],[-55.76847,-22.4953],[-55.76824,-22.49552],[-55.7555,-22.49457],[-55.75557,-22.493],[-55.75503,-22.49171],[-55.75492,-22.49087],[-55.7564,-22.49097],[-55.75621,-22.48877],[-55.75738,-22.48889],[-55.75755,-22.48879],[-55.75746,-22.48759],[-55.75726,-22.48748],[-55.75397,-22.48704],[-55.74768,-22.48647],[-55.74753,-22.48571],[-55.7477,-22.4847],[-55.74804,-22.48357],[-55.74849,-22.48337],[-55.74939,-22.48318],[-55.75072,-22.48272],[-55.75156,-22.4822],[-55.75184,-22.48175],[-55.75123,-22.48158],[-55.75118,-22.48177],[-55.74769,-22.48313],[-55.7467,-22.48625],[-55.74776,-22.49552],[-55.74727,-22.50548],[-55.74069,-22.51549],[-55.74044,-22.51907],[-55.73776,-22.52642],[-55.73703,-22.52798],[-55.73596,-22.5302],[-55.73237,-22.53578],[-55.72826,-22.54407],[-55.7263,-22.54706],[-55.7236,-22.55177],[-55.71715,-22.55468],[-55.71369,-22.55736],[-55.70905,-22.55908],[-55.69842,-22.56326],[-55.69478,-22.57114],[-55.69478,-22.57754],[-55.69164,-22.57938],[-55.69169,-22.57944],[-55.69283,-22.57908],[-55.69412,-22.5784],[-55.7015,-22.58478],[-55.7067,-22.57925],[-55.70843,-22.58063],[-55.71018,-22.58228],[-55.71304,-22.58436],[-55.71181,-22.58573],[-55.70983,-22.58767],[-55.70777,-22.58989],[-55.70957,-22.59138],[-55.71144,-22.59288],[-55.71327,-22.59074],[-55.71511,-22.58898],[-55.71662,-22.58742],[-55.71683,-22.58688],[-55.71736,-22.58729],[-55.71766,-22.58764],[-55.7175,-22.58817],[-55.71818,-22.58952],[-55.71916,-22.59088],[-55.71907,-22.5912],[-55.71907,-22.59181],[-55.72041,-22.59035],[-55.72849,-22.59701],[-55.72876,-22.59737],[-55.73225,-22.60019],[-55.73507,-22.5972],[-55.73513,-22.59724],[-55.73593,-22.59645],[-55.73745,-22.59477],[-55.73283,-22.59091],[-55.73813,-22.58531],[-55.74016,-22.58706],[-55.74233,-22.58484],[-55.74213,-22.58462],[-55.74495,-22.58182],[-55.74613,-22.58037],[-55.74608,-22.58014],[-55.74618,-22.57973],[-55.74762,-22.58017],[-55.74759,-22.58044]]]}},{"type":"Feature","properties":{"pais":"BR","nome":"Ponta Porã","area_km2":50.64,"fonte":"IBGE, Setores Censitários 2022"},"geometry":{"type":"MultiPolygon","coordinates":[[[[-55.73241,-22.53578],[-55.73597,-22.53019],[-55.7378,-22.52642],[-55.74049,-22.51905],[-55.74076,-22.51549],[-55.74728,-22.50551],[-55.74769,-22.49554],[-55.7471,-22.48928],[-55.74669,-22.48618],[-55.74774,-22.48307],[-55.75121,-22.48169],[-55.75284,-22.47475],[-55.75112,-22.47468],[-55.74663,-22.46951],[-55.74811,-22.46452],[-55.74342,-22.46375],[-55.74116,-22.46131],[-55.73832,-22.45987],[-55.73581,-22.46009],[-55.73528,-22.4589],[-55.7382,-22.45442],[-55.73717,-22.44752],[-55.73368,-22.44751],[-55.73314,-22.44762],[-55.73292,-22.44776],[-55.73266,-22.46077],[-55.73276,-22.46173],[-55.733,-22.46234],[-55.73345,-22.46301],[-55.7344,-22.46381],[-55.74029,-22.46586],[-55.74096,-22.4663],[-55.74155,-22.46701],[-55.74209,-22.46811],[-55.74559,-22.47788],[-55.74602,-22.47929],[-55.74615,-22.48056],[-55.74593,-22.48365],[-55.73801,-22.48296],[-55.73808,-22.48187],[-55.7325,-22.48185],[-55.73204,-22.48118],[-55.72914,-22.48156],[-55.72868,-22.47861],[-55.72885,-22.47861],[-55.72841,-22.4741],[-55.72793,-22.47392],[-55.72739,-22.47394],[-55.72691,-22.47413],[-55.72605,-22.47463],[-55.72577,-22.4746],[-55.72561,-22.47447],[-55.72483,-22.47444],[-55.72407,-22.4746],[-55.72278,-22.47445],[-55.72258,-22.47496],[-55.72184,-22.47541],[-55.72092,-22.47536],[-55.72057,-22.47574],[-55.72028,-22.47584],[-55.71927,-22.47559],[-55.71846,-22.47613],[-55.71671,-22.47689],[-55.7153,-22.47705],[-55.71435,-22.47738],[-55.71343,-22.4774],[-55.71319,-22.47761],[-55.71298,-22.47812],[-55.71282,-22.47832],[-55.71209,-22.47893],[-55.71179,-22.47954],[-55.71089,-22.48022],[-55.71052,-22.48118],[-55.7104,-22.48133],[-55.70984,-22.4816],[-55.70973,-22.48208],[-55.70955,-22.4824],[-55.70895,-22.48286],[-55.7087,-22.48315],[-55.70856,-22.48359],[-55.70852,-22.48465],[-55.7084,-22.48486],[-55.70793,-22.48517],[-55.70749,-22.4857],[-55.7072,-22.48619],[-55.70648,-22.48654],[-55.70596,-22.48659],[-55.70571,-22.4867],[-55.70565,-22.48711],[-55.70586,-22.48743],[-55.70567,-22.48766],[-55.70554,-22.48808],[-55.70529,-22.48836],[-55.70487,-22.48849],[-55.70429,-22.48916],[-55.70473,-22.49039],[-55.7048,-22.49121],[-55.70435,-22.49166],[-55.70382,-22.49186],[-55.70331,-22.49261],[-55.70349,-22.4933],[-55.70336,-22.49359],[-55.70344,-22.49386],[-55.7033,-22.49428],[-55.70348,-22.49449],[-55.70325,-22.49483],[-55.70328,-22.49515],[-55.70287,-22.49513],[-55.70272,-22.49535],[-55.70276,-22.49559],[-55.70306,-22.49586],[-55.70303,-22.4963],[-55.70298,-22.49636],[-55.70265,-22.49638],[-55.70257,-22.49654],[-55.70266,-22.49684],[-55.70245,-22.49686],[-55.70238,-22.49705],[-55.70205,-22.4974],[-55.70163,-22.49756],[-55.70132,-22.49778],[-55.70081,-22.49842],[-55.70058,-22.4989],[-55.70027,-22.49928],[-55.69972,-22.49965],[-55.69971,-22.49987],[-55.69945,-22.50036],[-55.69962,-22.50076],[-55.6996,-22.5011],[-55.69982,-22.50126],[-55.69984,-22.50135],[-55.69943,-22.50154],[-55.69936,-22.50171],[-55.69948,-22.50186],[-55.69965,-22.50188],[-55.70012,-22.50164],[-55.70028,-22.50166],[-55.70039,-22.50177],[-55.70038,-22.50227],[-55.7001,-22.50253],[-55.69982,-22.50255],[-55.69981,-22.50291],[-55.6997,-22.50309],[-55.69957,-22.50306],[-55.69937,-22.50277],[-55.69925,-22.50278],[-55.69901,-22.50346],[-55.69875,-22.50371],[-55.70159,-22.50934],[-55.71198,-22.53082],[-55.71236,-22.53126],[-55.71462,-22.53272],[-55.71349,-22.53416],[-55.71315,-22.53423],[-55.71162,-22.5331],[-55.71142,-22.53309],[-55.71131,-22.53321],[-55.71113,-22.53387],[-55.7108,-22.53452],[-55.70693,-22.537],[-55.70642,-22.53719],[-55.70574,-22.53728],[-55.70527,-22.53766],[-55.70435,-22.53809],[-55.7037,-22.53806],[-55.70297,-22.53821],[-55.704,-22.53921],[-55.70483,-22.54027],[-55.70393,-22.54072],[-55.70085,-22.54187],[-55.69998,-22.53999],[-55.69793,-22.54066],[-55.69839,-22.54178],[-55.6929,-22.54136],[-55.69254,-22.54118],[-55.68816,-22.53821],[-55.68434,-22.54212],[-55.68808,-22.54477],[-55.68721,-22.54598],[-55.68923,-22.54785],[-55.69025,-22.54961],[-55.69147,-22.55055],[-55.68936,-22.55267],[-55.68439,-22.55837],[-55.67994,-22.55683],[-55.67804,-22.5653],[-55.68037,-22.56572],[-55.68027,-22.56627],[-55.67871,-22.56712],[-55.67761,-22.56914],[-55.67736,-22.57024],[-55.67786,-22.57076],[-55.67865,-22.57121],[-55.67938,-22.5718],[-55.68045,-22.57237],[-55.68225,-22.5737],[-55.6834,-22.57488],[-55.68367,-22.57534],[-55.68404,-22.57635],[-55.68421,-22.57658],[-55.68502,-22.57675],[-55.68591,-22.57744],[-55.68707,-22.57751],[-55.68796,-22.57747],[-55.68758,-22.57912],[-55.68736,-22.57959],[-55.68706,-22.57992],[-55.68683,-22.58004],[-55.67321,-22.57374],[-55.67353,-22.57464],[-55.67348,-22.57511],[-55.6737,-22.57628],[-55.67364,-22.57703],[-55.67379,-22.57812],[-55.67614,-22.5809],[-55.68056,-22.5859],[-55.66926,-22.59345],[-55.65268,-22.60646],[-55.64364,-22.61114],[-55.64406,-22.61194],[-55.64921,-22.61047],[-55.65147,-22.60785],[-55.66115,-22.60243],[-55.66663,-22.59864],[-55.66963,-22.59402],[-55.67718,-22.5917],[-55.68288,-22.58887],[-55.68366,-22.58674],[-55.68805,-22.58141],[-55.69491,-22.57758],[-55.69484,-22.57114],[-55.69847,-22.56327],[-55.7091,-22.55909],[-55.71374,-22.55736],[-55.7172,-22.55468],[-55.72365,-22.55178],[-55.72632,-22.54705],[-55.72831,-22.54407],[-55.73081,-22.53889],[-55.73241,-22.53578]]],[[[-55.87147,-22.04318],[-55.87253,-22.04546],[-55.87415,-22.04506],[-55.87739,-22.04395],[-55.87313,-22.03144],[-55.8698,-22.03309],[-55.86944,-22.03267],[-55.86868,-22.03309],[-55.86881,-22.03352],[-55.86814,-22.03403],[-55.87002,-22.03658],[-55.87177,-22.04047],[-55.87014,-22.04117],[-55.87118,-22.04294],[-55.87147,-22.04318]]],[[[-55.62516,-22.62825],[-55.62927,-22.62328],[-55.63143,-22.62057],[-55.63679,-22.6178],[-55.64137,-22.61271],[-55.64233,-22.61243],[-55.64158,-22.61093],[-55.62778,-22.61738],[-55.62266,-22.61877],[-55.62001,-22.61778],[-55.61039,-22.61874],[-55.61021,-22.61896],[-55.60601,-22.61782],[-55.60526,-22.62214],[-55.6057,-22.62214],[-55.60642,-22.62122],[-55.60697,-22.62128],[-55.60734,-22.62164],[-55.60752,-22.6222],[-55.60673,-22.62314],[-55.60664,-22.62382],[-55.60833,-22.62503],[-55.62273,-22.62787],[-55.61885,-22.63362],[-55.62451,-22.63359],[-55.62516,-22.62825]]],[[[-55.58826,-22.19956],[-55.59027,-22.20146],[-55.59077,-22.20189],[-55.59086,-22.20184],[-55.5909,-22.19978],[-55.59221,-22.19803],[-55.59248,-22.19712],[-55.59318,-22.1937],[-55.59387,-22.18992],[-55.59273,-22.18935],[-55.59245,-22.18893],[-55.59156,-22.18643],[-55.59103,-22.18599],[-55.58974,-22.18553],[-55.58925,-22.18517],[-55.58875,-22.18459],[-55.58823,-22.18344],[-55.58801,-22.18229],[-55.5877,-22.18183],[-55.58701,-22.18031],[-55.58685,-22.17916],[-55.5865,-22.178],[-55.58244,-22.18447],[-55.58086,-22.18742],[-55.57823,-22.1897],[-55.5687,-22.18036],[-55.56469,-22.18732],[-55.56361,-22.18681],[-55.55878,-22.19417],[-55.57161,-22.19986],[-55.57181,-22.19971],[-55.57216,-22.19989],[-55.5721,-22.20003],[-55.58095,-22.20396],[-55.58826,-22.19956]]]]}}]}