{"type":"FeatureCollection","features":[{"type":"Feature","properties":{"nome":"Comisaría Primera","categoria":"Segurança","tipo":"police","pais":"PY"},"geometry":{"type":"Point","coordinates":[-55.740888,-22.530874]}},{"type":"Feature","properties":{"nome":"Comisaría Segunda","categoria":"Segurança","tipo":"police","pais":"PY"},"geometry":{"type":"Point","coordinates":[-55.726045,-22.553969]}},{"type":"Feature","properties":{"nome":"Comisaría Tercera","categoria":"Segurança","tipo":"police","pais":"PY"},"geometry":{"type":"Point","coordinates":[-55.740017,-22.563256]}},{"type":"Feature","properties":{"nome":"Prefeitura Municipal de Ponta Porã","categoria":"Administração pública","tipo":"townhall","pais":"BR"},"geometry":{"type":"Point","coordinates":[-55.724781,-22.538363]}},{"type":"Feature","properties":{"nome":"Iglesia Nuestra Señora del Perpetuo Socorro","categoria":"Religião","tipo":"place_of_worship","pais":"PY"},"geometry":{"type":"Point","coordinates":[-55.73322,-22.538891]}},{"type":"Feature","properties":{"nome":"Escuela Ebenezer","categoria":"Educação","tipo":"school","pais":"PY"},"geometry":{"type":"Point","coordinates":[-55.740662,-22.531325]}},{"type":"Feature","properties":{"nome":"Colegio Privado Sembrador","categoria":"Educação","tipo":"school","pais":"PY"},"geometry":{"type":"Point","coordinates":[-55.740908,-22.555546]}},{"type":"Feature","properties":{"nome":"Salón del Reino de los Testigos de Jehová","categoria":"Religião","tipo":"place_of_worship","pais":"PY"},"geometry":{"type":"Point","coordinates":[-55.731286,-22.544835]}},{"type":"Feature","properties":{"nome":"Polícia Federal","categoria":"Segurança","tipo":"police","pais":"BR"},"geometry":{"type":"Point","coordinates":[-55.701613,-22.549072]}},{"type":"Feature","properties":{"nome":"Iglesia San Francisco","categoria":"Religião","tipo":"place_of_worship","pais":"PY"},"geometry":{"type":"Point","coordinates":[-55.742318,-22.525236]}},{"type":"Feature","properties":{"nome":"Puesto Policial N° 10 Colonia Ybype","categoria":"Segurança","tipo":"police","pais":"PY"},"geometry":{"type":"Point","coordinates":[-55.792297,-22.594207]}},{"type":"Feature","properties":{"nome":"Policía Nacional Jefatura de Investigación y Delitos","categoria":"Segurança","tipo":"police","pais":"PY"},"geometry":{"type":"Point","coordinates":[-55.727278,-22.556733]}},{"type":"Feature","properties":{"nome":"Comisaría Barrio Guaraní","categoria":"Segurança","tipo":"police","pais":"PY"},"geometry":{"type":"Point","coordinates":[-55.738607,-22.548926]}},{"type":"Feature","properties":{"nome":"Comisaría 3ra Barrio Obrero","categoria":"Segurança","tipo":"police","pais":"PY"},"geometry":{"type":"Point","coordinates":[-55.740059,-22.563209]}},{"type":"Feature","properties":{"nome":"Comisaría 7ma Jardin Aurora","categoria":"Segurança","tipo":"police","pais":"PY"},"geometry":{"type":"Point","coordinates":[-55.726059,-22.570866]}},{"type":"Feature","properties":{"nome":"Sub Comisaría N° 4 San Juan Neuman","categoria":"Segurança","tipo":"police","pais":"PY"},"geometry":{"type":"Point","coordinates":[-55.748921,-22.556992]}},{"type":"Feature","properties":{"nome":"Comisaría Sexta General Genes","categoria":"Segurança","tipo":"police","pais":"PY"},"geometry":{"type":"Point","coordinates":[-55.756422,-22.548015]}},{"type":"Feature","properties":{"nome":"Policía Nacional","categoria":"Segurança","tipo":"police","pais":"PY"},"geometry":{"type":"Point","coordinates":[-55.732055,-22.543297]}},{"type":"Feature","properties":{"nome":"Policía Nacional Grupo Goe","categoria":"Segurança","tipo":"police","pais":"PY"},"geometry":{"type":"Point","coordinates":[-55.732042,-22.543228]}},{"type":"Feature","properties":{"nome":"Comisaría 12 De Mujeres","categoria":"Segurança","tipo":"police","pais":"PY"},"geometry":{"type":"Point","coordinates":[-55.741426,-22.531216]}},{"type":"Feature","properties":{"nome":"Comisaría 1ra Pedro Juan Caballero","categoria":"Segurança","tipo":"police","pais":"PY"},"geometry":{"type":"Point","coordinates":[-55.740841,-22.530919]}},{"type":"Feature","properties":{"nome":"Sub Comisaría N° 2 Zona Industrial","categoria":"Segurança","tipo":"police","pais":"PY"},"geometry":{"type":"Point","coordinates":[-55.707659,-22.567965]}},{"type":"Feature","properties":{"nome":"Comisaría 2da Barrio General Díaz","categoria":"Segurança","tipo":"police","pais":"PY"},"geometry":{"type":"Point","coordinates":[-55.725959,-22.553921]}},{"type":"Feature","properties":{"nome":"Igreja Messiânica Mundial","categoria":"Religião","tipo":"place_of_worship","pais":"BR"},"geometry":{"type":"Point","coordinates":[-55.726861,-22.542351]}},{"type":"Feature","properties":{"nome":"Universal","categoria":"Religião","tipo":"place_of_worship","pais":"BR"},"geometry":{"type":"Point","coordinates":[-55.727514,-22.544351]}},{"type":"Feature","properties":{"nome":"Universidad del Norte - Sede 2","categoria":"Educação","tipo":"university","pais":"PY"},"geometry":{"type":"Point","coordinates":[-55.735828,-22.545162]}},{"type":"Feature","properties":{"nome":"La Iglesia de Jesucristo de los Santos de los Últimos Días","categoria":"Religião","tipo":"place_of_worship","pais":"PY"},"geometry":{"type":"Point","coordinates":[-55.748829,-22.539544]}},{"type":"Feature","properties":{"nome":"La Iglesia de Jesucristo de los Santos de los Últimos Días","categoria":"Religião","tipo":"place_of_worship","pais":"PY"},"geometry":{"type":"Point","coordinates":[-55.741173,-22.562343]}},{"type":"Feature","properties":{"nome":"La Iglesia de Jesucristo de los Santos de los Últimos Días","categoria":"Religião","tipo":"place_of_worship","pais":"PY"},"geometry":{"type":"Point","coordinates":[-55.728044,-22.570204]}},{"type":"Feature","properties":{"nome":"La Iglesia de Jesucristo de los Santos de los Últimos Días","categoria":"Religião","tipo":"place_of_worship","pais":"PY"},"geometry":{"type":"Point","coordinates":[-55.739528,-22.545647]}},{"type":"Feature","properties":{"nome":"puesto policial nrp 01 Cerro Cora","categoria":"Segurança","tipo":"police","pais":"PY"},"geometry":{"type":"Point","coordinates":[-55.745782,-22.518089]}},{"type":"Feature","properties":{"nome":"congregacion cristiana - Villa Guillermina","categoria":"Religião","tipo":"place_of_worship","pais":"PY"},"geometry":{"type":"Point","coordinates":[-55.750599,-22.488666]}},{"type":"Feature","properties":{"nome":"Polícia Federal","categoria":"Segurança","tipo":"police","pais":"BR"},"geometry":{"type":"Point","coordinates":[-55.731811,-22.529868]}},{"type":"Feature","properties":{"nome":"Senac Ponta Porã","categoria":"Educação","tipo":"college","pais":"BR"},"geometry":{"type":"Point","coordinates":[-55.722924,-22.536355]}},{"type":"Feature","properties":{"nome":"Escola Municipal Lions Clube de Ponta Porã","categoria":"Educação","tipo":"school","pais":"BR"},"geometry":{"type":"Point","coordinates":[-55.715048,-22.533254]}},{"type":"Feature","properties":{"nome":"Centro Cultural Dona Iracema","categoria":"Educação","tipo":"school","pais":"BR"},"geometry":{"type":"Point","coordinates":[-55.733559,-22.52362]}},{"type":"Feature","properties":{"nome":"Centro de Educação Especial de Ponta Porã","categoria":"Educação","tipo":"school","pais":"BR"},"geometry":{"type":"Point","coordinates":[-55.733887,-22.531325]}},{"type":"Feature","properties":{"nome":"Escola Municipal Prefeito Orlando Mendes Gonçalves","categoria":"Educação","tipo":"school","pais":"BR"},"geometry":{"type":"Point","coordinates":[-55.726602,-22.536914]}},{"type":"Feature","properties":{"nome":"Escola Municipal Lydio Lima","categoria":"Educação","tipo":"school","pais":"BR"},"geometry":{"type":"Point","coordinates":[-55.689177,-22.564257]}},{"type":"Feature","properties":{"nome":"","categoria":"Educação","tipo":"school","pais":"PY"},"geometry":{"type":"Point","coordinates":[-55.737697,-22.533389]}},{"type":"Feature","properties":{"nome":"Hospital San Francisco","categoria":"Saúde","tipo":"hospital","pais":"PY"},"geometry":{"type":"Point","coordinates":[-55.738396,-22.533348]}},{"type":"Feature","properties":{"nome":"Hospital Viva Vida","categoria":"Saúde","tipo":"hospital","pais":"PY"},"geometry":{"type":"Point","coordinates":[-55.721267,-22.563663]}},{"type":"Feature","properties":{"nome":"Hospital Regional","categoria":"Saúde","tipo":"hospital","pais":"PY"},"geometry":{"type":"Point","coordinates":[-55.741004,-22.535113]}},{"type":"Feature","properties":{"nome":"Sanatorio San Lucas","categoria":"Saúde","tipo":"hospital","pais":"PY"},"geometry":{"type":"Point","coordinates":[-55.73349,-22.538333]}},{"type":"Feature","properties":{"nome":"Instituto de Previsión Social","categoria":"Saúde","tipo":"hospital","pais":"PY"},"geometry":{"type":"Point","coordinates":[-55.71882,-22.56061]}},{"type":"Feature","properties":{"nome":"Centro Regional de Educación \"Doctor Raúl Peña\"","categoria":"Educação","tipo":"college","pais":"PY"},"geometry":{"type":"Point","coordinates":[-55.737638,-22.546924]}},{"type":"Feature","properties":{"nome":"Hospital Regional Dr. José Simone Neto","categoria":"Saúde","tipo":"hospital","pais":"BR"},"geometry":{"type":"Point","coordinates":[-55.722981,-22.523461]}},{"type":"Feature","properties":{"nome":"Escola Municipal João Carlos Pinheiro Marques","categoria":"Educação","tipo":"school","pais":"BR"},"geometry":{"type":"Point","coordinates":[-55.739655,-22.518471]}},{"type":"Feature","properties":{"nome":"Policia Militar","categoria":"Segurança","tipo":"police","pais":"BR"},"geometry":{"type":"Point","coordinates":[-55.735731,-22.522751]}},{"type":"Feature","properties":{"nome":"Polícia Civil","categoria":"Segurança","tipo":"police","pais":"BR"},"geometry":{"type":"Point","coordinates":[-55.720616,-22.521763]}},{"type":"Feature","properties":{"nome":"Prefeitura Municipal de Ponta Porã","categoria":"Administração pública","tipo":"townhall","pais":"BR"},"geometry":{"type":"Point","coordinates":[-55.724685,-22.538404]}},{"type":"Feature","properties":{"nome":"EE Joaquim Murtinho","categoria":"Educação","tipo":"school","pais":"BR"},"geometry":{"type":"Point","coordinates":[-55.724102,-22.537655]}},{"type":"Feature","properties":{"nome":"EE Ade Marques","categoria":"Educação","tipo":"school","pais":"BR"},"geometry":{"type":"Point","coordinates":[-55.724071,-22.533993]}},{"type":"Feature","properties":{"nome":"EE Dep Fernando C Capiperibe Saldanha","categoria":"Educação","tipo":"school","pais":"BR"},"geometry":{"type":"Point","coordinates":[-55.732922,-22.500193]}},{"type":"Feature","properties":{"nome":"Escola Polo Municipal Ignês Andreazza","categoria":"Educação","tipo":"school","pais":"BR"},"geometry":{"type":"Point","coordinates":[-55.700247,-22.549393]}},{"type":"Feature","properties":{"nome":"Escola Municipal Maria Lígia Borges Garcia","categoria":"Educação","tipo":"school","pais":"BR"},"geometry":{"type":"Point","coordinates":[-55.697562,-22.562563]}},{"type":"Feature","properties":{"nome":"","categoria":"Saúde","tipo":"hospital","pais":"BR"},"geometry":{"type":"Point","coordinates":[-55.688649,-22.564349]}},{"type":"Feature","properties":{"nome":"Catolica","categoria":"Educação","tipo":"university","pais":"PY"},"geometry":{"type":"Point","coordinates":[-55.733,-22.539251]}},{"type":"Feature","properties":{"nome":"","categoria":"Educação","tipo":"school","pais":"BR"},"geometry":{"type":"Point","coordinates":[-55.728131,-22.536228]}},{"type":"Feature","properties":{"nome":"","categoria":"Religião","tipo":"place_of_worship","pais":"BR"},"geometry":{"type":"Point","coordinates":[-55.72891,-22.535805]}},{"type":"Feature","properties":{"nome":"Hospital CASSEMS","categoria":"Saúde","tipo":"hospital","pais":"BR"},"geometry":{"type":"Point","coordinates":[-55.714479,-22.531984]}},{"type":"Feature","properties":{"nome":"","categoria":"Saúde","tipo":"clinic","pais":"BR"},"geometry":{"type":"Point","coordinates":[-55.715224,-22.531281]}},{"type":"Feature","properties":{"nome":"Escuela Parroquial Perpetuo Socorro","categoria":"Educação","tipo":"school","pais":"PY"},"geometry":{"type":"Point","coordinates":[-55.733363,-22.538592]}},{"type":"Feature","properties":{"nome":"Colegio Parroquial Rosenstiel","categoria":"Educação","tipo":"college","pais":"PY"},"geometry":{"type":"Point","coordinates":[-55.732843,-22.538498]}},{"type":"Feature","properties":{"nome":"Universidade Federal do Mato Grosso do Sul - Campus Ponta Porã","categoria":"Educação","tipo":"university","pais":"BR"},"geometry":{"type":"Point","coordinates":[-55.681763,-22.581878]}},{"type":"Feature","properties":{"nome":"Universidad del Pacífico","categoria":"Educação","tipo":"college","pais":"PY"},"geometry":{"type":"Point","coordinates":[-55.743704,-22.512766]}},{"type":"Feature","properties":{"nome":"Porãmed","categoria":"Saúde","tipo":"clinic","pais":"BR"},"geometry":{"type":"Point","coordinates":[-55.729158,-22.537628]}},{"type":"Feature","properties":{"nome":"","categoria":"Religião","tipo":"place_of_worship","pais":"BR"},"geometry":{"type":"Point","coordinates":[-55.727123,-22.506664]}},{"type":"Feature","properties":{"nome":"Igreja Universal do Reino de Deus","categoria":"Religião","tipo":"place_of_worship","pais":"BR"},"geometry":{"type":"Point","coordinates":[-55.729971,-22.504977]}},{"type":"Feature","properties":{"nome":"Escola Municipal Prefeito Ade Marques","categoria":"Educação","tipo":"school","pais":"BR"},"geometry":{"type":"Point","coordinates":[-55.732345,-22.5193]}},{"type":"Feature","properties":{"nome":"Uninorte","categoria":"Educação","tipo":"university","pais":"PY"},"geometry":{"type":"Point","coordinates":[-55.733001,-22.536902]}},{"type":"Feature","properties":{"nome":"POLICIA NACIONAL IDENTIFICACIONES","categoria":"Segurança","tipo":"police","pais":"PY"},"geometry":{"type":"Point","coordinates":[-55.727903,-22.557259]}},{"type":"Feature","properties":{"nome":"","categoria":"Segurança","tipo":"police","pais":"PY"},"geometry":{"type":"Point","coordinates":[-55.720046,-22.562953]}},{"type":"Feature","properties":{"nome":"CEMA - Centro Educativo de Ed Inf e Ens Fund Miguel Angelo","categoria":"Educação","tipo":"school","pais":"BR"},"geometry":{"type":"Point","coordinates":[-55.719188,-22.551031]}},{"type":"Feature","properties":{"nome":"Polícia Federal","categoria":"Segurança","tipo":"police","pais":"BR"},"geometry":{"type":"Point","coordinates":[-55.72722,-22.523713]}},{"type":"Feature","properties":{"nome":"Magsul Júnior","categoria":"Educação","tipo":"school","pais":"BR"},"geometry":{"type":"Point","coordinates":[-55.72455,-22.531898]}},{"type":"Feature","properties":{"nome":"Magsul Júnior","categoria":"Educação","tipo":"school","pais":"BR"},"geometry":{"type":"Point","coordinates":[-55.724581,-22.531719]}},{"type":"Feature","properties":{"nome":"Clínica Kayatt","categoria":"Saúde","tipo":"clinic","pais":"BR"},"geometry":{"type":"Point","coordinates":[-55.724884,-22.532559]}},{"type":"Feature","properties":{"nome":"","categoria":"Religião","tipo":"place_of_worship","pais":"BR"},"geometry":{"type":"Point","coordinates":[-55.72441,-22.534532]}},{"type":"Feature","properties":{"nome":"","categoria":"Saúde","tipo":"clinic","pais":"BR"},"geometry":{"type":"Point","coordinates":[-55.726784,-22.521125]}},{"type":"Feature","properties":{"nome":"Herdeiros de Deus","categoria":"Religião","tipo":"place_of_worship","pais":"BR"},"geometry":{"type":"Point","coordinates":[-55.732166,-22.504399]}},{"type":"Feature","properties":{"nome":"ESF Vila Alegrete","categoria":"Saúde","tipo":"clinic","pais":"BR"},"geometry":{"type":"Point","coordinates":[-55.734925,-22.508383]}},{"type":"Feature","properties":{"nome":"Igreja Cristã Aliança e Vida","categoria":"Religião","tipo":"place_of_worship","pais":"BR"},"geometry":{"type":"Point","coordinates":[-55.730325,-22.507203]}},{"type":"Feature","properties":{"nome":"Salão do Reino das Testemunhas de Jeová","categoria":"Religião","tipo":"place_of_worship","pais":"BR"},"geometry":{"type":"Point","coordinates":[-55.73077,-22.508465]}},{"type":"Feature","properties":{"nome":"Igreja Pentecostal Deus é Amor","categoria":"Religião","tipo":"place_of_worship","pais":"BR"},"geometry":{"type":"Point","coordinates":[-55.73093,-22.508938]}},{"type":"Feature","properties":{"nome":"","categoria":"Religião","tipo":"place_of_worship","pais":"BR"},"geometry":{"type":"Point","coordinates":[-55.730244,-22.503665]}},{"type":"Feature","properties":{"nome":"Consultório na Rua","categoria":"Saúde","tipo":"clinic","pais":"BR"},"geometry":{"type":"Point","coordinates":[-55.731375,-22.537298]}},{"type":"Feature","properties":{"nome":"","categoria":"Religião","tipo":"place_of_worship","pais":"BR"},"geometry":{"type":"Point","coordinates":[-55.724714,-22.510905]}},{"type":"Feature","properties":{"nome":"","categoria":"Saúde","tipo":"clinic","pais":"BR"},"geometry":{"type":"Point","coordinates":[-55.737788,-22.497913]}},{"type":"Feature","properties":{"nome":"","categoria":"Religião","tipo":"place_of_worship","pais":"BR"},"geometry":{"type":"Point","coordinates":[-55.730659,-22.500711]}},{"type":"Feature","properties":{"nome":"","categoria":"Religião","tipo":"place_of_worship","pais":"BR"},"geometry":{"type":"Point","coordinates":[-55.71203,-22.521072]}},{"type":"Feature","properties":{"nome":"Topo Gigio","categoria":"Educação","tipo":"school","pais":"BR"},"geometry":{"type":"Point","coordinates":[-55.707708,-22.521005]}},{"type":"Feature","properties":{"nome":"Iglesia Nestra Señor del Perpetuo Socorro","categoria":"Religião","tipo":"place_of_worship","pais":"PY"},"geometry":{"type":"Point","coordinates":[-55.733154,-22.538729]}},{"type":"Feature","properties":{"nome":"Hemonúcleo Ponta Porã","categoria":"Saúde","tipo":"clinic","pais":"BR"},"geometry":{"type":"Point","coordinates":[-55.714718,-22.530983]}},{"type":"Feature","properties":{"nome":"Centro Regional de Especialidades Dr. João Kayatt","categoria":"Saúde","tipo":"hospital","pais":"BR"},"geometry":{"type":"Point","coordinates":[-55.713459,-22.531495]}},{"type":"Feature","properties":{"nome":"São Miguel","categoria":"Saúde","tipo":"clinic","pais":"BR"},"geometry":{"type":"Point","coordinates":[-55.714932,-22.532604]}},{"type":"Feature","properties":{"nome":"CEPS - Centro Educacional Perpétuo Socorro","categoria":"Educação","tipo":"school","pais":"BR"},"geometry":{"type":"Point","coordinates":[-55.713307,-22.552712]}},{"type":"Feature","properties":{"nome":"","categoria":"Segurança","tipo":"fire_station","pais":"BR"},"geometry":{"type":"Point","coordinates":[-55.715809,-22.552664]}},{"type":"Feature","properties":{"nome":"EE João Brembatti Calvoso","categoria":"Educação","tipo":"school","pais":"BR"},"geometry":{"type":"Point","coordinates":[-55.715297,-22.553299]}},{"type":"Feature","properties":{"nome":"EE Coronel Ramiro Noronha","categoria":"Educação","tipo":"school","pais":"BR"},"geometry":{"type":"Point","coordinates":[-55.716627,-22.553783]}},{"type":"Feature","properties":{"nome":"Fisio Beauty","categoria":"Saúde","tipo":"doctors","pais":"BR"},"geometry":{"type":"Point","coordinates":[-55.722134,-22.533116]}},{"type":"Feature","properties":{"nome":"A Igreja de Jesus Cristo dos Santos dos Últimos Dias","categoria":"Religião","tipo":"place_of_worship","pais":"BR"},"geometry":{"type":"Point","coordinates":[-55.721403,-22.532406]}},{"type":"Feature","properties":{"nome":"","categoria":"Saúde","tipo":"clinic","pais":"BR"},"geometry":{"type":"Point","coordinates":[-55.721572,-22.53474]}},{"type":"Feature","properties":{"nome":"Polícia Federal","categoria":"Segurança","tipo":"police","pais":"BR"},"geometry":{"type":"Point","coordinates":[-55.730353,-22.536731]}},{"type":"Feature","properties":{"nome":"Congregação Cristã no Brasil","categoria":"Religião","tipo":"place_of_worship","pais":"BR"},"geometry":{"type":"Point","coordinates":[-55.737874,-22.500906]}},{"type":"Feature","properties":{"nome":"INTERPOL -PJC-DPTO.AMAMBAY","categoria":"Segurança","tipo":"police","pais":"PY"},"geometry":{"type":"Point","coordinates":[-55.728045,-22.557033]}},{"type":"Feature","properties":{"nome":"Escola de Recreação e Ensino Fundamental Nova Época","categoria":"Educação","tipo":"school","pais":"BR"},"geometry":{"type":"Point","coordinates":[-55.719361,-22.552061]}},{"type":"Feature","properties":{"nome":"","categoria":"Religião","tipo":"place_of_worship","pais":"PY"},"geometry":{"type":"Point","coordinates":[-55.750592,-22.488657]}},{"type":"Feature","properties":{"nome":"Escuela Básica N° 7375 San Roque González de Santacruz","categoria":"Educação","tipo":"school","pais":"PY"},"geometry":{"type":"Point","coordinates":[-55.752438,-22.519021]}},{"type":"Feature","properties":{"nome":"","categoria":"Educação","tipo":"college","pais":"PY"},"geometry":{"type":"Point","coordinates":[-55.729792,-22.554495]}},{"type":"Feature","properties":{"nome":"Escola Municipal Prof Zaira Portela","categoria":"Educação","tipo":"school","pais":"BR"},"geometry":{"type":"Point","coordinates":[-55.741255,-22.489826]}},{"type":"Feature","properties":{"nome":"EE Mendes Gonçalves","categoria":"Educação","tipo":"school","pais":"BR"},"geometry":{"type":"Point","coordinates":[-55.728676,-22.538177]}},{"type":"Feature","properties":{"nome":"Escola Polo Municipal Jardim Ivone","categoria":"Educação","tipo":"school","pais":"BR"},"geometry":{"type":"Point","coordinates":[-55.724823,-22.485055]}},{"type":"Feature","properties":{"nome":"Escola Polo Municipal Marcondes Fernandes Pereira","categoria":"Educação","tipo":"school","pais":"BR"},"geometry":{"type":"Point","coordinates":[-55.722137,-22.506021]}},{"type":"Feature","properties":{"nome":"Escola Municipal São João","categoria":"Educação","tipo":"school","pais":"BR"},"geometry":{"type":"Point","coordinates":[-55.707421,-22.51302]}},{"type":"Feature","properties":{"nome":"Escola MAPPE - Moderna Associação Pontaporanense de Ensino","categoria":"Educação","tipo":"school","pais":"BR"},"geometry":{"type":"Point","coordinates":[-55.733756,-22.527568]}},{"type":"Feature","properties":{"nome":"EE Profª Geni Marques Magalhães","categoria":"Educação","tipo":"school","pais":"BR"},"geometry":{"type":"Point","coordinates":[-55.693389,-22.562197]}},{"type":"Feature","properties":{"nome":"Escola Municipal Profa Conceição Capiperibe Saldanha","categoria":"Educação","tipo":"school","pais":"BR"},"geometry":{"type":"Point","coordinates":[-55.683899,-22.570608]}},{"type":"Feature","properties":{"nome":"EE Dr Miguel Marcondes Armando","categoria":"Educação","tipo":"school","pais":"BR"},"geometry":{"type":"Point","coordinates":[-55.723084,-22.525417]}},{"type":"Feature","properties":{"nome":"UNISUD - Universidad Sudamericana","categoria":"Educação","tipo":"university","pais":"PY"},"geometry":{"type":"Point","coordinates":[-55.735381,-22.548596]}}]}