{"type":"FeatureCollection","features":[{"type":"Feature","properties":{"trecho":"rural","km":388.0},"geometry":{"type":"MultiLineString","coordinates":[[[-56.822372,-22.297211],[-56.826067,-22.295926],[-56.825676,-22.295612],[-56.825138,-22.29473],[-56.823213,-22.29004],[-56.822248,-22.288842],[-56.820977,-22.287919],[-56.820424,-22.287006],[-56.819638,-22.286652],[-56.817727,-22.287883],[-56.816304,-22.288297],[-56.815077,-22.288061],[-56.812481,-22.286793],[-56.81165,-22.286612],[-56.810661,-22.286502],[-56.80989,-22.286835],[-56.809111,-22.286889],[-56.808857,-22.286685],[-56.808252,-22.285216],[-56.80746,-22.284407],[-56.806682,-22.284212],[-56.805132,-22.284458],[-56.803784,-22.284122],[-56.802827,-22.283502],[-56.801617,-22.281635],[-56.801497,-22.281179],[-56.801663,-22.280854],[-56.803303,-22.280061],[-56.803701,-22.279655],[-56.803836,-22.279226],[-56.803725,-22.278381],[-56.803823,-22.277749],[-56.804694,-22.276264],[-56.804867,-22.275338],[-56.807641,-22.27231],[-56.808144,-22.271209],[-56.808093,-22.270617],[-56.807563,-22.269419],[-56.805289,-22.267863],[-56.80398,-22.267156],[-56.803726,-22.266754],[-56.80384,-22.265498],[-56.805597,-22.261964],[-56.806094,-22.259814],[-56.80585,-22.25737],[-56.804558,-22.255015],[-56.804703,-22.253326],[-56.804532,-22.25272],[-56.804151,-22.25197],[-56.801813,-22.248719],[-56.800221,-22.247164],[-56.797312,-22.244748],[-56.793297,-22.242407],[-56.791396,-22.241953],[-56.789188,-22.241959]],[[-56.787775,-22.244017],[-56.790045,-22.244766],[-56.790187,-22.244992],[-56.789669,-22.246075],[-56.788357,-22.247533],[-56.788326,-22.247948],[-56.788916,-22.248663],[-56.788766,-22.249105],[-56.788039,-22.249768],[-56.787627,-22.249817],[-56.786341,-22.2487],[-56.784947,-22.248136]],[[-56.78445,-22.248859],[-56.785402,-22.251002],[-56.787205,-22.251551],[-56.788281,-22.252741],[-56.788505,-22.253202],[-56.7884,-22.253586],[-56.787568,-22.254217],[-56.7864,-22.254649],[-56.786457,-22.256162],[-56.785648,-22.256997],[-56.784854,-22.257371],[-56.783356,-22.257536],[-56.77927,-22.25721],[-56.778918,-22.2573],[-56.777823,-22.258301],[-56.777477,-22.259208],[-56.777506,-22.26008],[-56.777356,-22.260351],[-56.776697,-22.260508],[-56.774692,-22.259462],[-56.773854,-22.25928],[-56.772516,-22.258366],[-56.772217,-22.257959],[-56.772225,-22.257638],[-56.772818,-22.256957],[-56.772833,-22.256618],[-56.772102,-22.254873],[-56.771602,-22.254398],[-56.770682,-22.254099],[-56.769931,-22.255331],[-56.769212,-22.255457],[-56.768674,-22.255176],[-56.768383,-22.25466],[-56.76825,-22.253183],[-56.767869,-22.252952],[-56.767113,-22.252847],[-56.766792,-22.252603],[-56.76603,-22.251436],[-56.765357,-22.251047],[-56.764811,-22.251037],[-56.763873,-22.25202],[-56.76329,-22.252047],[-56.762938,-22.251865],[-56.762707,-22.251508],[-56.762381,-22.249231],[-56.763537,-22.247679],[-56.764056,-22.245895],[-56.764559,-22.24533]],[[-56.762671,-22.242416],[-56.757745,-22.242087],[-56.757364,-22.242236],[-56.755184,-22.245574]],[[-56.752147,-22.243729],[-56.752514,-22.241876],[-56.752389,-22.240833],[-56.751837,-22.239576],[-56.751314,-22.238907],[-56.748534,-22.236368],[-56.74754,-22.235883],[-56.746844,-22.235869],[-56.746619,-22.236189],[-56.745753,-22.239115],[-56.745175,-22.24004],[-56.744192,-22.241163],[-56.742845,-22.24145],[-56.741108,-22.241434],[-56.739464,-22.244277],[-56.738909,-22.244637],[-56.738273,-22.244704],[-56.73766,-22.244559],[-56.736419,-22.243527],[-56.736172,-22.243517],[-56.735991,-22.244167],[-56.736438,-22.245252],[-56.736228,-22.245663],[-56.732102,-22.246424],[-56.731488,-22.246681],[-56.730986,-22.247204],[-56.730939,-22.248107],[-56.732179,-22.249342],[-56.733247,-22.250957],[-56.735998,-22.252465],[-56.736529,-22.253008],[-56.736632,-22.25374],[-56.736519,-22.254047],[-56.735792,-22.254918],[-56.734931,-22.25488],[-56.734489,-22.255128],[-56.734434,-22.255982],[-56.734059,-22.256844],[-56.731692,-22.257576],[-56.730754,-22.258456],[-56.729114,-22.259212],[-56.727174,-22.259737],[-56.72152,-22.264493],[-56.720898,-22.264898],[-56.720479,-22.264889],[-56.719717,-22.264011],[-56.719539,-22.263189],[-56.72036,-22.260895],[-56.720555,-22.256925],[-56.720182,-22.256554],[-56.718715,-22.256113],[-56.716757,-22.254723],[-56.714342,-22.253314],[-56.712915,-22.251911],[-56.712894,-22.251198],[-56.713301,-22.250205],[-56.71464,-22.250148],[-56.714343,-22.249375],[-56.713835,-22.248909],[-56.70969,-22.247669],[-56.70907,-22.247333],[-56.708163,-22.244544],[-56.70806,-22.243379],[-56.707851,-22.243162],[-56.707476,-22.243211],[-56.706854,-22.243697],[-56.706366,-22.244546],[-56.706207,-22.245508],[-56.705847,-22.245787],[-56.704455,-22.245491],[-56.70352,-22.24557],[-56.703019,-22.245204],[-56.703005,-22.244463],[-56.703344,-22.243985],[-56.705164,-22.24317],[-56.706347,-22.242942],[-56.706782,-22.242518],[-56.706851,-22.241782],[-56.706217,-22.240552],[-56.706121,-22.240064],[-56.705954,-22.237643],[-56.705717,-22.236644],[-56.705171,-22.236164],[-56.703524,-22.236572],[-56.702199,-22.236597],[-56.70169,-22.236406],[-56.701474,-22.236067],[-56.701612,-22.234518],[-56.701269,-22.233903],[-56.700438,-22.234028],[-56.699314,-22.234753],[-56.698558,-22.234797],[-56.698192,-22.234643],[-56.697617,-22.234086],[-56.69661,-22.232404],[-56.695333,-22.230875],[-56.69462,-22.228651],[-56.694681,-22.228032],[-56.696585,-22.226518],[-56.699061,-22.226961],[-56.700183,-22.227004],[-56.700812,-22.226901],[-56.701217,-22.226644],[-56.702944,-22.224217],[-56.704016,-22.22299],[-56.704482,-22.222128],[-56.704965,-22.220097],[-56.70503,-22.218987]],[[-56.702459,-22.217994],[-56.701765,-22.219083],[-56.69989,-22.220756],[-56.699463,-22.220873],[-56.699015,-22.220592],[-56.698472,-22.21919],[-56.697987,-22.218417],[-56.697381,-22.218163],[-56.696715,-22.218297],[-56.696347,-22.218622],[-56.696324,-22.218902],[-56.696958,-22.22001],[-56.697017,-22.220498],[-56.69641,-22.220813],[-56.695312,-22.219916],[-56.692718,-22.218732],[-56.691971,-22.217742],[-56.691366,-22.217596],[-56.690841,-22.218096],[-56.689735,-22.220583],[-56.689389,-22.22159],[-56.689254,-22.222736]],[[-56.688708,-22.22299],[-56.688212,-22.222563],[-56.68822,-22.222112],[-56.688762,-22.22083],[-56.68874,-22.220509],[-56.688307,-22.220002],[-56.68708,-22.220054],[-56.683194,-22.22123],[-56.682721,-22.221857],[-56.681866,-22.225736],[-56.681735,-22.227325],[-56.682206,-22.227959],[-56.684381,-22.229011],[-56.684732,-22.229301],[-56.684746,-22.229807],[-56.684334,-22.230199],[-56.682403,-22.230195],[-56.682058,-22.230303],[-56.6819,-22.230528],[-56.681944,-22.230849],[-56.682639,-22.231582],[-56.682996,-22.232337],[-56.683181,-22.233431],[-56.683163,-22.234921],[-56.682921,-22.235892],[-56.681913,-22.238397],[-56.68022,-22.242102],[-56.68022,-22.245165],[-56.679537,-22.246352],[-56.67902,-22.246549],[-56.678468,-22.245957],[-56.677483,-22.24431],[-56.676847,-22.244296],[-56.675032,-22.245846],[-56.673469,-22.248716],[-56.672853,-22.249401],[-56.671529,-22.24938],[-56.669539,-22.24869],[-56.668192,-22.2488],[-56.66772,-22.248988],[-56.667375,-22.249295],[-56.665646,-22.252327],[-56.66428,-22.25376],[-56.663636,-22.253827],[-56.661349,-22.252535],[-56.660945,-22.252466],[-56.660585,-22.252624],[-56.65823,-22.254773],[-56.656948,-22.255489],[-56.655772,-22.255798],[-56.654238,-22.255664],[-56.653723,-22.255283],[-56.653724,-22.254565],[-56.654983,-22.254111],[-56.654901,-22.253745],[-56.654543,-22.25355],[-56.653263,-22.253493],[-56.651255,-22.254167],[-56.65085,-22.254401],[-56.650662,-22.254915],[-56.651154,-22.255793],[-56.652222,-22.256893],[-56.652048,-22.257231],[-56.648471,-22.260241],[-56.647418,-22.261919],[-56.644584,-22.263557],[-56.644119,-22.264057],[-56.642927,-22.264777],[-56.642215,-22.264988],[-56.641542,-22.264643],[-56.641008,-22.263075],[-56.640717,-22.262654],[-56.637167,-22.263337],[-56.636658,-22.263088],[-56.636786,-22.262772],[-56.638069,-22.261695],[-56.638746,-22.260504],[-56.638598,-22.259695],[-56.638151,-22.259098],[-56.637922,-22.257787],[-56.638329,-22.256916],[-56.638331,-22.255887],[-56.638733,-22.254063],[-56.638766,-22.252834],[-56.639075,-22.251732],[-56.639398,-22.251525],[-56.639749,-22.251757],[-56.640464,-22.253118],[-56.640898,-22.25329],[-56.641766,-22.253225],[-56.642284,-22.252788],[-56.643112,-22.250671],[-56.642917,-22.248064],[-56.643447,-22.245906],[-56.642963,-22.244843],[-56.641364,-22.24353],[-56.639391,-22.242428],[-56.638996,-22.241804],[-56.638622,-22.241532],[-56.636386,-22.240831],[-56.634651,-22.240651],[-56.634299,-22.240831],[-56.633142,-22.242157],[-56.632335,-22.244621],[-56.631824,-22.245293],[-56.628991,-22.246867],[-56.628452,-22.246957],[-56.627472,-22.246756],[-56.627106,-22.246466],[-56.625753,-22.243133],[-56.625008,-22.24203],[-56.623903,-22.242063],[-56.6227,-22.241889],[-56.622025,-22.242095],[-56.621331,-22.241831],[-56.62103,-22.241054],[-56.621219,-22.23969],[-56.621084,-22.238818],[-56.62084,-22.238713],[-56.619402,-22.238968],[-56.618493,-22.238776],[-56.617458,-22.238041],[-56.616231,-22.236101],[-56.615831,-22.235707],[-56.613496,-22.234974],[-56.610332,-22.233101],[-56.609774,-22.233353],[-56.608823,-22.234118],[-56.608471,-22.234199],[-56.60808,-22.234013],[-56.60611,-22.232052],[-56.605994,-22.23165],[-56.607016,-22.229976],[-56.607134,-22.226245],[-56.608225,-22.224942]],[[-56.607199,-22.219986],[-56.60537,-22.220351],[-56.60318,-22.220291],[-56.600483,-22.219399],[-56.599156,-22.21856],[-56.598864,-22.218131],[-56.598895,-22.217656],[-56.599888,-22.215509],[-56.600056,-22.214827],[-56.599829,-22.213112]],[[-56.598203,-22.21196],[-56.596789,-22.215492],[-56.594936,-22.217118],[-56.594042,-22.218344],[-56.59366,-22.218493],[-56.593338,-22.218171],[-56.593341,-22.217254],[-56.59245,-22.214384],[-56.589817,-22.212019],[-56.589328,-22.211851],[-56.587392,-22.211972],[-56.584187,-22.211083],[-56.582921,-22.210941]],[[-56.58134,-22.209822],[-56.581877,-22.20871],[-56.582452,-22.205853],[-56.582346,-22.20545],[-56.580443,-22.204172],[-56.578071,-22.202964],[-56.576628,-22.202018]],[[-56.575764,-22.202084],[-56.5755,-22.202722],[-56.575614,-22.20363],[-56.576509,-22.205254],[-56.576596,-22.205738],[-56.576378,-22.20641],[-56.575947,-22.206965],[-56.575017,-22.207337],[-56.572923,-22.207549],[-56.571026,-22.207544],[-56.570078,-22.207311],[-56.5696,-22.206975],[-56.569162,-22.206265],[-56.568966,-22.20345],[-56.568647,-22.202429],[-56.568179,-22.201899],[-56.566734,-22.201014],[-56.564955,-22.200955],[-56.563977,-22.201079],[-56.562815,-22.200611],[-56.562601,-22.20019],[-56.563094,-22.198836],[-56.563028,-22.197951],[-56.560275,-22.19657],[-56.557263,-22.196815],[-56.556668,-22.196524],[-56.556415,-22.196085],[-56.556378,-22.195304],[-56.55683,-22.194677],[-56.557736,-22.192412],[-56.557243,-22.19078],[-56.557432,-22.18985],[-56.557101,-22.189258],[-56.557367,-22.188432],[-56.55731,-22.187948],[-56.556675,-22.187811],[-56.554171,-22.188278],[-56.55348,-22.187174],[-56.552588,-22.186797]],[[-56.552119,-22.185106],[-56.554628,-22.182805],[-56.554903,-22.182322],[-56.554946,-22.181378],[-56.554064,-22.178779],[-56.55369,-22.176786],[-56.554043,-22.176177],[-56.5557,-22.17465],[-56.556054,-22.174005],[-56.557286,-22.17063],[-56.557289,-22.169695],[-56.557076,-22.169147],[-56.556725,-22.168925],[-56.553442,-22.168546],[-56.55198,-22.166956],[-56.548621,-22.165962],[-56.548057,-22.165152],[-56.547426,-22.163538],[-56.547212,-22.163329],[-56.545531,-22.16318],[-56.542298,-22.162349],[-56.540326,-22.161652],[-56.538335,-22.160599],[-56.53605,-22.160517]],[[-56.534256,-22.155811],[-56.535193,-22.156009],[-56.536966,-22.157957],[-56.537542,-22.158094],[-56.537992,-22.157847],[-56.538249,-22.156976],[-56.53823,-22.153841],[-56.5404,-22.150983],[-56.54104,-22.149409],[-56.541063,-22.148234],[-56.540626,-22.147542],[-56.540041,-22.14712],[-56.538331,-22.146813],[-56.536709,-22.146636],[-56.534725,-22.146685],[-56.534001,-22.146818],[-56.532043,-22.147879],[-56.530771,-22.148377],[-56.530047,-22.148573],[-56.529333,-22.148517],[-56.528533,-22.148099],[-56.528097,-22.147321],[-56.527867,-22.145775],[-56.528144,-22.144719],[-56.528267,-22.143161],[-56.527859,-22.142148],[-56.526664,-22.140297],[-56.525882,-22.140177],[-56.523173,-22.140788],[-56.520186,-22.140982]],[[-56.519615,-22.13986],[-56.51973,-22.138664],[-56.520221,-22.138047],[-56.520651,-22.137931],[-56.522137,-22.13798],[-56.522988,-22.137545],[-56.523016,-22.135273],[-56.523105,-22.134961],[-56.524006,-22.134119],[-56.524168,-22.132358],[-56.524545,-22.131944],[-56.524484,-22.131852],[-56.525109,-22.131493],[-56.526748,-22.131268],[-56.527021,-22.130875],[-56.526999,-22.130523],[-56.526504,-22.129871],[-56.524945,-22.128936],[-56.523965,-22.128757],[-56.523224,-22.128344],[-56.523344,-22.127771],[-56.524521,-22.126342],[-56.524787,-22.125787],[-56.524809,-22.124861],[-56.524196,-22.124065],[-56.524149,-22.123626],[-56.524287,-22.123265],[-56.525256,-22.122712],[-56.52536,-22.120892],[-56.525097,-22.120643],[-56.524501,-22.120669],[-56.52409,-22.120934],[-56.523471,-22.121953],[-56.523128,-22.122133],[-56.52261,-22.122095],[-56.521636,-22.121071],[-56.521599,-22.120479],[-56.522198,-22.119745],[-56.522466,-22.11849],[-56.522311,-22.118124],[-56.521035,-22.116891],[-56.519763,-22.114511],[-56.519676,-22.114154],[-56.520002,-22.113438],[-56.519887,-22.112691],[-56.518794,-22.111965],[-56.518561,-22.111612],[-56.518504,-22.111201],[-56.518929,-22.109707],[-56.518905,-22.108307],[-56.518515,-22.108116],[-56.516883,-22.108012],[-56.513414,-22.105106],[-56.51074,-22.104303],[-56.507765,-22.102691],[-56.507484,-22.102193],[-56.507515,-22.101515],[-56.508926,-22.10044],[-56.509349,-22.099782],[-56.509145,-22.09918],[-56.507851,-22.097767],[-56.507563,-22.096154],[-56.506598,-22.095541],[-56.506139,-22.095594],[-56.505256,-22.096612],[-56.504551,-22.097156],[-56.504003,-22.097354],[-56.503045,-22.097305],[-56.501581,-22.097003],[-56.500127,-22.09647],[-56.497488,-22.094456],[-56.496428,-22.093952],[-56.495412,-22.094179],[-56.493585,-22.095781],[-56.492895,-22.096073],[-56.491033,-22.095891],[-56.489605,-22.095498],[-56.489359,-22.095217],[-56.488978,-22.093685],[-56.488602,-22.093439],[-56.487502,-22.093594],[-56.485224,-22.095055],[-56.484171,-22.095318],[-56.483482,-22.095221],[-56.479817,-22.093841],[-56.478793,-22.093824],[-56.477544,-22.094127],[-56.476375,-22.09406],[-56.476195,-22.093707],[-56.476257,-22.09219],[-56.476402,-22.091928],[-56.477274,-22.091452],[-56.477538,-22.090839],[-56.476951,-22.08814],[-56.475949,-22.087369],[-56.473699,-22.087312],[-56.472848,-22.087106],[-56.472747,-22.086681],[-56.47368,-22.085117],[-56.473812,-22.084489],[-56.473485,-22.083784],[-56.472918,-22.083244],[-56.472386,-22.082384],[-56.47156,-22.080222],[-56.471342,-22.080009],[-56.470849,-22.079868],[-56.469643,-22.079936],[-56.467779,-22.080441],[-56.467054,-22.081193],[-56.46529,-22.082226],[-56.464673,-22.082901],[-56.463526,-22.083196],[-56.463185,-22.083447],[-56.463116,-22.083692]],[[-56.462061,-22.083627],[-56.463844,-22.080676],[-56.463968,-22.079665],[-56.463839,-22.079438],[-56.46217,-22.079826],[-56.458782,-22.079377],[-56.457547,-22.079513],[-56.457005,-22.080075],[-56.456901,-22.080545],[-56.457218,-22.081594],[-56.457272,-22.083332]],[[-56.453197,-22.083081],[-56.453705,-22.082214],[-56.453706,-22.081916],[-56.45352,-22.081803],[-56.452747,-22.081958],[-56.452849,-22.080897],[-56.451574,-22.078255],[-56.45026,-22.077252],[-56.448014,-22.076517],[-56.447827,-22.076837],[-56.447977,-22.07752],[-56.447202,-22.079365],[-56.446911,-22.08113],[-56.446946,-22.081695],[-56.447539,-22.082478],[-56.447578,-22.083337],[-56.447355,-22.084244],[-56.447633,-22.084768]],[[-56.447082,-22.084961],[-56.44625,-22.084602],[-56.444548,-22.085093],[-56.444097,-22.085005],[-56.442894,-22.083298],[-56.442141,-22.082803],[-56.441487,-22.082074],[-56.438529,-22.081124],[-56.438334,-22.081227],[-56.43829,-22.081512],[-56.438757,-22.08262],[-56.438727,-22.083045],[-56.437976,-22.08344],[-56.43677,-22.084407],[-56.435355,-22.084537],[-56.434753,-22.084806],[-56.434486,-22.085162],[-56.434775,-22.086184],[-56.434527,-22.086504],[-56.433722,-22.086406],[-56.432378,-22.085859],[-56.431434,-22.086755],[-56.430796,-22.086807],[-56.430682,-22.086061],[-56.431584,-22.085468],[-56.431823,-22.084972],[-56.431367,-22.084718],[-56.430012,-22.084844],[-56.429944,-22.084419],[-56.430071,-22.084108],[-56.431229,-22.083245],[-56.431511,-22.08269],[-56.431055,-22.08253],[-56.430169,-22.082879],[-56.42897,-22.082234],[-56.427668,-22.081972],[-56.425637,-22.082001],[-56.425011,-22.082423],[-56.42427,-22.082547],[-56.423165,-22.083049],[-56.422941,-22.083274],[-56.422653,-22.08415],[-56.422994,-22.085059],[-56.422914,-22.085322]],[[-56.420728,-22.084528],[-56.420081,-22.083576],[-56.418843,-22.079867],[-56.418542,-22.0796],[-56.416345,-22.079339],[-56.415175,-22.079669],[-56.410568,-22.080118],[-56.40474,-22.07735],[-56.402275,-22.080047],[-56.401067,-22.080589],[-56.399884,-22.080607],[-56.399392,-22.080262],[-56.398995,-22.078404],[-56.398772,-22.078087],[-56.397737,-22.077325],[-56.39589,-22.077024],[-56.395626,-22.075938]],[[-56.393315,-22.075982],[-56.393994,-22.07835],[-56.393867,-22.078616],[-56.392903,-22.078856],[-56.392725,-22.079077],[-56.392783,-22.079484],[-56.392519,-22.080413],[-56.393141,-22.081992],[-56.392439,-22.082631],[-56.391348,-22.08404],[-56.390667,-22.08537],[-56.389961,-22.086244],[-56.390368,-22.086797],[-56.390643,-22.086807],[-56.391324,-22.086376],[-56.392143,-22.086677],[-56.392342,-22.086922],[-56.392649,-22.088025],[-56.392523,-22.088137],[-56.391801,-22.088085],[-56.391092,-22.089577],[-56.390535,-22.090117],[-56.39014,-22.090003],[-56.389921,-22.089022],[-56.389604,-22.088989],[-56.389086,-22.089236],[-56.388912,-22.089614],[-56.389225,-22.090451],[-56.389126,-22.091833],[-56.389897,-22.093322],[-56.390763,-22.093587],[-56.391017,-22.094008],[-56.391273,-22.094068],[-56.391604,-22.093889],[-56.391934,-22.092977],[-56.392783,-22.09256],[-56.392839,-22.091468],[-56.393435,-22.09142],[-56.394946,-22.092135],[-56.395503,-22.093709],[-56.395458,-22.09435],[-56.394621,-22.096362],[-56.392781,-22.098428],[-56.392788,-22.10005],[-56.393103,-22.100647],[-56.39064,-22.101623],[-56.389287,-22.103068],[-56.388682,-22.103011],[-56.388067,-22.103244],[-56.38748,-22.103219],[-56.387143,-22.102436],[-56.386809,-22.102187],[-56.386148,-22.103205],[-56.386203,-22.103481],[-56.386861,-22.104183],[-56.386821,-22.104739],[-56.386554,-22.105045],[-56.384886,-22.105179],[-56.383553,-22.104778]],[[-56.381707,-22.106737],[-56.382746,-22.107989],[-56.382649,-22.108924],[-56.382922,-22.109331],[-56.384297,-22.109124],[-56.384547,-22.109392],[-56.384583,-22.109794],[-56.384271,-22.110714],[-56.383724,-22.111286],[-56.38104,-22.112671],[-56.38102,-22.112997],[-56.381344,-22.113495],[-56.380393,-22.114616],[-56.379908,-22.114763],[-56.379067,-22.11429],[-56.378672,-22.11423],[-56.378171,-22.114793],[-56.37828,-22.11534],[-56.379161,-22.11635],[-56.379292,-22.117227],[-56.380159,-22.118179],[-56.380477,-22.118989],[-56.380456,-22.119386],[-56.379315,-22.120493],[-56.37805,-22.121066],[-56.377672,-22.122325],[-56.377377,-22.12269],[-56.376252,-22.123133],[-56.374201,-22.12364],[-56.37206,-22.125849],[-56.372042,-22.126211],[-56.372498,-22.12689],[-56.373689,-22.127816],[-56.373454,-22.129247],[-56.370392,-22.131209],[-56.370318,-22.131616],[-56.370595,-22.132692],[-56.370434,-22.133486],[-56.369833,-22.134491],[-56.367817,-22.136805],[-56.369535,-22.140055],[-56.370556,-22.141034],[-56.371705,-22.141838],[-56.37185,-22.142254],[-56.371686,-22.143049],[-56.371816,-22.143248],[-56.372553,-22.143517],[-56.373396,-22.143512],[-56.373979,-22.143329],[-56.374211,-22.143506],[-56.37414,-22.144802],[-56.373161,-22.146582],[-56.372703,-22.14687],[-56.371958,-22.146781],[-56.371657,-22.146902],[-56.370972,-22.147581],[-56.370846,-22.148132],[-56.370935,-22.148584],[-56.37125,-22.148874],[-56.373663,-22.149565],[-56.373929,-22.149779],[-56.372849,-22.151139],[-56.372816,-22.152476],[-56.372626,-22.152737],[-56.372043,-22.152861],[-56.371487,-22.152733],[-56.370131,-22.151819],[-56.369131,-22.152466],[-56.369382,-22.1551],[-56.369014,-22.15621],[-56.367462,-22.15741],[-56.366514,-22.157732],[-56.3662,-22.158146],[-56.366178,-22.158602],[-56.366512,-22.159304],[-56.366571,-22.1613],[-56.366852,-22.163009],[-56.365612,-22.16412],[-56.365397,-22.165411],[-56.364414,-22.165931],[-56.363396,-22.167029],[-56.363289,-22.167422],[-56.363567,-22.168308],[-56.36401,-22.168789],[-56.364814,-22.169212],[-56.36477,-22.169541],[-56.363503,-22.170566],[-56.361889,-22.170519],[-56.360859,-22.170714],[-56.360219,-22.172058],[-56.358243,-22.172018],[-56.357721,-22.172215],[-56.357513,-22.172733],[-56.358012,-22.175288],[-56.357866,-22.175639],[-56.357616,-22.175787],[-56.356955,-22.175694],[-56.355844,-22.175085],[-56.354216,-22.174979],[-56.352925,-22.17398],[-56.351464,-22.174092],[-56.350311,-22.173161],[-56.349779,-22.173308],[-56.349616,-22.173714],[-56.349472,-22.176595],[-56.348717,-22.179763],[-56.348364,-22.180082],[-56.348013,-22.180153],[-56.34642,-22.179641],[-56.345968,-22.17968],[-56.345711,-22.180185],[-56.345485,-22.181914],[-56.343724,-22.182345],[-56.343227,-22.18288],[-56.343245,-22.183156],[-56.343877,-22.184026],[-56.34577,-22.185682],[-56.346537,-22.186593],[-56.346489,-22.187429],[-56.346183,-22.188136],[-56.344868,-22.189256],[-56.342999,-22.189876],[-56.341319,-22.189553],[-56.341269,-22.188523],[-56.341042,-22.18831],[-56.340316,-22.188614],[-56.339425,-22.189762],[-56.339025,-22.190642],[-56.338968,-22.191405],[-56.33923,-22.192097],[-56.339175,-22.192417],[-56.337438,-22.193788],[-56.335801,-22.19604],[-56.33612,-22.19652],[-56.338005,-22.197033],[-56.338137,-22.197224],[-56.338055,-22.197422],[-56.33697,-22.19875],[-56.336306,-22.19915],[-56.333339,-22.199372],[-56.330625,-22.199135],[-56.330147,-22.199246],[-56.329589,-22.200364],[-56.329524,-22.200983],[-56.33071,-22.201783],[-56.33105,-22.203482],[-56.330848,-22.204137],[-56.330199,-22.204482],[-56.329245,-22.204604],[-56.328465,-22.204176],[-56.327239,-22.203083],[-56.326948,-22.202951],[-56.326508,-22.203007],[-56.326364,-22.203409],[-56.326627,-22.20495],[-56.326474,-22.205334],[-56.325338,-22.206485],[-56.324129,-22.206945],[-56.323829,-22.207251],[-56.324027,-22.207744],[-56.325419,-22.208157],[-56.3258,-22.208362],[-56.325831,-22.20856],[-56.325232,-22.209168],[-56.323553,-22.21038],[-56.321704,-22.211028],[-56.321283,-22.211329],[-56.321367,-22.211907],[-56.322155,-22.21374],[-56.322039,-22.214268],[-56.321416,-22.214432],[-56.319127,-22.214409],[-56.317905,-22.214634],[-56.317318,-22.215007],[-56.316981,-22.215755],[-56.317112,-22.217572],[-56.316853,-22.218225],[-56.316377,-22.218291],[-56.315686,-22.218008],[-56.313677,-22.216139],[-56.312445,-22.216003],[-56.312324,-22.215596],[-56.312506,-22.214151],[-56.312293,-22.213734],[-56.311844,-22.213638],[-56.310879,-22.214135],[-56.309156,-22.21387],[-56.307266,-22.214784],[-56.305935,-22.214945],[-56.304644,-22.215346],[-56.304515,-22.215585],[-56.30458,-22.216087],[-56.304435,-22.21624],[-56.303008,-22.216306],[-56.302142,-22.216672],[-56.301415,-22.216656],[-56.300477,-22.217329],[-56.299461,-22.217424],[-56.29931,-22.217803],[-56.2993,-22.219668],[-56.29915,-22.219984],[-56.298778,-22.220226],[-56.297919,-22.220403],[-56.294836,-22.220458],[-56.294667,-22.220692],[-56.294501,-22.222218],[-56.294025,-22.222839],[-56.293291,-22.22308],[-56.291813,-22.222902],[-56.291046,-22.223296],[-56.29068,-22.224302],[-56.290728,-22.225445],[-56.290292,-22.22589],[-56.28908,-22.225442],[-56.287632,-22.225589],[-56.286491,-22.224974],[-56.28614,-22.22493]],[[-56.285089,-22.225974],[-56.285973,-22.227967],[-56.285739,-22.228571],[-56.284937,-22.229073],[-56.284675,-22.229587],[-56.284711,-22.229976],[-56.285256,-22.231008],[-56.285171,-22.231527],[-56.284928,-22.23172],[-56.284104,-22.231861],[-56.278589,-22.231747],[-56.278222,-22.231903],[-56.277788,-22.232362],[-56.277752,-22.233129],[-56.278075,-22.233379],[-56.278901,-22.233591],[-56.279114,-22.233894],[-56.2781,-22.234798],[-56.277443,-22.236556],[-56.277101,-22.236763],[-56.276308,-22.236533],[-56.275302,-22.235901],[-56.274639,-22.235166],[-56.2743,-22.234501],[-56.272548,-22.233562],[-56.270783,-22.233175],[-56.2705,-22.233341],[-56.270662,-22.234972],[-56.270404,-22.235667],[-56.26983,-22.235845],[-56.268789,-22.235565],[-56.267808,-22.235637],[-56.267276,-22.236141],[-56.26648,-22.237325],[-56.265825,-22.237751],[-56.265225,-22.238417],[-56.263767,-22.238735],[-56.262591,-22.239484],[-56.261573,-22.239209],[-56.261075,-22.238674],[-56.260318,-22.238209],[-56.258424,-22.23713],[-56.257512,-22.23686],[-56.25603,-22.237038],[-56.255621,-22.2378],[-56.255378,-22.237947],[-56.25238,-22.238512],[-56.250081,-22.238298],[-56.249776,-22.237244],[-56.2494,-22.236962],[-56.248927,-22.236983],[-56.248302,-22.237296],[-56.247377,-22.236723],[-56.246192,-22.23693],[-56.244385,-22.236257],[-56.242955,-22.235433],[-56.24153,-22.236013],[-56.238337,-22.236459],[-56.238118,-22.236634],[-56.237855,-22.237401],[-56.237332,-22.237516],[-56.23782,-22.238286],[-56.237213,-22.239178],[-56.237045,-22.240053],[-56.235934,-22.240617],[-56.235819,-22.241168],[-56.235398,-22.24164],[-56.233118,-22.245491],[-56.232482,-22.247083],[-56.232427,-22.248699],[-56.232616,-22.249369],[-56.232982,-22.249772],[-56.234409,-22.250362],[-56.234566,-22.250868],[-56.23428,-22.251834],[-56.233174,-22.25289],[-56.232533,-22.253086],[-56.232313,-22.253545],[-56.233134,-22.254977],[-56.234437,-22.255222],[-56.234577,-22.255742],[-56.2329,-22.257162],[-56.232125,-22.258134],[-56.230677,-22.25908],[-56.229118,-22.260391],[-56.228847,-22.260982],[-56.229176,-22.261873],[-56.228492,-22.262385],[-56.228091,-22.263097],[-56.227466,-22.261928],[-56.226898,-22.261758],[-56.226398,-22.262068],[-56.226144,-22.262748],[-56.225107,-22.263295],[-56.223578,-22.263649],[-56.222845,-22.264011],[-56.22223,-22.263909],[-56.221773,-22.264019],[-56.22115,-22.264879],[-56.220199,-22.265141],[-56.220297,-22.265589],[-56.221187,-22.267151],[-56.219925,-22.268613],[-56.218716,-22.268494],[-56.217465,-22.268606],[-56.216285,-22.269269],[-56.215147,-22.269376],[-56.214832,-22.269542],[-56.21417,-22.271973],[-56.214474,-22.27239],[-56.215087,-22.272632],[-56.215284,-22.273356],[-56.215005,-22.273865],[-56.214547,-22.274193],[-56.213915,-22.27428],[-56.213205,-22.274123],[-56.212794,-22.274247],[-56.212781,-22.274415],[-56.213702,-22.274984],[-56.213418,-22.275709],[-56.211322,-22.276413],[-56.210235,-22.277799],[-56.209836,-22.277978],[-56.208601,-22.27752],[-56.207703,-22.276517],[-56.206192,-22.275927],[-56.205638,-22.275423],[-56.202944,-22.275446],[-56.202675,-22.275639],[-56.202577,-22.276777],[-56.201745,-22.277455],[-56.201293,-22.278144],[-56.200992,-22.278264],[-56.19998,-22.278178],[-56.199679,-22.277941],[-56.199445,-22.276535],[-56.199162,-22.276159],[-56.198512,-22.275862],[-56.197922,-22.275132],[-56.19621,-22.273832],[-56.194613,-22.273648],[-56.194524,-22.272329],[-56.193848,-22.271246],[-56.193548,-22.27119],[-56.192119,-22.272285],[-56.191491,-22.27319],[-56.191243,-22.273319],[-56.190361,-22.273302],[-56.189734,-22.27384],[-56.18934,-22.276133],[-56.188641,-22.277697],[-56.188885,-22.278132],[-56.189844,-22.278674],[-56.189892,-22.279176],[-56.189672,-22.279563],[-56.188785,-22.279631],[-56.188397,-22.280076],[-56.189028,-22.280942],[-56.189052,-22.281791],[-56.188926,-22.281935],[-56.188244,-22.282013],[-56.187631,-22.282344],[-56.186924,-22.282323],[-56.186746,-22.281337],[-56.186871,-22.279906],[-56.186613,-22.278942],[-56.18616,-22.27857],[-56.185076,-22.278596],[-56.183537,-22.27768],[-56.182938,-22.277853],[-56.182326,-22.278844],[-56.181604,-22.279247],[-56.181219,-22.279968],[-56.179215,-22.280039],[-56.178214,-22.280887],[-56.178024,-22.280548],[-56.17808,-22.279563],[-56.177581,-22.278974],[-56.177071,-22.278912],[-56.17612,-22.279192],[-56.175877,-22.279353],[-56.175669,-22.279845],[-56.17523,-22.27977],[-56.174726,-22.279298],[-56.173875,-22.280301],[-56.173798,-22.28059],[-56.173946,-22.281092],[-56.173313,-22.282046],[-56.173483,-22.282304],[-56.173809,-22.282423],[-56.174654,-22.281719],[-56.174938,-22.281738],[-56.17492,-22.282714],[-56.175243,-22.283176],[-56.175279,-22.283574],[-56.174765,-22.284718],[-56.174666,-22.28539]],[[-56.174366,-22.285809],[-56.17402,-22.285568],[-56.173652,-22.285548],[-56.173248,-22.286039],[-56.172682,-22.286162],[-56.171827,-22.285611],[-56.171346,-22.285008],[-56.171182,-22.284533],[-56.170072,-22.284631],[-56.169695,-22.284765],[-56.169299,-22.285223],[-56.169234,-22.285652],[-56.169482,-22.286223],[-56.168907,-22.287073],[-56.165707,-22.288389],[-56.165466,-22.288203],[-56.165169,-22.286792],[-56.165322,-22.286427],[-56.166038,-22.285694],[-56.165792,-22.285382],[-56.165471,-22.28533],[-56.164966,-22.285666],[-56.161914,-22.286798],[-56.161479,-22.28685],[-56.161129,-22.286568],[-56.160962,-22.285804],[-56.161062,-22.284481],[-56.16144,-22.282821],[-56.161162,-22.282381],[-56.160321,-22.282372],[-56.159461,-22.282892],[-56.159759,-22.283444],[-56.159196,-22.283726],[-56.159102,-22.283992],[-56.159409,-22.285209],[-56.158968,-22.285513],[-56.158035,-22.28564],[-56.157047,-22.284961],[-56.156834,-22.284301],[-56.156576,-22.284006],[-56.155053,-22.283257],[-56.15464,-22.282402],[-56.154237,-22.282666],[-56.15264,-22.282472],[-56.152254,-22.281987],[-56.151513,-22.282096],[-56.150674,-22.281776],[-56.148348,-22.282387],[-56.147593,-22.28283],[-56.147544,-22.283159],[-56.14809,-22.284251],[-56.147791,-22.284615],[-56.146236,-22.284489],[-56.145409,-22.284173],[-56.145141,-22.28424],[-56.146117,-22.285347],[-56.145974,-22.285545],[-56.144481,-22.285506],[-56.144104,-22.284808],[-56.143658,-22.28467],[-56.141523,-22.284812],[-56.140489,-22.285471],[-56.139342,-22.285763],[-56.136274,-22.2859],[-56.135619,-22.284975],[-56.13403,-22.284764],[-56.133705,-22.284541],[-56.133561,-22.284165],[-56.133731,-22.283086],[-56.13351,-22.2829],[-56.133318,-22.282962],[-56.132958,-22.283561],[-56.132076,-22.284184],[-56.131251,-22.284442],[-56.130661,-22.284393],[-56.129481,-22.283768],[-56.128874,-22.283173],[-56.128281,-22.282258],[-56.128439,-22.28182],[-56.129307,-22.281369],[-56.129344,-22.280962],[-56.12917,-22.280632],[-56.128719,-22.280386],[-56.128024,-22.280558],[-56.127661,-22.280411],[-56.127704,-22.280136],[-56.128247,-22.279674],[-56.128513,-22.27916],[-56.128485,-22.27771],[-56.128111,-22.276733],[-56.128647,-22.275972],[-56.128505,-22.275113],[-56.12641,-22.274483],[-56.12564,-22.274447],[-56.125175,-22.274553],[-56.123767,-22.27558],[-56.123282,-22.275465],[-56.124293,-22.27295],[-56.1247,-22.272875],[-56.12523,-22.273135],[-56.125544,-22.272934],[-56.125159,-22.27164],[-56.124563,-22.270733],[-56.124309,-22.270682],[-56.123927,-22.271299],[-56.123395,-22.271703],[-56.119793,-22.273223],[-56.119604,-22.273123],[-56.119812,-22.272262],[-56.119069,-22.271038],[-56.11841,-22.270497],[-56.11769,-22.270394],[-56.117168,-22.270955],[-56.116366,-22.272911],[-56.11585,-22.274693],[-56.113642,-22.274803],[-56.113478,-22.27458],[-56.113588,-22.273949],[-56.113474,-22.27369],[-56.113049,-22.273358],[-56.112368,-22.273296],[-56.111672,-22.273893],[-56.111669,-22.274692],[-56.110547,-22.274628],[-56.109987,-22.275194],[-56.109867,-22.275572],[-56.109953,-22.275871],[-56.110559,-22.276249],[-56.110184,-22.276893],[-56.109639,-22.277003],[-56.108826,-22.276736],[-56.107063,-22.277386],[-56.105237,-22.277277],[-56.104814,-22.277532],[-56.104805,-22.27816],[-56.104534,-22.27847],[-56.102136,-22.278506],[-56.10157,-22.279795],[-56.101132,-22.278948],[-56.10092,-22.278825],[-56.100335,-22.279653],[-56.100001,-22.280459],[-56.098359,-22.280613],[-56.096288,-22.282223],[-56.096292,-22.28244],[-56.096517,-22.282513],[-56.097687,-22.282145],[-56.098038,-22.28225],[-56.098404,-22.282618],[-56.098138,-22.283172],[-56.09656,-22.284072],[-56.094775,-22.283764],[-56.093426,-22.284009],[-56.092939,-22.284471],[-56.092972,-22.285262],[-56.09262,-22.285739],[-56.090405,-22.285171],[-56.088991,-22.284504],[-56.088746,-22.284145],[-56.088841,-22.282565],[-56.08789,-22.282063],[-56.087726,-22.282184],[-56.087742,-22.283462],[-56.086846,-22.283945],[-56.086775,-22.284225],[-56.087225,-22.284697],[-56.088027,-22.284891],[-56.088294,-22.285276],[-56.088132,-22.285438],[-56.087217,-22.285605],[-56.086751,-22.286167],[-56.086365,-22.28625],[-56.086026,-22.285955],[-56.085287,-22.284745],[-56.084922,-22.283586],[-56.084541,-22.283033],[-56.082667,-22.282128],[-56.081824,-22.282553],[-56.081532,-22.282962],[-56.081491,-22.284642],[-56.08136,-22.284858],[-56.081059,-22.284816],[-56.080561,-22.284212],[-56.080114,-22.284273],[-56.079881,-22.284732],[-56.080043,-22.285307],[-56.079364,-22.285646],[-56.078862,-22.285643],[-56.07853,-22.286093],[-56.078296,-22.286033],[-56.07814,-22.285644],[-56.078778,-22.285327],[-56.078669,-22.284883],[-56.077628,-22.284873],[-56.076909,-22.284688],[-56.076913,-22.285217],[-56.077461,-22.285622],[-56.077473,-22.286055],[-56.077246,-22.28628],[-56.076265,-22.286446],[-56.075836,-22.286814],[-56.075563,-22.286745],[-56.075151,-22.285685],[-56.074861,-22.285566],[-56.074349,-22.286575],[-56.07383,-22.286992],[-56.07272,-22.287248],[-56.072791,-22.286404],[-56.072515,-22.286045],[-56.071825,-22.287003],[-56.071286,-22.287145],[-56.070661,-22.286789],[-56.070503,-22.285772],[-56.07016,-22.285503],[-56.069893,-22.285701],[-56.069726,-22.286648],[-56.069346,-22.286741],[-56.068525,-22.286004],[-56.068164,-22.284467],[-56.067809,-22.284221],[-56.067224,-22.284168],[-56.067238,-22.283702],[-56.066989,-22.283435],[-56.066772,-22.282607],[-56.066564,-22.282344],[-56.066168,-22.282197],[-56.066783,-22.281148],[-56.066595,-22.281011],[-56.066039,-22.281067],[-56.066274,-22.280544],[-56.066187,-22.280137],[-56.065851,-22.280095],[-56.06532,-22.280313],[-56.064995,-22.280176],[-56.065623,-22.279443],[-56.065147,-22.279029],[-56.065041,-22.278338],[-56.064713,-22.278412],[-56.064501,-22.278953],[-56.064006,-22.278874],[-56.063992,-22.278679],[-56.064515,-22.278091],[-56.064528,-22.277725],[-56.064331,-22.277548],[-56.064162,-22.277614],[-56.06379,-22.278362],[-56.062835,-22.278203],[-56.062768,-22.277516],[-56.063318,-22.27648],[-56.062305,-22.27582],[-56.061649,-22.27624],[-56.061838,-22.276788],[-56.060826,-22.276674],[-56.060581,-22.276392],[-56.061261,-22.275705],[-56.060875,-22.275522],[-56.060096,-22.275784],[-56.05984,-22.276085],[-56.060191,-22.276833],[-56.060949,-22.277262],[-56.060935,-22.277492],[-56.060751,-22.277577],[-56.059892,-22.277572],[-56.059425,-22.277388],[-56.059004,-22.276871],[-56.059249,-22.276597],[-56.059209,-22.276398],[-56.058581,-22.276385],[-56.057605,-22.276709],[-56.056641,-22.276451],[-56.055163,-22.277201],[-56.054151,-22.277145],[-56.054002,-22.277307],[-56.054108,-22.277759],[-56.053557,-22.277846],[-56.053158,-22.278183],[-56.052815,-22.277978],[-56.053088,-22.277388],[-56.052906,-22.277219],[-56.052588,-22.277245],[-56.052211,-22.277595],[-56.052424,-22.277984],[-56.052322,-22.278146],[-56.05152,-22.278151],[-56.051139,-22.278627],[-56.050755,-22.27881],[-56.049984,-22.278783],[-56.049639,-22.277955],[-56.048318,-22.277432],[-56.047873,-22.277438],[-56.047712,-22.277812],[-56.047877,-22.278956],[-56.047766,-22.27938],[-56.047515,-22.279424],[-56.047209,-22.27864],[-56.046568,-22.278641],[-56.046462,-22.278785],[-56.046805,-22.279437],[-56.046746,-22.279631],[-56.046162,-22.280197],[-56.045103,-22.280733],[-56.044485,-22.280819],[-56.044431,-22.281235],[-56.044974,-22.281721],[-56.044945,-22.282118],[-56.044666,-22.282487],[-56.043893,-22.28269],[-56.043463,-22.283054],[-56.043224,-22.282876],[-56.043061,-22.28236],[-56.04283,-22.282287],[-56.041317,-22.283267],[-56.039525,-22.283225],[-56.038468,-22.282658],[-56.037615,-22.282685],[-56.037654,-22.281877],[-56.037347,-22.281378],[-56.037024,-22.281448],[-56.036756,-22.282111],[-56.036475,-22.282118],[-56.035675,-22.28098],[-56.035226,-22.281442],[-56.034525,-22.281248],[-56.033995,-22.281385],[-56.033911,-22.281845],[-56.034446,-22.282386],[-56.034462,-22.282576],[-56.033669,-22.283339],[-56.033309,-22.284511],[-56.032715,-22.284846],[-56.03184,-22.284814],[-56.031258,-22.285213],[-56.030939,-22.28517],[-56.03002,-22.284591],[-56.029246,-22.284491],[-56.029057,-22.284671],[-56.02931,-22.285282],[-56.029142,-22.285625],[-56.027627,-22.28557],[-56.026554,-22.285916],[-56.025963,-22.285583],[-56.025181,-22.286093],[-56.025014,-22.285844],[-56.025075,-22.285126],[-56.024733,-22.28483],[-56.024281,-22.28471],[-56.024116,-22.284818],[-56.023922,-22.285494],[-56.022897,-22.285447],[-56.022801,-22.285695],[-56.02295,-22.286319],[-56.021909,-22.287221],[-56.02113,-22.287139],[-56.020892,-22.286347],[-56.020417,-22.286236],[-56.019901,-22.286929],[-56.018657,-22.286907],[-56.018263,-22.287063],[-56.017352,-22.288381],[-56.016772,-22.288549],[-56.015881,-22.28825],[-56.014598,-22.287136],[-56.013158,-22.286306]],[[-56.012091,-22.286918],[-56.011842,-22.288339],[-56.010074,-22.289782],[-56.009869,-22.290395],[-56.010001,-22.290888],[-56.010379,-22.291356],[-56.011853,-22.291554],[-56.012367,-22.291865],[-56.012627,-22.292733],[-56.012478,-22.29322],[-56.011876,-22.29281],[-56.011477,-22.292781],[-56.011308,-22.292974],[-56.011255,-22.293764],[-56.010832,-22.293969],[-56.010735,-22.293521],[-56.010458,-22.293438],[-56.010505,-22.294324],[-56.010229,-22.294625],[-56.009935,-22.294619],[-56.009274,-22.294267],[-56.008732,-22.293094],[-56.008532,-22.293065],[-56.008089,-22.293487],[-56.007866,-22.292881],[-56.007656,-22.292712],[-56.006394,-22.292569],[-56.005941,-22.292846],[-56.005509,-22.294059],[-56.004916,-22.294276],[-56.004092,-22.293562],[-56.004112,-22.293097],[-56.004365,-22.292543],[-56.004313,-22.292227],[-56.003412,-22.291548],[-56.002945,-22.290917],[-56.002945,-22.289824],[-56.002411,-22.289288],[-56.002769,-22.288793],[-56.002064,-22.287398],[-56.002076,-22.2864],[-56.001768,-22.286375],[-56.001387,-22.286987],[-56.000635,-22.286779],[-56.001566,-22.286053],[-56.001704,-22.285652],[-56.001264,-22.285604],[-55.999706,-22.286033],[-55.999217,-22.285894],[-55.999166,-22.285628],[-55.999448,-22.285173],[-56.000323,-22.284763],[-56.000204,-22.284202],[-55.999273,-22.284599],[-55.998682,-22.283773],[-55.998374,-22.283613],[-55.998265,-22.283856],[-55.998576,-22.28473],[-55.99773,-22.284467],[-55.997256,-22.28422],[-55.997168,-22.283407],[-55.996434,-22.28347],[-55.996013,-22.282713],[-55.994229,-22.282219],[-55.993068,-22.281516],[-55.992113,-22.280602],[-55.991832,-22.280628],[-55.991506,-22.280906],[-55.991463,-22.281935],[-55.991325,-22.282156],[-55.990981,-22.282122],[-55.99026,-22.281625],[-55.989513,-22.281941],[-55.989401,-22.28143],[-55.989112,-22.281234],[-55.987701,-22.281275],[-55.984686,-22.280737],[-55.984375,-22.280486],[-55.984159,-22.279803],[-55.983514,-22.279555],[-55.983807,-22.279037],[-55.983615,-22.278706],[-55.982332,-22.278698],[-55.981711,-22.279178],[-55.980954,-22.278604],[-55.980366,-22.278889],[-55.979812,-22.279464],[-55.980108,-22.280175],[-55.979886,-22.28072],[-55.979879,-22.281235],[-55.979593,-22.281382],[-55.979117,-22.28123],[-55.979175,-22.281831],[-55.978797,-22.282113],[-55.977275,-22.282388],[-55.977352,-22.282633],[-55.977676,-22.282856],[-55.977909,-22.283598],[-55.978544,-22.283665],[-55.978628,-22.283824],[-55.978098,-22.284101],[-55.977881,-22.28465],[-55.977656,-22.284771],[-55.975665,-22.284641],[-55.974626,-22.287037],[-55.971294,-22.290191],[-55.969781,-22.291076],[-55.969582,-22.292073],[-55.969265,-22.292021],[-55.96734,-22.290383],[-55.966035,-22.288776],[-55.964655,-22.288672],[-55.963727,-22.289398],[-55.961943,-22.289337],[-55.961495,-22.289673],[-55.961383,-22.289966],[-55.960978,-22.290171],[-55.959275,-22.290106],[-55.957449,-22.290803],[-55.957224,-22.290729],[-55.957249,-22.290273],[-55.957089,-22.290065],[-55.955951,-22.29008],[-55.954114,-22.289734],[-55.953797,-22.290003],[-55.953584,-22.290787],[-55.953076,-22.29143],[-55.952725,-22.291577],[-55.952115,-22.291469],[-55.951298,-22.292648]],[[-55.948862,-22.291383],[-55.948671,-22.291284]],[[-55.948537,-22.291214],[-55.948833,-22.290793],[-55.948884,-22.290088],[-55.948501,-22.288979],[-55.948362,-22.288698],[-55.94786,-22.288402],[-55.947262,-22.288348],[-55.946817,-22.287555],[-55.946143,-22.286814],[-55.946078,-22.285956],[-55.945787,-22.285127],[-55.946097,-22.284799],[-55.946673,-22.284781],[-55.946753,-22.284406],[-55.945623,-22.283378],[-55.944418,-22.28328],[-55.943742,-22.282815],[-55.943535,-22.282836],[-55.943263,-22.283232],[-55.942838,-22.283216],[-55.942408,-22.282946],[-55.9425,-22.282495],[-55.942326,-22.282377],[-55.941409,-22.282791],[-55.939693,-22.282414],[-55.9375,-22.28155],[-55.935807,-22.280238],[-55.934278,-22.279492],[-55.933547,-22.279424],[-55.932078,-22.279636],[-55.930067,-22.278801],[-55.928526,-22.278415],[-55.927339,-22.278724],[-55.925712,-22.279562],[-55.923447,-22.279217],[-55.922165,-22.279566],[-55.920888,-22.280506],[-55.920198,-22.280673],[-55.919249,-22.280662],[-55.918459,-22.280332],[-55.918057,-22.279954],[-55.917933,-22.278607],[-55.917646,-22.278172],[-55.916413,-22.277811],[-55.915103,-22.278236],[-55.91395,-22.279109],[-55.912844,-22.278957],[-55.912354,-22.279153],[-55.907428,-22.282837],[-55.905477,-22.283645],[-55.904428,-22.284569],[-55.90193,-22.285035],[-55.900089,-22.28589],[-55.89902,-22.285901],[-55.896472,-22.284989],[-55.892866,-22.28435],[-55.890585,-22.283639],[-55.888937,-22.282788],[-55.887665,-22.282729],[-55.884399,-22.283348],[-55.883352,-22.283273],[-55.880195,-22.282592],[-55.878708,-22.282573],[-55.87574,-22.282078],[-55.874645,-22.283027],[-55.865254,-22.28356],[-55.86414,-22.282431],[-55.86157,-22.283127],[-55.858196,-22.282024],[-55.856801,-22.28073],[-55.853292,-22.280298],[-55.851187,-22.281823],[-55.849422,-22.286015],[-55.843135,-22.287096],[-55.841809,-22.288707],[-55.841708,-22.290852],[-55.839154,-22.294133],[-55.836635,-22.295427]],[[-55.836337,-22.2965],[-55.838756,-22.297437],[-55.838124,-22.300406],[-55.839144,-22.301538],[-55.835647,-22.305032],[-55.836324,-22.308056],[-55.835024,-22.312271],[-55.833145,-22.314698],[-55.831767,-22.314567],[-55.829014,-22.315924]],[[-55.828997,-22.316188],[-55.832461,-22.321132],[-55.830756,-22.323987],[-55.8324,-22.325656],[-55.828918,-22.330261],[-55.828264,-22.332828],[-55.827003,-22.335566],[-55.82471,-22.336727],[-55.824262,-22.339055],[-55.824304,-22.340677],[-55.821007,-22.345148],[-55.814716,-22.34567],[-55.809821,-22.349775],[-55.809276,-22.352474],[-55.804407,-22.354726],[-55.800853,-22.355343],[-55.798548,-22.364754],[-55.799638,-22.368711],[-55.803177,-22.369737],[-55.803711,-22.372303],[-55.791321,-22.380536],[-55.791109,-22.388472],[-55.788222,-22.389034],[-55.7849,-22.387355],[-55.78373,-22.385876],[-55.779819,-22.384371],[-55.777241,-22.385084],[-55.776248,-22.385983],[-55.766697,-22.384264],[-55.757076,-22.386255],[-55.748685,-22.383451],[-55.746708,-22.384106],[-55.747777,-22.3861],[-55.74695,-22.388632],[-55.744543,-22.389713],[-55.742005,-22.395385],[-55.74581,-22.403703],[-55.740848,-22.407219],[-55.737219,-22.41122],[-55.737198,-22.414122],[-55.739598,-22.423807],[-55.73641,-22.429198],[-55.736334,-22.43528],[-55.733909,-22.441544],[-55.736715,-22.444665],[-55.73817,-22.454463],[-55.735789,-22.458064]],[[-55.737033,-22.460022],[-55.738309,-22.459916],[-55.741134,-22.461346],[-55.743411,-22.463774],[-55.748078,-22.464548],[-55.746574,-22.469532],[-55.751078,-22.474732],[-55.752852,-22.474828],[-55.751577,-22.48012]],[[-55.690345,-22.580139],[-55.688229,-22.58138],[-55.68367,-22.586734],[-55.682899,-22.588887],[-55.677197,-22.5917],[-55.669631,-22.594052],[-55.666542,-22.598773],[-55.661161,-22.602409],[-55.651305,-22.607906],[-55.649228,-22.610461],[-55.641388,-22.612705],[-55.636665,-22.61785],[-55.631334,-22.620607],[-55.625163,-22.628248],[-55.623297,-22.643808],[-55.622493,-22.647101],[-55.622873,-22.650469],[-55.621603,-22.652905],[-55.618095,-22.653527],[-55.614424,-22.655087],[-55.613802,-22.660002],[-55.617235,-22.664858],[-55.61829,-22.670419],[-55.617308,-22.677623],[-55.609313,-22.689018],[-55.613628,-22.692824],[-55.614754,-22.699673],[-55.613181,-22.704535],[-55.613922,-22.711557],[-55.61342,-22.717043],[-55.617037,-22.725085],[-55.61601,-22.735918],[-55.613089,-22.738946],[-55.616454,-22.740074],[-55.619751,-22.743302],[-55.620956,-22.74525],[-55.620125,-22.746837],[-55.6194,-22.749447],[-55.620181,-22.753352],[-55.621887,-22.754681],[-55.62408,-22.755741],[-55.626639,-22.757624],[-55.625731,-22.760396],[-55.622993,-22.762128],[-55.620731,-22.763789],[-55.61944,-22.765233],[-55.61806,-22.767514],[-55.618519,-22.767941],[-55.623142,-22.767034],[-55.6277,-22.766607],[-55.629749,-22.766705],[-55.630776,-22.767079],[-55.631505,-22.768205],[-55.633213,-22.769377],[-55.635294,-22.770292],[-55.636638,-22.771745],[-55.636846,-22.773849],[-55.636296,-22.777139],[-55.63657,-22.778869],[-55.639015,-22.782699],[-55.639878,-22.783572],[-55.64132,-22.784679],[-55.641883,-22.78535],[-55.643591,-22.786449],[-55.644027,-22.787546],[-55.645515,-22.788878],[-55.646529,-22.789501],[-55.647936,-22.789923],[-55.649066,-22.790543],[-55.650426,-22.791042],[-55.650665,-22.791916],[-55.652314,-22.792306],[-55.650632,-22.793344],[-55.650137,-22.795957],[-55.649871,-22.799234],[-55.64916,-22.801624],[-55.650908,-22.804366],[-55.6543,-22.807004],[-55.655673,-22.808589],[-55.653436,-22.811828],[-55.65338,-22.816641],[-55.65459,-22.818996],[-55.656153,-22.82067],[-55.657484,-22.823222],[-55.660875,-22.827413],[-55.66026,-22.83091],[-55.659239,-22.834625],[-55.658995,-22.841005],[-55.663185,-22.847126],[-55.665857,-22.852473],[-55.663064,-22.857205],[-55.663294,-22.860292],[-55.661614,-22.862599],[-55.660135,-22.863978],[-55.659927,-22.868088],[-55.661679,-22.874469],[-55.661745,-22.878],[-55.661224,-22.882224],[-55.656849,-22.885091],[-55.653787,-22.884829],[-55.650979,-22.887307],[-55.649536,-22.891017],[-55.6487,-22.896927],[-55.651109,-22.902529],[-55.650551,-22.911085],[-55.648085,-22.912953],[-55.647169,-22.921832],[-55.645516,-22.924494],[-55.651648,-22.931081],[-55.650637,-22.934562],[-55.647137,-22.937479],[-55.644755,-22.940064],[-55.643962,-22.942412],[-55.647609,-22.949894],[-55.644092,-22.9509],[-55.638408,-22.950596],[-55.636077,-22.953853],[-55.634619,-22.955152],[-55.638191,-22.957604],[-55.6379,-22.96024],[-55.636836,-22.964769],[-55.633662,-22.967731],[-55.63171,-22.970055],[-55.628894,-22.975107],[-55.626419,-22.977914],[-55.621977,-22.984552],[-55.624131,-22.988497],[-55.62665,-22.989193],[-55.628191,-22.987902],[-55.633931,-22.991824],[-55.633344,-22.997305],[-55.629509,-22.998127]],[[-55.629447,-22.999153],[-55.632321,-23.001534],[-55.632946,-23.008303],[-55.639415,-23.025928],[-55.635243,-23.025685],[-55.632758,-23.028177],[-55.628887,-23.032553],[-55.623819,-23.032961],[-55.619182,-23.036411],[-55.613918,-23.041077],[-55.611187,-23.047682],[-55.611322,-23.05006],[-55.614632,-23.054376],[-55.611726,-23.059353],[-55.610532,-23.069663],[-55.610969,-23.077018],[-55.617027,-23.08173],[-55.6121,-23.08603],[-55.612111,-23.090508],[-55.599783,-23.104176],[-55.595833,-23.119457],[-55.598261,-23.121365],[-55.596219,-23.129678],[-55.595486,-23.131374],[-55.596447,-23.142501],[-55.597336,-23.147014],[-55.596811,-23.152603],[-55.592019,-23.151701],[-55.585559,-23.149082],[-55.582921,-23.148511],[-55.573477,-23.143295],[-55.569163,-23.143693],[-55.56687,-23.144068],[-55.56439,-23.146598],[-55.560981,-23.148239],[-55.558206,-23.150051],[-55.555017,-23.152948],[-55.547013,-23.156329],[-55.545111,-23.155771],[-55.541903,-23.15612],[-55.541164,-23.15911],[-55.540767,-23.162687],[-55.541836,-23.164172],[-55.54433,-23.166948],[-55.540836,-23.169427],[-55.539978,-23.174989],[-55.543811,-23.177475],[-55.543098,-23.180811],[-55.538819,-23.184506],[-55.53592,-23.186039],[-55.532857,-23.190373],[-55.528203,-23.192972],[-55.525264,-23.194904],[-55.523292,-23.197788],[-55.526268,-23.208201],[-55.530038,-23.211674],[-55.534181,-23.216859],[-55.54032,-23.220929],[-55.542858,-23.21929],[-55.544016,-23.219582]],[[-55.545009,-23.222199],[-55.542395,-23.226595],[-55.540486,-23.234035],[-55.536716,-23.235777],[-55.540418,-23.244127],[-55.537306,-23.251264],[-55.529731,-23.252755],[-55.526415,-23.256741],[-55.522676,-23.259717],[-55.525924,-23.262357],[-55.529494,-23.266127],[-55.533003,-23.269313],[-55.537423,-23.270725],[-55.540745,-23.273628],[-55.544006,-23.274085],[-55.547492,-23.27535],[-55.549388,-23.278965],[-55.553183,-23.279475],[-55.554972,-23.282911],[-55.554733,-23.288172],[-55.552042,-23.29669],[-55.549275,-23.303647],[-55.556013,-23.316298],[-55.554953,-23.320501],[-55.546248,-23.323619],[-55.538528,-23.329479],[-55.534643,-23.333314],[-55.532214,-23.341062],[-55.527649,-23.342364],[-55.524073,-23.349331],[-55.520707,-23.352235],[-55.519498,-23.365119],[-55.510757,-23.366791],[-55.506603,-23.370235],[-55.505216,-23.373042],[-55.504467,-23.374978],[-55.504478,-23.378475],[-55.509542,-23.393496],[-55.513378,-23.400303],[-55.515641,-23.409535],[-55.522793,-23.41987],[-55.524239,-23.423299],[-55.529334,-23.42983],[-55.538386,-23.438921],[-55.544794,-23.449316],[-55.540578,-23.455517],[-55.543307,-23.474187],[-55.545077,-23.477207],[-55.553943,-23.475677],[-55.562205,-23.476155],[-55.559109,-23.488644],[-55.553487,-23.488149],[-55.551784,-23.489397],[-55.549722,-23.496194],[-55.548282,-23.504458],[-55.546777,-23.522555],[-55.543421,-23.523665],[-55.544186,-23.527128],[-55.545002,-23.529863],[-55.544911,-23.531262],[-55.545714,-23.532659]],[[-55.544778,-23.534352],[-55.544058,-23.535016],[-55.544029,-23.535708]]]}},{"type":"Feature","properties":{"trecho":"urbano","km":13.9},"geometry":{"type":"LineString","coordinates":[[-55.751577,-22.48012],[-55.751178,-22.481772],[-55.747694,-22.483135],[-55.746703,-22.486248],[-55.747761,-22.495521],[-55.747266,-22.505485],[-55.740691,-22.515494],[-55.740435,-22.519067],[-55.737757,-22.526421],[-55.737026,-22.527982],[-55.735961,-22.530199],[-55.732366,-22.535776],[-55.7301,-22.540267],[-55.728262,-22.544074],[-55.726301,-22.547062],[-55.723604,-22.551771],[-55.717149,-22.554684],[-55.71369,-22.557364],[-55.709048,-22.559085],[-55.698421,-22.563258],[-55.694778,-22.571145],[-55.694779,-22.57754],[-55.690345,-22.580139]]}}]}