{"type":"FeatureCollection","features":[{"type":"Feature","properties":{"nome":"","tipo":"Córrego"},"geometry":{"type":"LineString","coordinates":[[-55.7726,-22.49537],[-55.77286,-22.49549],[-55.77305,-22.4958],[-55.77317,-22.49588],[-55.77339,-22.49591],[-55.77369,-22.49585],[-55.77431,-22.49598],[-55.77455,-22.49611],[-55.7747,-22.4963],[-55.77506,-22.49638],[-55.77536,-22.49639],[-55.77611,-22.49616],[-55.77643,-22.49631],[-55.77669,-22.49638],[-55.77698,-22.49638],[-55.77761,-22.49625],[-55.77807,-22.49624],[-55.77848,-22.49632],[-55.77888,-22.4965],[-55.77945,-22.49721],[-55.77981,-22.49814],[-55.78003,-22.49828],[-55.78074,-22.49835],[-55.78096,-22.49843],[-55.78161,-22.49906],[-55.78193,-22.49919],[-55.78204,-22.49928],[-55.78208,-22.49964],[-55.78191,-22.50012],[-55.78196,-22.50044],[-55.78211,-22.50073],[-55.78223,-22.50082],[-55.78238,-22.50089],[-55.78296,-22.50092],[-55.78375,-22.50076],[-55.784,-22.50093],[-55.78419,-22.501],[-55.78453,-22.50126],[-55.78483,-22.5013],[-55.78538,-22.5012],[-55.78556,-22.50124],[-55.78567,-22.50142],[-55.78608,-22.50169],[-55.7873,-22.50189],[-55.788,-22.50227],[-55.78818,-22.50243],[-55.78872,-22.50306],[-55.78887,-22.50315],[-55.78947,-22.5032],[-55.78978,-22.50333],[-55.78988,-22.50344],[-55.79015,-22.50359],[-55.79041,-22.5039],[-55.7907,-22.5041],[-55.79083,-22.50417],[-55.7911,-22.50416],[-55.79121,-22.50443],[-55.79152,-22.50434],[-55.79164,-22.50438],[-55.7921,-22.50432],[-55.79232,-22.50441],[-55.79242,-22.50451],[-55.79275,-22.50507],[-55.79311,-22.50543],[-55.79366,-22.50563],[-55.79398,-22.50591],[-55.7941,-22.50615],[-55.79429,-22.50613],[-55.79451,-22.50594],[-55.79494,-22.50585],[-55.7956,-22.5059],[-55.79581,-22.50588],[-55.79638,-22.50555],[-55.79674,-22.50542],[-55.79726,-22.50553],[-55.79806,-22.50543],[-55.79836,-22.50549],[-55.79851,-22.50558],[-55.79906,-22.50634],[-55.8,-22.50735]]}},{"type":"Feature","properties":{"nome":"Córrego São João Mirim","tipo":"Córrego"},"geometry":{"type":"LineString","coordinates":[[-55.74386,-22.50542],[-55.74355,-22.50555],[-55.74341,-22.50577],[-55.743,-22.50583],[-55.74284,-22.50595],[-55.74266,-22.50624],[-55.74256,-22.50673],[-55.74239,-22.50696],[-55.74217,-22.50712],[-55.74161,-22.50729],[-55.74074,-22.5077],[-55.74057,-22.50782],[-55.74046,-22.50798]]}},{"type":"Feature","properties":{"nome":"Corrego São Tomaz","tipo":"Córrego"},"geometry":{"type":"LineString","coordinates":[[-55.68768,-22.54649],[-55.68721,-22.54619],[-55.6862,-22.54522],[-55.68584,-22.54503],[-55.68564,-22.54481],[-55.68558,-22.54457],[-55.6853,-22.54434],[-55.68511,-22.54406],[-55.68486,-22.54433],[-55.68473,-22.54428],[-55.68451,-22.54405],[-55.68452,-22.54397],[-55.68463,-22.54389],[-55.68448,-22.54387],[-55.68438,-22.54378],[-55.68426,-22.54377],[-55.68409,-22.54348],[-55.68383,-22.54348],[-55.68368,-22.54342],[-55.68343,-22.54319]]}},{"type":"Feature","properties":{"nome":"","tipo":"Córrego"},"geometry":{"type":"LineString","coordinates":[[-55.74326,-22.50533],[-55.74322,-22.50574],[-55.74312,-22.50581]]}},{"type":"Feature","properties":{"nome":"","tipo":"Córrego"},"geometry":{"type":"LineString","coordinates":[[-55.74451,-22.50571],[-55.74434,-22.50578],[-55.74423,-22.50573],[-55.74408,-22.50577],[-55.74402,-22.50573],[-55.7438,-22.50583],[-55.74368,-22.50566],[-55.74346,-22.50572]]}},{"type":"Feature","properties":{"nome":"","tipo":"Córrego"},"geometry":{"type":"LineString","coordinates":[[-55.74243,-22.50544],[-55.74266,-22.50624]]}},{"type":"Feature","properties":{"nome":"Córrego Peguajho","tipo":"Córrego"},"geometry":{"type":"LineString","coordinates":[[-55.71744,-22.49732],[-55.71724,-22.49735],[-55.71716,-22.49741],[-55.71697,-22.4974],[-55.71663,-22.49732],[-55.7166,-22.49726],[-55.71651,-22.49725],[-55.71602,-22.49737],[-55.71573,-22.49752],[-55.71514,-22.49764],[-55.71496,-22.49774],[-55.71479,-22.49775],[-55.71435,-22.49788],[-55.71403,-22.49782],[-55.71378,-22.49789],[-55.71352,-22.4979],[-55.71329,-22.49773],[-55.71259,-22.49768],[-55.71225,-22.49777],[-55.71188,-22.49779],[-55.71172,-22.49776],[-55.71126,-22.49748],[-55.7109,-22.49736],[-55.71076,-22.49717],[-55.71075,-22.49701],[-55.71064,-22.49686],[-55.71006,-22.49682],[-55.7097,-22.49672],[-55.70918,-22.49671],[-55.70898,-22.49647],[-55.70869,-22.49633],[-55.70855,-22.4961],[-55.7084,-22.49609],[-55.70836,-22.49605],[-55.70844,-22.49597],[-55.70836,-22.49589],[-55.70805,-22.49584],[-55.70804,-22.49591],[-55.70784,-22.49596],[-55.70625,-22.49561],[-55.7057,-22.49566],[-55.70559,-22.49572],[-55.70541,-22.49569]]}},{"type":"Feature","properties":{"nome":"Córrego Peguajho","tipo":"Córrego"},"geometry":{"type":"LineString","coordinates":[[-55.74069,-22.49485],[-55.73994,-22.495],[-55.73936,-22.49465],[-55.73885,-22.49474],[-55.73873,-22.49463],[-55.73862,-22.49467],[-55.73827,-22.49443],[-55.7378,-22.49434]]}},{"type":"Feature","properties":{"nome":"Corrego Geovai","tipo":"Córrego"},"geometry":{"type":"LineString","coordinates":[[-55.68407,-22.57646],[-55.68396,-22.57625],[-55.68398,-22.57547],[-55.68388,-22.5751],[-55.68345,-22.57472],[-55.68315,-22.57456],[-55.6827,-22.57417],[-55.68263,-22.57393],[-55.68241,-22.57375],[-55.68183,-22.57348],[-55.68105,-22.57298]]}},{"type":"Feature","properties":{"nome":"Rio São João","tipo":"Rio"},"geometry":{"type":"LineString","coordinates":[[-55.69998,-22.50258],[-55.69989,-22.50257],[-55.69977,-22.50267],[-55.69976,-22.50304],[-55.69968,-22.50313],[-55.6995,-22.50311],[-55.69936,-22.50294],[-55.69926,-22.50292],[-55.69917,-22.50301],[-55.69895,-22.50356],[-55.69882,-22.50371],[-55.69866,-22.50379],[-55.69854,-22.50382],[-55.69837,-22.50379],[-55.69797,-22.50356],[-55.69775,-22.50351],[-55.69761,-22.5036],[-55.69754,-22.50389],[-55.69739,-22.50417],[-55.6966,-22.50481],[-55.69626,-22.50528],[-55.69621,-22.50563],[-55.69608,-22.50578],[-55.69589,-22.50587],[-55.69525,-22.50563],[-55.69501,-22.50566],[-55.69477,-22.50575],[-55.69448,-22.50632],[-55.69403,-22.50647],[-55.69348,-22.50632],[-55.69335,-22.5061],[-55.69343,-22.50573],[-55.69362,-22.50549],[-55.69403,-22.50533],[-55.6941,-22.505],[-55.69403,-22.50486],[-55.69358,-22.50478],[-55.6932,-22.50478],[-55.69293,-22.50458],[-55.69256,-22.50441],[-55.69203,-22.50431],[-55.69105,-22.50375],[-55.69066,-22.50339],[-55.69025,-22.50274],[-55.69004,-22.50259],[-55.68989,-22.50268],[-55.68985,-22.50304],[-55.68967,-22.50351],[-55.68946,-22.50351],[-55.68893,-22.50339],[-55.6887,-22.50369],[-55.68848,-22.50429],[-55.68806,-22.50448],[-55.68791,-22.50438],[-55.68784,-22.50414],[-55.68762,-22.50412],[-55.68706,-22.50421],[-55.68656,-22.50408],[-55.6864,-22.50387],[-55.68631,-22.50385],[-55.68615,-22.50397],[-55.686,-22.5042],[-55.68583,-22.5043],[-55.68561,-22.50458],[-55.68547,-22.50452],[-55.68539,-22.50438],[-55.68521,-22.50426],[-55.68514,-22.50416],[-55.68494,-22.50406],[-55.68476,-22.50405],[-55.68458,-22.50414],[-55.68453,-22.50426],[-55.68454,-22.50443],[-55.68491,-22.5048],[-55.68486,-22.50529],[-55.68476,-22.50553],[-55.68481,-22.50592],[-55.68425,-22.50593],[-55.68344,-22.50572],[-55.68219,-22.50556],[-55.68198,-22.50557],[-55.68174,-22.50583],[-55.68147,-22.50593],[-55.68081,-22.506],[-55.68027,-22.50615],[-55.68014,-22.50635],[-55.68009,-22.50664],[-55.67959,-22.50726],[-55.6791,-22.50735],[-55.67898,-22.50719],[-55.67882,-22.50713],[-55.67844,-22.50723],[-55.67832,-22.50721],[-55.67818,-22.50701],[-55.67784,-22.50697],[-55.67704,-22.50751],[-55.67617,-22.50823],[-55.67581,-22.50837],[-55.6755,-22.50871],[-55.67465,-22.50902],[-55.6744,-22.50922],[-55.67404,-22.50926],[-55.67399,-22.50941],[-55.67417,-22.50976],[-55.67409,-22.51012],[-55.67396,-22.51013],[-55.6737,-22.51005],[-55.67309,-22.51039],[-55.67256,-22.5105],[-55.67247,-22.51094],[-55.67224,-22.51153],[-55.67143,-22.51181],[-55.67159,-22.51228],[-55.67135,-22.51315],[-55.67162,-22.51395],[-55.67083,-22.51403],[-55.67037,-22.51428],[-55.66934,-22.5145],[-55.66886,-22.51474],[-55.66816,-22.51467],[-55.66763,-22.51447],[-55.66732,-22.51408],[-55.66702,-22.51405],[-55.66676,-22.51425],[-55.66653,-22.51435],[-55.66613,-22.51371],[-55.66567,-22.51227],[-55.66541,-22.51223],[-55.66482,-22.51232],[-55.66373,-22.51212],[-55.66318,-22.51178],[-55.66283,-22.51193],[-55.66268,-22.51204],[-55.66245,-22.51196],[-55.66213,-22.51176],[-55.6608,-22.51069],[-55.66049,-22.51024],[-55.66016,-22.50986],[-55.66,-22.50975]]}},{"type":"Feature","properties":{"nome":"Córrego João Mirim","tipo":"Córrego"},"geometry":{"type":"LineString","coordinates":[[-55.73266,-22.51454],[-55.73258,-22.51455]]}},{"type":"Feature","properties":{"nome":"Córrego João Mirim","tipo":"Córrego"},"geometry":{"type":"LineString","coordinates":[[-55.73251,-22.51456],[-55.73192,-22.51464],[-55.73171,-22.51485],[-55.73164,-22.515],[-55.73138,-22.51517]]}},{"type":"Feature","properties":{"nome":"Córrego João Mirim","tipo":"Córrego"},"geometry":{"type":"LineString","coordinates":[[-55.73138,-22.51517],[-55.73127,-22.5152]]}},{"type":"Feature","properties":{"nome":"Córrego João Mirim","tipo":"Córrego"},"geometry":{"type":"LineString","coordinates":[[-55.73127,-22.5152],[-55.7308,-22.51534],[-55.73039,-22.51517]]}},{"type":"Feature","properties":{"nome":"Córrego João Mirim","tipo":"Córrego"},"geometry":{"type":"LineString","coordinates":[[-55.73039,-22.51517],[-55.7302,-22.51507]]}},{"type":"Feature","properties":{"nome":"Córrego João Mirim","tipo":"Córrego"},"geometry":{"type":"LineString","coordinates":[[-55.7302,-22.51507],[-55.7299,-22.51478],[-55.72946,-22.51465],[-55.72924,-22.51465]]}},{"type":"Feature","properties":{"nome":"Córrego São João Mirim","tipo":"Córrego"},"geometry":{"type":"LineString","coordinates":[[-55.72216,-22.51404],[-55.72162,-22.51375],[-55.72151,-22.51363],[-55.72119,-22.51355],[-55.72097,-22.51341],[-55.72053,-22.51337],[-55.71952,-22.51314],[-55.71895,-22.51291],[-55.71862,-22.51269],[-55.7182,-22.51258],[-55.71732,-22.51256]]}},{"type":"Feature","properties":{"nome":"Corrego São Tomaz","tipo":"Córrego"},"geometry":{"type":"LineString","coordinates":[[-55.68025,-22.54138],[-55.67959,-22.54076],[-55.67884,-22.5404],[-55.67818,-22.54027],[-55.67718,-22.53993],[-55.67598,-22.53827],[-55.67405,-22.53725],[-55.67275,-22.53638],[-55.6723,-22.53557],[-55.67144,-22.5348],[-55.66946,-22.53329],[-55.6691,-22.53262],[-55.66854,-22.53188],[-55.66772,-22.53141],[-55.66644,-22.53052],[-55.66474,-22.52923],[-55.66388,-22.52865],[-55.66318,-22.52804],[-55.66195,-22.52641],[-55.66135,-22.52584],[-55.66075,-22.52542],[-55.66034,-22.52499],[-55.66034,-22.52452],[-55.6604,-22.52416],[-55.6606,-22.5239],[-55.66065,-22.52366],[-55.66054,-22.52355],[-55.6604,-22.52354],[-55.66027,-22.52323],[-55.66026,-22.52313],[-55.66038,-22.52309],[-55.66037,-22.52302],[-55.66,-22.52203]]}},{"type":"Feature","properties":{"nome":"Corrego São Tomaz","tipo":"Córrego"},"geometry":{"type":"LineString","coordinates":[[-55.68058,-22.54155],[-55.68025,-22.54138]]}},{"type":"Feature","properties":{"nome":"arroyo Punta Pora","tipo":"Córrego"},"geometry":{"type":"LineString","coordinates":[[-55.73621,-22.54639],[-55.73572,-22.54704],[-55.73563,-22.54723],[-55.73567,-22.54742],[-55.73575,-22.54749],[-55.73628,-22.54778],[-55.73659,-22.5478],[-55.73685,-22.5479],[-55.73699,-22.54801],[-55.73719,-22.5483],[-55.73762,-22.54837],[-55.73817,-22.54866],[-55.73894,-22.54859],[-55.73947,-22.5489],[-55.74018,-22.54896],[-55.74042,-22.5491],[-55.74063,-22.54932],[-55.74159,-22.54942],[-55.74176,-22.54933],[-55.74185,-22.54938],[-55.74211,-22.54932],[-55.7424,-22.54956],[-55.74263,-22.54966],[-55.74301,-22.54956],[-55.74325,-22.54956],[-55.74333,-22.5495],[-55.74355,-22.54952],[-55.74366,-22.54944],[-55.74374,-22.54944],[-55.74449,-22.54982],[-55.74463,-22.54982],[-55.74506,-22.54963],[-55.74521,-22.54943],[-55.74546,-22.54928],[-55.74562,-22.54907],[-55.74579,-22.54896],[-55.74606,-22.54893],[-55.74625,-22.54898],[-55.74652,-22.54894],[-55.74713,-22.54922],[-55.74741,-22.54949],[-55.74767,-22.54965],[-55.74787,-22.54993],[-55.74831,-22.55075],[-55.74847,-22.5509],[-55.74887,-22.55106],[-55.7493,-22.55141],[-55.74997,-22.55136],[-55.75036,-22.55154],[-55.75075,-22.55161],[-55.75092,-22.55177],[-55.75115,-22.55184],[-55.75148,-22.55236],[-55.75161,-22.55246],[-55.75166,-22.5526],[-55.7516,-22.55282],[-55.75163,-22.5532],[-55.752,-22.55392],[-55.75213,-22.55442],[-55.75224,-22.55458],[-55.75278,-22.55482],[-55.75307,-22.5548],[-55.75317,-22.55459],[-55.75332,-22.55461],[-55.75355,-22.55475],[-55.75381,-22.5548],[-55.75397,-22.55507],[-55.75428,-22.55529],[-55.7544,-22.55543],[-55.75466,-22.55592],[-55.75514,-22.55628],[-55.75546,-22.55661],[-55.7556,-22.5571],[-55.75624,-22.55718],[-55.7564,-22.55757],[-55.75665,-22.55766],[-55.75701,-22.5577],[-55.75719,-22.5578],[-55.75727,-22.55807],[-55.75737,-22.55818],[-55.7576,-22.55831],[-55.75757,-22.55859],[-55.75805,-22.55912],[-55.75815,-22.55943],[-55.7582,-22.5595],[-55.75835,-22.55954],[-55.75857,-22.55992],[-55.75869,-22.56001],[-55.75883,-22.56002],[-55.75935,-22.55997],[-55.75957,-22.56008],[-55.75988,-22.56033],[-55.76031,-22.5604],[-55.7611,-22.56085],[-55.76108,-22.56105],[-55.76095,-22.56128],[-55.76144,-22.56181],[-55.76231,-22.56209],[-55.76255,-22.56234],[-55.76306,-22.56255],[-55.76357,-22.56297],[-55.76416,-22.56318],[-55.76461,-22.56304],[-55.76485,-22.56306],[-55.76542,-22.56336],[-55.76617,-22.56345],[-55.7663,-22.5635],[-55.76639,-22.56371],[-55.76677,-22.56389],[-55.7669,-22.56389],[-55.7675,-22.56366],[-55.76772,-22.56366],[-55.76843,-22.56392],[-55.76903,-22.56429],[-55.76911,-22.56429],[-55.76947,-22.56414],[-55.76999,-22.56425],[-55.77033,-22.56421],[-55.77057,-22.56407],[-55.7707,-22.56388],[-55.77085,-22.56385],[-55.77095,-22.56388],[-55.771,-22.56408],[-55.77108,-22.56413],[-55.77131,-22.56398],[-55.77188,-22.56389],[-55.77248,-22.56404],[-55.77314,-22.56466],[-55.77339,-22.56557],[-55.77349,-22.56573],[-55.77378,-22.56598],[-55.77395,-22.56621],[-55.77444,-22.56651],[-55.77468,-22.56659],[-55.77506,-22.56668],[-55.77566,-22.56668],[-55.77604,-22.56646],[-55.77625,-22.56589],[-55.7766,-22.56591],[-55.7767,-22.56597],[-55.77683,-22.56623],[-55.77743,-22.56693],[-55.77744,-22.56728],[-55.77748,-22.56738],[-55.77775,-22.5677],[-55.77794,-22.56782],[-55.7781,-22.56774],[-55.77834,-22.56748],[-55.77859,-22.56735],[-55.77861,-22.56725],[-55.77852,-22.56705],[-55.7786,-22.56695],[-55.77895,-22.56687],[-55.77925,-22.56707],[-55.77937,-22.5671],[-55.77942,-22.56707],[-55.77957,-22.56669],[-55.77966,-22.56659],[-55.77996,-22.56643],[-55.78028,-22.56635],[-55.78037,-22.56625],[-55.78058,-22.56575],[-55.78068,-22.56561],[-55.78096,-22.56558],[-55.78114,-22.56551],[-55.78132,-22.56523],[-55.78152,-22.56525],[-55.78173,-22.5652],[-55.78182,-22.56474],[-55.7818,-22.56429],[-55.78186,-22.56421],[-55.78205,-22.56413],[-55.78225,-22.56416],[-55.78247,-22.56398],[-55.78258,-22.56378],[-55.78303,-22.56373],[-55.78332,-22.56339],[-55.78339,-22.56338],[-55.78361,-22.56353],[-55.78381,-22.56356],[-55.78437,-22.5634],[-55.78474,-22.56365],[-55.78572,-22.56358],[-55.78577,-22.56387],[-55.78595,-22.56421],[-55.78625,-22.56423],[-55.78654,-22.56409],[-55.78688,-22.564],[-55.78706,-22.56371],[-55.78711,-22.56336],[-55.78734,-22.56316],[-55.78744,-22.56292],[-55.7883,-22.5626],[-55.78844,-22.5622],[-55.7887,-22.56205],[-55.78899,-22.562],[-55.78972,-22.56165],[-55.79017,-22.56179],[-55.7907,-22.56167],[-55.79103,-22.56166],[-55.79158,-22.56186],[-55.79175,-22.56185],[-55.79192,-22.56179],[-55.79198,-22.56169],[-55.79196,-22.56136],[-55.79198,-22.5613],[-55.79209,-22.56123],[-55.7923,-22.56123],[-55.79318,-22.56139],[-55.79384,-22.56139],[-55.7946,-22.56107],[-55.79531,-22.56096],[-55.79549,-22.56066],[-55.79593,-22.56035],[-55.79652,-22.56007],[-55.79697,-22.55999],[-55.79748,-22.5598],[-55.79833,-22.55985],[-55.79902,-22.56008],[-55.79912,-22.56007],[-55.79931,-22.55988],[-55.8,-22.55985]]}},{"type":"Feature","properties":{"nome":"Córrego Ipeguajó","tipo":"Córrego"},"geometry":{"type":"LineString","coordinates":[[-55.70323,-22.49525],[-55.70295,-22.49588],[-55.70262,-22.49638],[-55.70257,-22.49663],[-55.70233,-22.49707],[-55.702,-22.49746],[-55.70176,-22.49759]]}},{"type":"Feature","properties":{"nome":"","tipo":"Córrego"},"geometry":{"type":"LineString","coordinates":[[-55.6708,-22.56835],[-55.6692,-22.56763],[-55.66811,-22.56757],[-55.66724,-22.56721],[-55.66619,-22.56668],[-55.66558,-22.56628],[-55.66408,-22.5655],[-55.66353,-22.56527],[-55.66184,-22.56472],[-55.66084,-22.56451],[-55.66,-22.56443]]}},{"type":"Feature","properties":{"nome":"","tipo":"Córrego"},"geometry":{"type":"LineString","coordinates":[[-55.66639,-22.58963],[-55.66403,-22.59026],[-55.66,-22.59208]]}},{"type":"Feature","properties":{"nome":"Córrego São Vincente","tipo":"Córrego"},"geometry":{"type":"LineString","coordinates":[[-55.71512,-22.54571],[-55.71422,-22.54571],[-55.71271,-22.54517],[-55.71144,-22.54496],[-55.70921,-22.54411],[-55.7085,-22.54371],[-55.70783,-22.54309],[-55.70705,-22.54166],[-55.70679,-22.54142],[-55.70634,-22.54082],[-55.70489,-22.53964],[-55.70427,-22.539],[-55.70256,-22.53797],[-55.70156,-22.5365],[-55.70021,-22.5353],[-55.69908,-22.53444],[-55.69876,-22.53353],[-55.69855,-22.53337],[-55.69799,-22.53317],[-55.69743,-22.53233],[-55.69714,-22.53084],[-55.69682,-22.5303],[-55.69591,-22.52972],[-55.69565,-22.52945],[-55.69561,-22.52925],[-55.69586,-22.52888],[-55.69582,-22.52833],[-55.69532,-22.52798],[-55.69419,-22.52611],[-55.69377,-22.5256],[-55.69348,-22.52466],[-55.69322,-22.52407],[-55.69291,-22.52296],[-55.69193,-22.52154],[-55.6913,-22.521],[-55.69003,-22.52045],[-55.68927,-22.52033],[-55.68806,-22.52003],[-55.68776,-22.52001],[-55.68752,-22.51992],[-55.68761,-22.51963],[-55.68758,-22.51956],[-55.68771,-22.5195],[-55.68771,-22.51939],[-55.68719,-22.51916],[-55.6869,-22.51877],[-55.68591,-22.51826],[-55.68529,-22.51832],[-55.68427,-22.51808],[-55.6819,-22.51714],[-55.68061,-22.51708],[-55.68011,-22.5175],[-55.67939,-22.51727],[-55.67887,-22.5177],[-55.67838,-22.51742],[-55.67784,-22.51731],[-55.67765,-22.51728],[-55.67746,-22.51735],[-55.67691,-22.51733],[-55.67632,-22.51683],[-55.67547,-22.51536],[-55.67491,-22.5148],[-55.67398,-22.51402],[-55.67346,-22.51349],[-55.67283,-22.51335],[-55.67237,-22.51302],[-55.67191,-22.51287],[-55.67157,-22.51286],[-55.67138,-22.51303]]}},{"type":"Feature","properties":{"nome":"","tipo":"Córrego"},"geometry":{"type":"LineString","coordinates":[[-55.67999,-22.56658],[-55.67978,-22.56658],[-55.67924,-22.56679],[-55.67762,-22.56806],[-55.67703,-22.56898],[-55.67688,-22.5697],[-55.67663,-22.57008]]}},{"type":"Feature","properties":{"nome":"","tipo":"Córrego"},"geometry":{"type":"LineString","coordinates":[[-55.6863,-22.56951],[-55.6863,-22.56972],[-55.68612,-22.5704],[-55.68592,-22.57058],[-55.6856,-22.57073],[-55.68496,-22.57067],[-55.6847,-22.57096],[-55.68425,-22.57133],[-55.68403,-22.57162],[-55.6837,-22.57177],[-55.68361,-22.57191],[-55.68328,-22.57201]]}},{"type":"Feature","properties":{"nome":"Córrego Ipeguajó","tipo":"Córrego"},"geometry":{"type":"LineString","coordinates":[[-55.71039,-22.48],[-55.70986,-22.48045],[-55.70909,-22.48142],[-55.70863,-22.48236],[-55.70874,-22.48291],[-55.70863,-22.4834],[-55.70787,-22.48473],[-55.70738,-22.48534],[-55.70621,-22.48633],[-55.7062,-22.4865],[-55.70578,-22.48708],[-55.70575,-22.4872],[-55.70588,-22.48718],[-55.70597,-22.48742],[-55.70578,-22.48754],[-55.70576,-22.48793],[-55.70541,-22.48828],[-55.70495,-22.48844],[-55.70478,-22.48868],[-55.70443,-22.48898],[-55.70439,-22.48907],[-55.70445,-22.48931],[-55.70458,-22.4895],[-55.70458,-22.48968],[-55.70477,-22.48996],[-55.70486,-22.491],[-55.70471,-22.49124],[-55.70431,-22.49135],[-55.70403,-22.4918],[-55.70408,-22.49198],[-55.70391,-22.49235],[-55.70371,-22.49241],[-55.70372,-22.49256],[-55.70381,-22.49268],[-55.7038,-22.49284],[-55.70371,-22.49295],[-55.704,-22.49308],[-55.70417,-22.49355],[-55.70404,-22.49411],[-55.70389,-22.49437],[-55.70367,-22.49444],[-55.70349,-22.49458],[-55.70347,-22.4948]]}},{"type":"Feature","properties":{"nome":"Córrego Ipeguajó","tipo":"Córrego"},"geometry":{"type":"LineString","coordinates":[[-55.70339,-22.49497],[-55.70323,-22.49525]]}},{"type":"Feature","properties":{"nome":"Rio São João","tipo":"Rio"},"geometry":{"type":"LineString","coordinates":[[-55.70753,-22.50802],[-55.70742,-22.50789],[-55.7073,-22.50761],[-55.70703,-22.50748],[-55.70681,-22.50749],[-55.70653,-22.50723],[-55.70624,-22.50704],[-55.70594,-22.50692],[-55.70568,-22.50688],[-55.70545,-22.50666],[-55.70527,-22.50664],[-55.70509,-22.50673],[-55.70484,-22.50663],[-55.70435,-22.50618],[-55.70419,-22.5057],[-55.70396,-22.50531],[-55.70387,-22.50527],[-55.70312,-22.50525],[-55.70292,-22.50517],[-55.70269,-22.50474],[-55.70265,-22.50443],[-55.70257,-22.50436],[-55.70247,-22.50437],[-55.70232,-22.5045],[-55.70181,-22.50435],[-55.70134,-22.50445],[-55.70076,-22.50391],[-55.70074,-22.50365],[-55.70063,-22.50348],[-55.70053,-22.50305],[-55.69998,-22.50258]]}},{"type":"Feature","properties":{"nome":"","tipo":"Córrego"},"geometry":{"type":"LineString","coordinates":[[-55.66,-22.53302],[-55.66094,-22.53077],[-55.66195,-22.5295],[-55.66253,-22.52839],[-55.6627,-22.52736]]}},{"type":"Feature","properties":{"nome":"","tipo":"Córrego"},"geometry":{"type":"LineString","coordinates":[[-55.67966,-22.49822],[-55.6796,-22.49828],[-55.67955,-22.49847],[-55.67964,-22.49869],[-55.67948,-22.49878],[-55.6795,-22.49884],[-55.67963,-22.49891],[-55.67945,-22.49902],[-55.67942,-22.49912],[-55.67946,-22.49919],[-55.67954,-22.49921],[-55.6795,-22.49924],[-55.67956,-22.49935],[-55.67938,-22.49961],[-55.67945,-22.49987],[-55.67933,-22.50016],[-55.67936,-22.50037],[-55.67924,-22.50056],[-55.67895,-22.5008],[-55.67868,-22.50091],[-55.67858,-22.50119],[-55.67857,-22.5015],[-55.67864,-22.50161],[-55.67876,-22.50165],[-55.67879,-22.50184],[-55.6789,-22.50201],[-55.67897,-22.50225],[-55.67885,-22.50267],[-55.67884,-22.50331],[-55.67907,-22.50365],[-55.67922,-22.50414],[-55.67913,-22.50491],[-55.67891,-22.50555],[-55.67905,-22.5062],[-55.67859,-22.50721]]}},{"type":"Feature","properties":{"nome":"","tipo":"Córrego"},"geometry":{"type":"LineString","coordinates":[[-55.6984,-22.51703],[-55.69578,-22.51569],[-55.69516,-22.51511],[-55.69495,-22.51398],[-55.69554,-22.51194],[-55.69569,-22.50966],[-55.69577,-22.50658],[-55.69589,-22.50587]]}},{"type":"Feature","properties":{"nome":"Córrego Ponta Porã","tipo":"Córrego"},"geometry":{"type":"LineString","coordinates":[[-55.71535,-22.52179],[-55.71514,-22.52144],[-55.71493,-22.52142],[-55.71479,-22.52136],[-55.71474,-22.52122],[-55.71476,-22.52085],[-55.71494,-22.52036],[-55.71486,-22.51986],[-55.71488,-22.51967],[-55.71455,-22.51918],[-55.71427,-22.51895],[-55.71418,-22.51875],[-55.7141,-22.51821],[-55.714,-22.51787],[-55.71364,-22.51726],[-55.71355,-22.51703],[-55.71354,-22.51679]]}},{"type":"Feature","properties":{"nome":"","tipo":"Córrego"},"geometry":{"type":"LineString","coordinates":[[-55.67456,-22.58378],[-55.67429,-22.58368],[-55.67409,-22.5834],[-55.67377,-22.58341],[-55.67343,-22.5833],[-55.67348,-22.5822],[-55.67356,-22.5818],[-55.67359,-22.58124],[-55.67349,-22.58044],[-55.67362,-22.58],[-55.67363,-22.5796],[-55.67352,-22.57942],[-55.67378,-22.57905],[-55.67369,-22.57863],[-55.67376,-22.57788],[-55.67361,-22.57738],[-55.67359,-22.57712],[-55.67349,-22.57702],[-55.67357,-22.57652],[-55.67362,-22.57549],[-55.67345,-22.5752],[-55.67344,-22.57508],[-55.67356,-22.57478],[-55.67354,-22.57467],[-55.67338,-22.5746],[-55.67342,-22.5743],[-55.67329,-22.5741],[-55.67305,-22.57303],[-55.67299,-22.57185],[-55.67305,-22.57155],[-55.67299,-22.57149],[-55.67299,-22.57138],[-55.67323,-22.57105],[-55.67344,-22.57095],[-55.67351,-22.57082],[-55.67337,-22.57074],[-55.67332,-22.5708],[-55.67313,-22.57084],[-55.67301,-22.57073],[-55.67307,-22.57058],[-55.67299,-22.57048],[-55.6729,-22.57016],[-55.67293,-22.57005],[-55.67299,-22.57002]]}},{"type":"Feature","properties":{"nome":"Córrego Ipeguajó","tipo":"Córrego"},"geometry":{"type":"LineString","coordinates":[[-55.70347,-22.4948],[-55.70339,-22.49497]]}},{"type":"Feature","properties":{"nome":"Corrego São Tomaz","tipo":"Córrego"},"geometry":{"type":"LineString","coordinates":[[-55.69619,-22.5537],[-55.69567,-22.55324],[-55.69478,-22.55272],[-55.69444,-22.55246],[-55.69396,-22.55224],[-55.69377,-22.5521],[-55.69338,-22.55203]]}},{"type":"Feature","properties":{"nome":"Corrego São Tomaz","tipo":"Córrego"},"geometry":{"type":"LineString","coordinates":[[-55.69767,-22.55478],[-55.69694,-22.55434],[-55.69674,-22.55413],[-55.69642,-22.55395],[-55.69619,-22.5537]]}},{"type":"Feature","properties":{"nome":"Corrego São Tomaz","tipo":"Córrego"},"geometry":{"type":"LineString","coordinates":[[-55.69338,-22.55203],[-55.69275,-22.55167],[-55.69247,-22.55157],[-55.69147,-22.55064]]}},{"type":"Feature","properties":{"nome":"Corrego São Tomaz","tipo":"Córrego"},"geometry":{"type":"LineString","coordinates":[[-55.69766,-22.55556],[-55.69792,-22.55519],[-55.69781,-22.55496]]}},{"type":"Feature","properties":{"nome":"Corrego São Tomaz","tipo":"Córrego"},"geometry":{"type":"LineString","coordinates":[[-55.68343,-22.54319],[-55.68306,-22.54284],[-55.68283,-22.54302],[-55.68275,-22.54302],[-55.68241,-22.54282],[-55.68224,-22.54265],[-55.68227,-22.54253],[-55.68222,-22.54248],[-55.68183,-22.54249],[-55.68184,-22.54243],[-55.68131,-22.54212],[-55.68058,-22.54155]]}},{"type":"Feature","properties":{"nome":"Corrego São Tomaz","tipo":"Córrego"},"geometry":{"type":"LineString","coordinates":[[-55.69147,-22.55064],[-55.69109,-22.55019],[-55.69078,-22.54994],[-55.69053,-22.54992],[-55.6905,-22.54989],[-55.69057,-22.54984],[-55.6905,-22.54975],[-55.69033,-22.5497],[-55.69034,-22.54958],[-55.69008,-22.54933],[-55.69006,-22.54907],[-55.68963,-22.54853],[-55.6894,-22.54774],[-55.68925,-22.54761],[-55.68908,-22.54772],[-55.68899,-22.54792],[-55.68887,-22.54784],[-55.68856,-22.5473],[-55.68832,-22.54703],[-55.68804,-22.54674],[-55.68768,-22.54649]]}},{"type":"Feature","properties":{"nome":"Córrego São João Mirim","tipo":"Córrego"},"geometry":{"type":"LineString","coordinates":[[-55.72924,-22.51465],[-55.72862,-22.51495],[-55.72831,-22.51487],[-55.72769,-22.5148],[-55.7271,-22.51504],[-55.72632,-22.51501],[-55.72605,-22.51515],[-55.72561,-22.51505],[-55.72482,-22.51499]]}},{"type":"Feature","properties":{"nome":"Córrego São João Mirim","tipo":"Córrego"},"geometry":{"type":"LineString","coordinates":[[-55.71713,-22.51255],[-55.71658,-22.51264],[-55.71622,-22.51263],[-55.71571,-22.51249]]}},{"type":"Feature","properties":{"nome":"Córrego São João Mirim","tipo":"Córrego"},"geometry":{"type":"LineString","coordinates":[[-55.71571,-22.51249],[-55.71534,-22.51232],[-55.71506,-22.51232],[-55.7145,-22.51249],[-55.71413,-22.51272],[-55.71376,-22.51269],[-55.7136,-22.51258],[-55.71347,-22.51256]]}},{"type":"Feature","properties":{"nome":"Córrego São João Mirim","tipo":"Rio"},"geometry":{"type":"LineString","coordinates":[[-55.70959,-22.50911],[-55.70906,-22.50894],[-55.70899,-22.50875],[-55.70887,-22.50862],[-55.7086,-22.50859],[-55.70779,-22.50826],[-55.70753,-22.50802]]}},{"type":"Feature","properties":{"nome":"Rio São João","tipo":"Rio"},"geometry":{"type":"LineString","coordinates":[[-55.71347,-22.51256],[-55.71328,-22.51232],[-55.7129,-22.51152],[-55.71291,-22.51133],[-55.71284,-22.51106],[-55.71263,-22.51085],[-55.71237,-22.5108],[-55.71209,-22.51088],[-55.71165,-22.51066],[-55.7111,-22.51032],[-55.71074,-22.51001],[-55.7104,-22.50945],[-55.70959,-22.50911]]}},{"type":"Feature","properties":{"nome":"Córrego Ponta Porã","tipo":"Córrego"},"geometry":{"type":"LineString","coordinates":[[-55.71354,-22.51679],[-55.71364,-22.51657],[-55.71353,-22.51613],[-55.7134,-22.51588],[-55.71358,-22.51517],[-55.7134,-22.51495],[-55.71336,-22.51477],[-55.71342,-22.51265],[-55.71347,-22.51256]]}},{"type":"Feature","properties":{"nome":"Córrego Ponta Porã","tipo":"Córrego"},"geometry":{"type":"LineString","coordinates":[[-55.71619,-22.52361],[-55.7161,-22.52358],[-55.71603,-22.52343],[-55.7161,-22.52318],[-55.71598,-22.52298],[-55.71554,-22.52255],[-55.71535,-22.52179]]}},{"type":"Feature","properties":{"nome":"Córrego Ponta Porã","tipo":"Córrego"},"geometry":{"type":"LineString","coordinates":[[-55.7179,-22.52555],[-55.71729,-22.52438],[-55.71669,-22.52401],[-55.71638,-22.52369],[-55.71619,-22.52361]]}},{"type":"Feature","properties":{"nome":"Córrego Ponta Porã","tipo":"Córrego"},"geometry":{"type":"LineString","coordinates":[[-55.72592,-22.53054],[-55.72576,-22.53035],[-55.72546,-22.53036],[-55.72432,-22.52999],[-55.72368,-22.52945],[-55.72308,-22.52911],[-55.7228,-22.52887],[-55.72228,-22.52869],[-55.72195,-22.52841],[-55.7217,-22.52811],[-55.72094,-22.52767]]}},{"type":"Feature","properties":{"nome":"Córrego Peguajho","tipo":"Córrego"},"geometry":{"type":"LineString","coordinates":[[-55.7319,-22.49501],[-55.73085,-22.4947],[-55.73041,-22.4947],[-55.72998,-22.49481],[-55.72983,-22.49497],[-55.72968,-22.49487],[-55.72906,-22.49483]]}},{"type":"Feature","properties":{"nome":"Córrego Peguajho","tipo":"Córrego"},"geometry":{"type":"LineString","coordinates":[[-55.72307,-22.49733],[-55.72293,-22.4974]]}},{"type":"Feature","properties":{"nome":"Córrego Peguajho","tipo":"Córrego"},"geometry":{"type":"LineString","coordinates":[[-55.72906,-22.49483],[-55.72866,-22.49478],[-55.72826,-22.49478],[-55.72817,-22.49505],[-55.72772,-22.495],[-55.72635,-22.49499],[-55.72583,-22.49525],[-55.72567,-22.49538]]}},{"type":"Feature","properties":{"nome":"Córrego Peguajho","tipo":"Córrego"},"geometry":{"type":"LineString","coordinates":[[-55.7334,-22.49531],[-55.73237,-22.49516],[-55.7319,-22.49501]]}},{"type":"Feature","properties":{"nome":"Córrego Peguajho","tipo":"Córrego"},"geometry":{"type":"LineString","coordinates":[[-55.73995,-22.4925],[-55.73975,-22.49273],[-55.73904,-22.4929],[-55.73881,-22.49303],[-55.73841,-22.49335],[-55.73813,-22.4939],[-55.7378,-22.49434]]}},{"type":"Feature","properties":{"nome":"Córrego Peguajho","tipo":"Córrego"},"geometry":{"type":"LineString","coordinates":[[-55.7378,-22.49434],[-55.73774,-22.49439],[-55.73755,-22.49437],[-55.73723,-22.49447],[-55.73662,-22.49472],[-55.73634,-22.49472],[-55.73621,-22.49486],[-55.73571,-22.49487],[-55.73565,-22.49504],[-55.73552,-22.49508],[-55.73508,-22.49504]]}},{"type":"Feature","properties":{"nome":"Córrego Peguajho","tipo":"Córrego"},"geometry":{"type":"LineString","coordinates":[[-55.74184,-22.49481],[-55.74143,-22.49489],[-55.74079,-22.49485]]}},{"type":"Feature","properties":{"nome":"Corrego Geovai","tipo":"Córrego"},"geometry":{"type":"LineString","coordinates":[[-55.6896,-22.57627],[-55.68842,-22.57732],[-55.68793,-22.5775]]}},{"type":"Feature","properties":{"nome":"Corrego Geovai","tipo":"Córrego"},"geometry":{"type":"LineString","coordinates":[[-55.6863,-22.57747],[-55.68588,-22.57739],[-55.6857,-22.57731],[-55.68549,-22.57714],[-55.6849,-22.57687],[-55.68471,-22.57672],[-55.68445,-22.57676],[-55.6843,-22.57671],[-55.68407,-22.57646]]}},{"type":"Feature","properties":{"nome":"Córrego Peguajho","tipo":"Córrego"},"geometry":{"type":"LineString","coordinates":[[-55.73508,-22.49504],[-55.73411,-22.49524],[-55.7334,-22.49531]]}},{"type":"Feature","properties":{"nome":"Córrego Peguajho","tipo":"Córrego"},"geometry":{"type":"LineString","coordinates":[[-55.72567,-22.49538],[-55.72472,-22.49616]]}},{"type":"Feature","properties":{"nome":"Córrego Peguajho","tipo":"Córrego"},"geometry":{"type":"LineString","coordinates":[[-55.72472,-22.49616],[-55.72397,-22.49682],[-55.72307,-22.49733]]}},{"type":"Feature","properties":{"nome":"","tipo":"Córrego"},"geometry":{"type":"LineString","coordinates":[[-55.73108,-22.48815],[-55.73103,-22.48841],[-55.73114,-22.48862],[-55.73111,-22.48875],[-55.73119,-22.48895],[-55.73118,-22.4892],[-55.73131,-22.48936],[-55.7314,-22.4896],[-55.73136,-22.48968],[-55.73127,-22.48972],[-55.73118,-22.48983],[-55.73113,-22.48996],[-55.73123,-22.49016],[-55.73128,-22.49082],[-55.73114,-22.4909],[-55.73105,-22.49123],[-55.73078,-22.49125],[-55.73066,-22.49132],[-55.73061,-22.49141],[-55.73064,-22.49171],[-55.73071,-22.4918],[-55.73072,-22.49194],[-55.73061,-22.49234],[-55.73061,-22.49256],[-55.73052,-22.49274],[-55.73036,-22.49289],[-55.73035,-22.49312],[-55.7302,-22.49344],[-55.73009,-22.49356],[-55.72988,-22.49366],[-55.72984,-22.49378],[-55.72999,-22.49385],[-55.73004,-22.49418],[-55.73013,-22.49432],[-55.73032,-22.49439],[-55.73045,-22.49454],[-55.73057,-22.49455],[-55.73059,-22.49449],[-55.73066,-22.49448],[-55.73077,-22.49451],[-55.73065,-22.49469]]}},{"type":"Feature","properties":{"nome":"Córrego Peguajho","tipo":"Córrego"},"geometry":{"type":"LineString","coordinates":[[-55.72293,-22.4974],[-55.7227,-22.49745],[-55.72212,-22.4974],[-55.72148,-22.49745],[-55.72048,-22.49764],[-55.72024,-22.49756],[-55.71988,-22.49751],[-55.7198,-22.49755],[-55.7197,-22.4977],[-55.71937,-22.49776],[-55.71831,-22.49736],[-55.71792,-22.49738],[-55.71744,-22.49732]]}},{"type":"Feature","properties":{"nome":"","tipo":"Córrego"},"geometry":{"type":"LineString","coordinates":[[-55.68328,-22.57201],[-55.68289,-22.57263],[-55.68209,-22.57278],[-55.6814,-22.573],[-55.68105,-22.57298]]}},{"type":"Feature","properties":{"nome":"Corrego Geovai","tipo":"Córrego"},"geometry":{"type":"LineString","coordinates":[[-55.68105,-22.57298],[-55.68093,-22.57277],[-55.68057,-22.57248]]}},{"type":"Feature","properties":{"nome":"","tipo":"Córrego"},"geometry":{"type":"LineString","coordinates":[[-55.68057,-22.57248],[-55.67982,-22.57206],[-55.67792,-22.57059],[-55.67704,-22.57006],[-55.67663,-22.57008]]}},{"type":"Feature","properties":{"nome":"","tipo":"Córrego"},"geometry":{"type":"LineString","coordinates":[[-55.68041,-22.56658],[-55.67999,-22.56658]]}},{"type":"Feature","properties":{"nome":"Corrego Geovai","tipo":"Córrego"},"geometry":{"type":"LineString","coordinates":[[-55.68793,-22.5775],[-55.68768,-22.57755],[-55.68668,-22.57754],[-55.6863,-22.57747]]}},{"type":"Feature","properties":{"nome":"Córrego São João Mirim","tipo":"Córrego"},"geometry":{"type":"LineString","coordinates":[[-55.74046,-22.50798],[-55.74034,-22.50817],[-55.73994,-22.50848],[-55.73944,-22.50862],[-55.73915,-22.50883],[-55.73837,-22.50909],[-55.73821,-22.50923],[-55.73809,-22.5095],[-55.73804,-22.50979],[-55.73781,-22.51031],[-55.73716,-22.5111],[-55.73675,-22.51187],[-55.73657,-22.51202],[-55.73633,-22.51212]]}},{"type":"Feature","properties":{"nome":"Córrego São João Mirim","tipo":"Córrego"},"geometry":{"type":"LineString","coordinates":[[-55.7336,-22.51392],[-55.73354,-22.51403],[-55.73293,-22.51449],[-55.73266,-22.51454]]}},{"type":"Feature","properties":{"nome":"Córrego João Mirim","tipo":"Córrego"},"geometry":{"type":"LineString","coordinates":[[-55.73258,-22.51455],[-55.73251,-22.51456]]}},{"type":"Feature","properties":{"nome":"Córrego São João Mirim","tipo":"Córrego"},"geometry":{"type":"LineString","coordinates":[[-55.73633,-22.51212],[-55.73479,-22.51296],[-55.73371,-22.51375],[-55.7336,-22.51392]]}},{"type":"Feature","properties":{"nome":"Córrego Ponta Porã","tipo":"Córrego"},"geometry":{"type":"LineString","coordinates":[[-55.72072,-22.52752],[-55.71994,-22.52718],[-55.7196,-22.52689],[-55.71817,-22.52638],[-55.71783,-22.52619],[-55.71783,-22.52591],[-55.7179,-22.52555]]}},{"type":"Feature","properties":{"nome":"Córrego Ponta Porã","tipo":"Córrego"},"geometry":{"type":"LineString","coordinates":[[-55.72094,-22.52767],[-55.72072,-22.52752]]}},{"type":"Feature","properties":{"nome":"Córrego São João Mirim","tipo":"Córrego"},"geometry":{"type":"LineString","coordinates":[[-55.7235,-22.51463],[-55.72333,-22.51458]]}},{"type":"Feature","properties":{"nome":"Córrego São João Mirim","tipo":"Córrego"},"geometry":{"type":"LineString","coordinates":[[-55.72471,-22.51498],[-55.72419,-22.51495],[-55.72395,-22.51489],[-55.72381,-22.51477],[-55.7235,-22.51463]]}},{"type":"Feature","properties":{"nome":"Córrego São João Mirim","tipo":"Córrego"},"geometry":{"type":"LineString","coordinates":[[-55.71732,-22.51256],[-55.71721,-22.51255]]}},{"type":"Feature","properties":{"nome":"Córrego São João Mirim","tipo":"Córrego"},"geometry":{"type":"LineString","coordinates":[[-55.71721,-22.51255],[-55.71713,-22.51255]]}},{"type":"Feature","properties":{"nome":"","tipo":"Córrego"},"geometry":{"type":"LineString","coordinates":[[-55.76413,-22.59862],[-55.76436,-22.59888],[-55.76436,-22.59911],[-55.7645,-22.59951],[-55.76487,-22.59966],[-55.76502,-22.59976],[-55.76515,-22.59996],[-55.76528,-22.6]]}},{"type":"Feature","properties":{"nome":"","tipo":"Córrego"},"geometry":{"type":"LineString","coordinates":[[-55.72471,-22.56104],[-55.72524,-22.56116],[-55.72535,-22.56124],[-55.72534,-22.56137],[-55.7254,-22.56149],[-55.7255,-22.56155],[-55.72599,-22.56164],[-55.7267,-22.56186],[-55.72688,-22.56182],[-55.72719,-22.56184],[-55.72752,-22.56194],[-55.72801,-22.56224],[-55.72823,-22.56226],[-55.72835,-22.56238],[-55.72841,-22.56256],[-55.72853,-22.5626],[-55.72856,-22.56283],[-55.7288,-22.56297],[-55.72895,-22.56292],[-55.72908,-22.56301],[-55.72909,-22.56306],[-55.72902,-22.56312],[-55.72904,-22.56321],[-55.72929,-22.56321],[-55.72942,-22.56333],[-55.72957,-22.56335],[-55.72957,-22.56356],[-55.72978,-22.56357],[-55.72991,-22.56364],[-55.73037,-22.56407],[-55.73052,-22.5641],[-55.73058,-22.56421],[-55.73054,-22.56429],[-55.73077,-22.56454],[-55.731,-22.56468],[-55.73123,-22.56468],[-55.73157,-22.56477],[-55.73172,-22.56487],[-55.73195,-22.56494],[-55.73225,-22.56539],[-55.73279,-22.56582],[-55.73301,-22.56589],[-55.7331,-22.56599],[-55.73312,-22.5661],[-55.73354,-22.5664],[-55.73369,-22.56646],[-55.73398,-22.56671],[-55.73403,-22.56688],[-55.73392,-22.56704],[-55.73407,-22.56743],[-55.73415,-22.56753],[-55.73449,-22.56769],[-55.73483,-22.56808],[-55.73507,-22.56821],[-55.73514,-22.56832],[-55.73539,-22.56837],[-55.73556,-22.56884],[-55.73561,-22.56889],[-55.73589,-22.56892],[-55.73605,-22.56911],[-55.73622,-22.56968],[-55.73653,-22.56979],[-55.73687,-22.57026],[-55.73697,-22.57047],[-55.73719,-22.57066],[-55.73752,-22.57105],[-55.73771,-22.57118],[-55.73797,-22.57126],[-55.73824,-22.57151],[-55.73844,-22.57159],[-55.73851,-22.57183],[-55.73863,-22.57199],[-55.739,-22.57225],[-55.73907,-22.57253],[-55.73959,-22.57317],[-55.73959,-22.57337],[-55.73971,-22.57357],[-55.74025,-22.57401],[-55.74061,-22.57414],[-55.74086,-22.57445],[-55.74133,-22.57473],[-55.74175,-22.57516],[-55.74224,-22.57527],[-55.74262,-22.57527],[-55.74289,-22.57553],[-55.74311,-22.57566],[-55.74328,-22.5757],[-55.74352,-22.57588],[-55.74367,-22.57592],[-55.74386,-22.57608],[-55.74433,-22.57609],[-55.7444,-22.57641],[-55.74492,-22.57667],[-55.74503,-22.57681],[-55.74533,-22.57736],[-55.74556,-22.57759],[-55.74576,-22.57807],[-55.74587,-22.57818],[-55.74625,-22.57831],[-55.74655,-22.5785],[-55.74673,-22.57886],[-55.74724,-22.57935],[-55.74747,-22.57979],[-55.74769,-22.58008],[-55.74761,-22.58039],[-55.74764,-22.58045],[-55.74819,-22.58067],[-55.74842,-22.58083],[-55.74858,-22.58128],[-55.74883,-22.58157],[-55.74889,-22.58196],[-55.74937,-22.58269],[-55.74976,-22.583],[-55.75016,-22.58309],[-55.75024,-22.58315],[-55.75031,-22.58337],[-55.75097,-22.58375],[-55.75095,-22.5842],[-55.75116,-22.5849],[-55.75145,-22.58528],[-55.75162,-22.58568],[-55.75158,-22.58611],[-55.75173,-22.5868],[-55.75195,-22.58702],[-55.75245,-22.58712],[-55.75263,-22.58742],[-55.75303,-22.58789],[-55.75314,-22.58834],[-55.75369,-22.58857],[-55.75371,-22.58877],[-55.75407,-22.58911],[-55.75414,-22.58924],[-55.7541,-22.58941],[-55.75394,-22.58966],[-55.75395,-22.58981],[-55.75417,-22.58998],[-55.75427,-22.59014],[-55.75435,-22.59046],[-55.75455,-22.59076],[-55.75476,-22.59095],[-55.75503,-22.59098],[-55.7552,-22.59128],[-55.75547,-22.59139],[-55.75561,-22.59157],[-55.75581,-22.59167],[-55.75598,-22.59191],[-55.75686,-22.592],[-55.7571,-22.59222],[-55.75728,-22.59225],[-55.7573,-22.59243],[-55.75745,-22.59259],[-55.75749,-22.59282],[-55.75773,-22.59296],[-55.75773,-22.59323],[-55.75779,-22.59336],[-55.75812,-22.59331],[-55.75819,-22.59339],[-55.7582,-22.59354],[-55.75831,-22.59363],[-55.75837,-22.59384],[-55.75859,-22.59413],[-55.75882,-22.59428],[-55.75911,-22.59435],[-55.75914,-22.59454],[-55.75922,-22.59461],[-55.75933,-22.5949],[-55.7596,-22.59487],[-55.75995,-22.59532],[-55.76002,-22.59554],[-55.76014,-22.59552],[-55.76026,-22.59531],[-55.76038,-22.5953],[-55.76054,-22.59551],[-55.76078,-22.59571],[-55.76092,-22.59569],[-55.76122,-22.59589],[-55.76127,-22.59602],[-55.76114,-22.59624],[-55.76114,-22.59631],[-55.76131,-22.59647],[-55.76163,-22.59699],[-55.76222,-22.59756],[-55.76282,-22.59781],[-55.763,-22.59793],[-55.76325,-22.5982],[-55.76343,-22.5983],[-55.76344,-22.59845],[-55.7638,-22.59894]]}},{"type":"Feature","properties":{"nome":"","tipo":"Córrego"},"geometry":{"type":"LineString","coordinates":[[-55.76702,-22.57418],[-55.76725,-22.574],[-55.76725,-22.57388]]}},{"type":"Feature","properties":{"nome":"Córrego Peguajho","tipo":"Córrego"},"geometry":{"type":"LineString","coordinates":[[-55.70523,-22.49559],[-55.70507,-22.49549],[-55.70502,-22.49533],[-55.70509,-22.49517],[-55.70484,-22.49479],[-55.70444,-22.49468],[-55.70411,-22.49465],[-55.70384,-22.49475],[-55.70347,-22.4948]]}},{"type":"Feature","properties":{"nome":"Córrego Peguajho","tipo":"Córrego"},"geometry":{"type":"LineString","coordinates":[[-55.70541,-22.49569],[-55.70523,-22.49559]]}},{"type":"Feature","properties":{"nome":"Córrego Ipeguajó","tipo":"Córrego"},"geometry":{"type":"LineString","coordinates":[[-55.70176,-22.49759],[-55.70126,-22.49789],[-55.7008,-22.49852],[-55.70064,-22.49886],[-55.70037,-22.49919],[-55.70011,-22.49944],[-55.69982,-22.49956],[-55.69973,-22.49967],[-55.6997,-22.49982]]}},{"type":"Feature","properties":{"nome":"Córrego Ipeguajó","tipo":"Córrego"},"geometry":{"type":"LineString","coordinates":[[-55.6997,-22.49982],[-55.69961,-22.5],[-55.69981,-22.5003],[-55.70002,-22.50083],[-55.70023,-22.50146],[-55.70038,-22.50211],[-55.70033,-22.50236],[-55.70025,-22.5025],[-55.69998,-22.50258]]}},{"type":"Feature","properties":{"nome":"Corrego São Tomaz","tipo":"Córrego"},"geometry":{"type":"LineString","coordinates":[[-55.69775,-22.55488],[-55.69767,-22.55478]]}},{"type":"Feature","properties":{"nome":"Corrego São Tomaz","tipo":"Córrego"},"geometry":{"type":"LineString","coordinates":[[-55.69781,-22.55496],[-55.69775,-22.55488]]}},{"type":"Feature","properties":{"nome":"Córrego Peguajho","tipo":"Córrego"},"geometry":{"type":"LineString","coordinates":[[-55.74079,-22.49485],[-55.74069,-22.49485]]}},{"type":"Feature","properties":{"nome":"","tipo":"Córrego"},"geometry":{"type":"LineString","coordinates":[[-55.67115,-22.56851],[-55.6708,-22.56835]]}},{"type":"Feature","properties":{"nome":"","tipo":"Córrego"},"geometry":{"type":"LineString","coordinates":[[-55.67663,-22.57008],[-55.67543,-22.57021],[-55.67499,-22.57018],[-55.67467,-22.56996],[-55.67428,-22.56979],[-55.67351,-22.56996],[-55.67299,-22.57002],[-55.67257,-22.56967],[-55.67216,-22.56918],[-55.67153,-22.5687],[-55.67115,-22.56851]]}},{"type":"Feature","properties":{"nome":"","tipo":"Córrego"},"geometry":{"type":"LineString","coordinates":[[-55.74874,-22.48378],[-55.74915,-22.48403],[-55.75004,-22.4844],[-55.75027,-22.48456],[-55.75052,-22.48498],[-55.75085,-22.48505],[-55.75118,-22.48521],[-55.75167,-22.48528],[-55.75206,-22.4855],[-55.7532,-22.48564],[-55.7538,-22.48564],[-55.75413,-22.48559],[-55.75428,-22.48552],[-55.75444,-22.48541],[-55.75456,-22.48524],[-55.75467,-22.48522],[-55.75481,-22.48526],[-55.75521,-22.48554],[-55.75579,-22.48568],[-55.7563,-22.48597],[-55.75735,-22.48623],[-55.75811,-22.4866],[-55.75856,-22.48672],[-55.75923,-22.48676],[-55.75975,-22.48669],[-55.7601,-22.48672],[-55.7615,-22.48718],[-55.762,-22.48725],[-55.76254,-22.48697],[-55.76328,-22.48679],[-55.76432,-22.48676],[-55.76505,-22.48688],[-55.7657,-22.48687],[-55.76602,-22.48647],[-55.76627,-22.4864],[-55.7664,-22.48647],[-55.76649,-22.4866],[-55.76672,-22.48668],[-55.76745,-22.48668],[-55.76813,-22.48674],[-55.76863,-22.48656],[-55.76902,-22.48651],[-55.77001,-22.48666],[-55.77058,-22.48649],[-55.77076,-22.48631],[-55.7709,-22.48608],[-55.77117,-22.48549],[-55.77129,-22.48537],[-55.7715,-22.48528],[-55.77249,-22.48557],[-55.77352,-22.48577],[-55.77402,-22.48569],[-55.77562,-22.48535],[-55.77596,-22.48515],[-55.77651,-22.48505],[-55.77745,-22.48511],[-55.77789,-22.48502],[-55.77843,-22.48486],[-55.77928,-22.48477],[-55.78023,-22.48461],[-55.78048,-22.48461],[-55.78144,-22.48429],[-55.78204,-22.48429],[-55.78228,-22.48419],[-55.78281,-22.48373],[-55.78394,-22.48335],[-55.78526,-22.48315],[-55.78582,-22.48321],[-55.78617,-22.48344],[-55.7864,-22.48347],[-55.78676,-22.48338],[-55.78693,-22.48343],[-55.78724,-22.48371],[-55.78751,-22.48378],[-55.78785,-22.48375],[-55.78832,-22.48357],[-55.78981,-22.48364],[-55.79142,-22.48423],[-55.79159,-22.48426],[-55.79237,-22.48419],[-55.79374,-22.48387],[-55.79423,-22.48391],[-55.79455,-22.48388],[-55.79496,-22.48351],[-55.79516,-22.48343],[-55.79594,-22.48332],[-55.79622,-22.48317],[-55.79649,-22.48289],[-55.79683,-22.4823],[-55.79702,-22.48209],[-55.79711,-22.48159],[-55.79722,-22.48154],[-55.79774,-22.48157],[-55.79789,-22.48166],[-55.79829,-22.48166],[-55.79936,-22.48197],[-55.79972,-22.48198],[-55.8,-22.48192]]}},{"type":"Feature","properties":{"nome":"","tipo":"Córrego"},"geometry":{"type":"LineString","coordinates":[[-55.77052,-22.49176],[-55.77037,-22.4914],[-55.77011,-22.491],[-55.77003,-22.49031],[-55.77009,-22.49017],[-55.77012,-22.48983],[-55.77027,-22.48939],[-55.77046,-22.48913],[-55.77073,-22.48796],[-55.77073,-22.4877],[-55.7708,-22.4875],[-55.77099,-22.48735],[-55.77101,-22.48727],[-55.77096,-22.48719],[-55.77074,-22.48715],[-55.77065,-22.48705],[-55.77059,-22.48683],[-55.77058,-22.48649]]}},{"type":"Feature","properties":{"nome":"","tipo":"Córrego"},"geometry":{"type":"LineString","coordinates":[[-55.76415,-22.48953],[-55.76419,-22.48946],[-55.76417,-22.48918],[-55.76429,-22.48864],[-55.76444,-22.48831],[-55.76455,-22.48727],[-55.76485,-22.48685]]}},{"type":"Feature","properties":{"nome":"","tipo":"Córrego"},"geometry":{"type":"LineString","coordinates":[[-55.75651,-22.49024],[-55.75709,-22.4899],[-55.75732,-22.4897],[-55.75743,-22.48949],[-55.75786,-22.48905],[-55.75814,-22.48883],[-55.75897,-22.48867],[-55.75913,-22.48858],[-55.75965,-22.48791],[-55.75977,-22.4877],[-55.75998,-22.48752],[-55.7607,-22.48744],[-55.76136,-22.48714]]}},{"type":"Feature","properties":{"nome":"","tipo":"Córrego"},"geometry":{"type":"LineString","coordinates":[[-55.77473,-22.48171],[-55.77498,-22.48242],[-55.77512,-22.48267],[-55.77545,-22.48293],[-55.77565,-22.48303],[-55.7759,-22.48331],[-55.77609,-22.48371],[-55.77617,-22.48397],[-55.7761,-22.48444],[-55.77614,-22.48472],[-55.7763,-22.48508]]}},{"type":"Feature","properties":{"nome":"","tipo":"Córrego"},"geometry":{"type":"LineString","coordinates":[[-55.77465,-22.49095],[-55.7754,-22.49073],[-55.77557,-22.49045],[-55.77575,-22.48967],[-55.77602,-22.48924],[-55.77608,-22.48896],[-55.77617,-22.48869],[-55.77628,-22.48856],[-55.77634,-22.48828],[-55.77666,-22.48773],[-55.77663,-22.4871],[-55.77673,-22.48668],[-55.77676,-22.48611],[-55.77685,-22.48582],[-55.77728,-22.48509]]}},{"type":"Feature","properties":{"nome":"","tipo":"Córrego"},"geometry":{"type":"LineString","coordinates":[[-55.7745,-22.48889],[-55.77447,-22.48841],[-55.77454,-22.48795],[-55.7746,-22.48781],[-55.77497,-22.48747],[-55.77506,-22.48716],[-55.7753,-22.4867],[-55.77547,-22.48629],[-55.7756,-22.48571],[-55.77562,-22.48535]]}},{"type":"Feature","properties":{"nome":"","tipo":"Córrego"},"geometry":{"type":"LineString","coordinates":[[-55.77679,-22.49273],[-55.77762,-22.49219],[-55.77833,-22.491],[-55.77852,-22.49022],[-55.77863,-22.49005],[-55.77896,-22.48979],[-55.77918,-22.48946],[-55.77931,-22.48896],[-55.7796,-22.48864],[-55.78016,-22.48818],[-55.7812,-22.48776],[-55.7816,-22.48687],[-55.78196,-22.48633],[-55.78211,-22.48561],[-55.78244,-22.48509],[-55.78249,-22.48491],[-55.7824,-22.48408]]}},{"type":"Feature","properties":{"nome":"","tipo":"Córrego"},"geometry":{"type":"LineString","coordinates":[[-55.77946,-22.48662],[-55.77975,-22.48636],[-55.77988,-22.48611],[-55.77998,-22.48571],[-55.77994,-22.48531],[-55.78006,-22.48513],[-55.78023,-22.48461]]}},{"type":"Feature","properties":{"nome":"","tipo":"Córrego"},"geometry":{"type":"LineString","coordinates":[[-55.7782,-22.482],[-55.77821,-22.4823],[-55.77839,-22.48287],[-55.77866,-22.48325],[-55.77887,-22.48367],[-55.77912,-22.48381],[-55.77991,-22.48466]]}},{"type":"Feature","properties":{"nome":"","tipo":"Córrego"},"geometry":{"type":"LineString","coordinates":[[-55.77975,-22.4817],[-55.78008,-22.48178],[-55.78019,-22.48189],[-55.7805,-22.48248],[-55.78086,-22.48295],[-55.78088,-22.48327],[-55.78108,-22.48357],[-55.78105,-22.48382],[-55.78136,-22.48432]]}},{"type":"Feature","properties":{"nome":"","tipo":"Córrego"},"geometry":{"type":"LineString","coordinates":[[-55.77911,-22.48],[-55.77914,-22.48]]}},{"type":"Feature","properties":{"nome":"","tipo":"Córrego"},"geometry":{"type":"LineString","coordinates":[[-55.70426,-22.57202],[-55.7045,-22.57193],[-55.70469,-22.57178],[-55.70502,-22.5719],[-55.70558,-22.57183],[-55.70575,-22.57173],[-55.70584,-22.57149],[-55.70594,-22.57135],[-55.7061,-22.5713],[-55.70616,-22.57133],[-55.70615,-22.57145],[-55.70621,-22.57165],[-55.70641,-22.57159],[-55.70648,-22.57162],[-55.70658,-22.5717],[-55.70666,-22.57186],[-55.70686,-22.572],[-55.7071,-22.57209],[-55.70736,-22.57229],[-55.7075,-22.57248],[-55.70764,-22.57251],[-55.7078,-22.57271],[-55.70808,-22.57269],[-55.7082,-22.57276],[-55.7083,-22.57292],[-55.70844,-22.57303],[-55.70851,-22.57338],[-55.70864,-22.57345],[-55.7087,-22.57364],[-55.70905,-22.57394],[-55.70912,-22.57418],[-55.7093,-22.57439],[-55.70935,-22.57458],[-55.70947,-22.57467],[-55.70951,-22.57477],[-55.70951,-22.57613],[-55.70944,-22.57633],[-55.70943,-22.57687]]}},{"type":"Feature","properties":{"nome":"arroyo Capiibary","tipo":"Córrego"},"geometry":{"type":"LineString","coordinates":[[-55.70459,-22.57652],[-55.70502,-22.57661],[-55.70577,-22.57692],[-55.70612,-22.57693],[-55.70673,-22.57712],[-55.70705,-22.5771],[-55.70734,-22.57716],[-55.70741,-22.57714],[-55.70754,-22.57699],[-55.70797,-22.57695],[-55.70805,-22.57697],[-55.7082,-22.5771],[-55.70833,-22.57713],[-55.70896,-22.57698],[-55.70933,-22.57683],[-55.70951,-22.57691],[-55.70972,-22.57724],[-55.71,-22.57719],[-55.71007,-22.57724],[-55.71013,-22.57787],[-55.7103,-22.57818],[-55.71051,-22.57834],[-55.71079,-22.57871],[-55.71088,-22.57935],[-55.71099,-22.57964],[-55.71102,-22.58006],[-55.71129,-22.5803],[-55.71143,-22.58065],[-55.71165,-22.58081],[-55.7117,-22.58135],[-55.71187,-22.5816],[-55.712,-22.58169],[-55.71215,-22.58202],[-55.71257,-22.58209],[-55.71263,-22.58215],[-55.71267,-22.58225],[-55.71264,-22.58247],[-55.71278,-22.5828],[-55.71298,-22.58289],[-55.71307,-22.58305],[-55.71331,-22.58323],[-55.71343,-22.58347],[-55.71365,-22.5836],[-55.71374,-22.58388],[-55.7139,-22.584],[-55.71402,-22.58437],[-55.71435,-22.58457],[-55.7146,-22.58481],[-55.71465,-22.58491],[-55.71496,-22.58514],[-55.71561,-22.58548],[-55.71566,-22.58554],[-55.71563,-22.58564],[-55.71568,-22.58582],[-55.716,-22.58603],[-55.71602,-22.5862],[-55.71631,-22.58656],[-55.71655,-22.58667],[-55.71693,-22.58704],[-55.71749,-22.58731],[-55.71764,-22.58777],[-55.71765,-22.58802],[-55.71778,-22.5883],[-55.71788,-22.58889],[-55.71802,-22.58919],[-55.718,-22.58967],[-55.71808,-22.58985],[-55.71837,-22.59004],[-55.71857,-22.59036],[-55.71866,-22.59061],[-55.71894,-22.59055],[-55.71912,-22.59082],[-55.71923,-22.59111],[-55.71904,-22.59137],[-55.71906,-22.59154],[-55.71922,-22.59185],[-55.71972,-22.59209],[-55.72004,-22.59232],[-55.72063,-22.59258],[-55.72117,-22.59303],[-55.72141,-22.59376],[-55.72161,-22.59422],[-55.72152,-22.59472],[-55.72164,-22.59524],[-55.72156,-22.59575],[-55.72159,-22.59594],[-55.72218,-22.59699],[-55.72232,-22.59713],[-55.72257,-22.59724],[-55.72289,-22.59766],[-55.7232,-22.59826],[-55.72362,-22.59855],[-55.72374,-22.5987],[-55.72382,-22.5989],[-55.72382,-22.59909],[-55.72372,-22.59974],[-55.72373,-22.6]]}},{"type":"Feature","properties":{"nome":"","tipo":"Córrego"},"geometry":{"type":"LineString","coordinates":[[-55.77367,-22.56267],[-55.77353,-22.5632],[-55.77358,-22.56351],[-55.77325,-22.56392],[-55.77296,-22.56447]]}},{"type":"Feature","properties":{"nome":"","tipo":"Córrego"},"geometry":{"type":"LineString","coordinates":[[-55.77798,-22.50407],[-55.77863,-22.5039],[-55.77918,-22.50354],[-55.78011,-22.50331],[-55.7818,-22.50332],[-55.78242,-22.5032],[-55.78256,-22.50304],[-55.7829,-22.50234],[-55.78356,-22.50194],[-55.78399,-22.50149],[-55.78415,-22.50142],[-55.78445,-22.50139],[-55.78457,-22.50127]]}},{"type":"Feature","properties":{"nome":"","tipo":"Córrego"},"geometry":{"type":"LineString","coordinates":[[-55.77931,-22.50547],[-55.77996,-22.50473],[-55.78021,-22.50457],[-55.78062,-22.50451],[-55.78079,-22.50426],[-55.78099,-22.50366],[-55.78122,-22.5033]]}},{"type":"Feature","properties":{"nome":"","tipo":"Córrego"},"geometry":{"type":"LineString","coordinates":[[-55.77673,-22.50292],[-55.77713,-22.50282],[-55.77766,-22.50252],[-55.77863,-22.5024],[-55.77869,-22.50213],[-55.77901,-22.50172],[-55.78003,-22.50167],[-55.78042,-22.50145],[-55.78063,-22.50141],[-55.78115,-22.50141],[-55.78171,-22.50126],[-55.7823,-22.50085]]}},{"type":"Feature","properties":{"nome":"","tipo":"Córrego"},"geometry":{"type":"LineString","coordinates":[[-55.78447,-22.50942],[-55.78483,-22.50874],[-55.78584,-22.50846],[-55.78649,-22.50837],[-55.78723,-22.50785],[-55.78831,-22.50772],[-55.78879,-22.50747],[-55.78897,-22.50734],[-55.78956,-22.50627],[-55.7906,-22.50567],[-55.79098,-22.50554],[-55.79133,-22.50505],[-55.79164,-22.50488],[-55.79178,-22.50471],[-55.79191,-22.50465],[-55.79249,-22.50464]]}},{"type":"Feature","properties":{"nome":"","tipo":"Córrego"},"geometry":{"type":"LineString","coordinates":[[-55.75133,-22.50371],[-55.7518,-22.5025],[-55.75198,-22.5025],[-55.7521,-22.50237],[-55.75208,-22.5021],[-55.75224,-22.50198],[-55.75241,-22.5021],[-55.75253,-22.5021],[-55.75274,-22.50189],[-55.75286,-22.50191],[-55.75337,-22.50258],[-55.75365,-22.50214],[-55.75374,-22.50211],[-55.75403,-22.50235],[-55.7542,-22.50242],[-55.75426,-22.50253],[-55.75443,-22.50259],[-55.75461,-22.50277],[-55.75495,-22.50286],[-55.75567,-22.50292],[-55.75587,-22.50287],[-55.75597,-22.50291],[-55.75604,-22.503],[-55.75604,-22.50316],[-55.7559,-22.5033],[-55.75621,-22.50375],[-55.75709,-22.50411],[-55.75732,-22.50411],[-55.75755,-22.50397],[-55.75769,-22.5038],[-55.75779,-22.50353],[-55.75844,-22.5035],[-55.75862,-22.50344],[-55.75903,-22.50351],[-55.75956,-22.50379],[-55.76002,-22.50392],[-55.76045,-22.5039],[-55.76135,-22.50366],[-55.76192,-22.50366],[-55.76243,-22.50373],[-55.76293,-22.50406],[-55.76302,-22.50454],[-55.76333,-22.50489],[-55.76325,-22.50516],[-55.76266,-22.50566],[-55.7623,-22.50642],[-55.76229,-22.50691],[-55.76266,-22.50709],[-55.76282,-22.50742],[-55.76353,-22.50791],[-55.76407,-22.50853],[-55.76453,-22.50874],[-55.76469,-22.50928],[-55.7649,-22.50971],[-55.76514,-22.50994],[-55.7656,-22.51006],[-55.76615,-22.51042],[-55.76632,-22.51082],[-55.76699,-22.51121],[-55.7672,-22.51141],[-55.76775,-22.51165],[-55.76814,-22.51209],[-55.7688,-22.51308],[-55.76891,-22.51318],[-55.76924,-22.51334],[-55.77014,-22.51359],[-55.77089,-22.51395],[-55.77147,-22.51433],[-55.77165,-22.51452],[-55.77202,-22.51479],[-55.77229,-22.51481],[-55.7732,-22.51508],[-55.77341,-22.51508],[-55.77407,-22.51525],[-55.77424,-22.51536],[-55.77469,-22.51596],[-55.77502,-22.51617],[-55.77578,-22.51646],[-55.77635,-22.5168],[-55.77654,-22.51698],[-55.77721,-22.51796],[-55.77827,-22.51825],[-55.77838,-22.51833],[-55.77859,-22.51857],[-55.77869,-22.51886],[-55.77911,-22.51931],[-55.77977,-22.51969],[-55.78062,-22.52055],[-55.78127,-22.52083],[-55.78153,-22.52101],[-55.78258,-22.5215],[-55.78285,-22.5218],[-55.7833,-22.52194],[-55.78379,-22.52235],[-55.78424,-22.5226],[-55.78448,-22.52288],[-55.78448,-22.52343],[-55.78443,-22.52364],[-55.78446,-22.52419],[-55.78451,-22.52425],[-55.78484,-22.52428],[-55.78497,-22.52441],[-55.78485,-22.52495],[-55.78496,-22.52641],[-55.78505,-22.52687],[-55.78536,-22.52754],[-55.78541,-22.52822],[-55.78535,-22.52861],[-55.78536,-22.52906],[-55.78547,-22.52933],[-55.7855,-22.52961],[-55.78515,-22.53023],[-55.78503,-22.53074],[-55.78502,-22.53106],[-55.7854,-22.53179],[-55.78546,-22.53232],[-55.78539,-22.53298],[-55.78557,-22.53365],[-55.78557,-22.53439],[-55.78576,-22.5346],[-55.78579,-22.53473],[-55.78578,-22.53482],[-55.78562,-22.53511],[-55.78562,-22.53519],[-55.78576,-22.53554],[-55.78574,-22.53577],[-55.7858,-22.53598],[-55.78589,-22.53614],[-55.78612,-22.53621],[-55.78672,-22.53613],[-55.78684,-22.53622],[-55.78664,-22.53672],[-55.78666,-22.53705],[-55.78682,-22.53741],[-55.78685,-22.53761],[-55.78699,-22.53785],[-55.787,-22.5381]]}},{"type":"Feature","properties":{"nome":"","tipo":"Córrego"},"geometry":{"type":"LineString","coordinates":[[-55.75127,-22.51879],[-55.7514,-22.51954],[-55.75134,-22.51979],[-55.75115,-22.52013],[-55.75113,-22.52034],[-55.75121,-22.52064],[-55.75139,-22.52087],[-55.75179,-22.52111],[-55.75214,-22.52119],[-55.75236,-22.52129],[-55.75245,-22.52144],[-55.75249,-22.52169],[-55.75255,-22.5218],[-55.75288,-22.52186],[-55.75319,-22.52199],[-55.75331,-22.52208],[-55.75355,-22.52241],[-55.75362,-22.52284],[-55.75358,-22.52351],[-55.75363,-22.52383],[-55.75378,-22.52414],[-55.75446,-22.52441],[-55.75458,-22.52458],[-55.75464,-22.52479],[-55.75459,-22.52536],[-55.75493,-22.52641],[-55.75507,-22.52656],[-55.75596,-22.5266],[-55.75651,-22.52678],[-55.7568,-22.52696],[-55.75696,-22.52712],[-55.75715,-22.52749],[-55.75739,-22.52777],[-55.75754,-22.52783],[-55.75785,-22.52783],[-55.75952,-22.52832],[-55.76015,-22.5287],[-55.76173,-22.52915],[-55.76292,-22.52965],[-55.76376,-22.53045],[-55.76471,-22.5308],[-55.76562,-22.53137],[-55.76648,-22.53157],[-55.7674,-22.53191],[-55.76859,-22.53214],[-55.76906,-22.53228],[-55.77106,-22.53359],[-55.77151,-22.53397],[-55.77211,-22.53417],[-55.77252,-22.53437],[-55.7729,-22.53478],[-55.77371,-22.53511],[-55.77435,-22.53554],[-55.7746,-22.53564],[-55.77476,-22.53581],[-55.77531,-22.53604],[-55.7779,-22.53605],[-55.77904,-22.53619],[-55.77952,-22.53632],[-55.78025,-22.53621],[-55.78325,-22.5362],[-55.7839,-22.53615],[-55.78458,-22.53627],[-55.78536,-22.53661],[-55.78557,-22.53681],[-55.78579,-22.53752],[-55.78593,-22.5377],[-55.7862,-22.53792],[-55.78676,-22.53809],[-55.78709,-22.5381],[-55.78775,-22.53826],[-55.78811,-22.53824],[-55.78931,-22.53863],[-55.78979,-22.53873],[-55.79002,-22.53885],[-55.79036,-22.53914],[-55.79055,-22.53917],[-55.79113,-22.53898],[-55.79163,-22.53891],[-55.79169,-22.53854],[-55.79231,-22.53817],[-55.79273,-22.53817],[-55.79332,-22.53825],[-55.79377,-22.53845],[-55.79428,-22.53845],[-55.79526,-22.53901],[-55.79668,-22.53948],[-55.7977,-22.54012],[-55.79892,-22.54021],[-55.79927,-22.54037],[-55.79971,-22.54078],[-55.79985,-22.54105],[-55.79984,-22.54155],[-55.79971,-22.54178],[-55.79969,-22.54194],[-55.79977,-22.54208],[-55.8,-22.54227]]}},{"type":"Feature","properties":{"nome":"","tipo":"Córrego"},"geometry":{"type":"LineString","coordinates":[[-55.76909,-22.53995],[-55.77048,-22.53931],[-55.77109,-22.53892],[-55.7714,-22.53857],[-55.77219,-22.53732],[-55.77286,-22.5365],[-55.7736,-22.53594],[-55.77435,-22.53554]]}},{"type":"Feature","properties":{"nome":"","tipo":"Córrego"},"geometry":{"type":"LineString","coordinates":[[-55.78899,-22.54368],[-55.78933,-22.543],[-55.7895,-22.54243],[-55.78999,-22.542],[-55.79049,-22.54178],[-55.79057,-22.5415],[-55.79101,-22.5412],[-55.79097,-22.54068],[-55.79102,-22.54028],[-55.79097,-22.53987],[-55.7911,-22.53927],[-55.79111,-22.53899]]}},{"type":"Feature","properties":{"nome":"","tipo":"Córrego"},"geometry":{"type":"LineString","coordinates":[[-55.79145,-22.54499],[-55.79197,-22.54586],[-55.79216,-22.54595],[-55.79244,-22.54599],[-55.79317,-22.54592],[-55.79403,-22.54594],[-55.79493,-22.54646],[-55.79606,-22.54672],[-55.79673,-22.54712],[-55.79726,-22.54726],[-55.79753,-22.54754],[-55.79837,-22.54781],[-55.79873,-22.54801],[-55.79928,-22.54815],[-55.79967,-22.5481],[-55.8,-22.54819]]}},{"type":"Feature","properties":{"nome":"","tipo":"Córrego"},"geometry":{"type":"LineString","coordinates":[[-55.79176,-22.55084],[-55.79234,-22.55091],[-55.79296,-22.55087],[-55.79328,-22.55097],[-55.79424,-22.55135],[-55.79464,-22.55164],[-55.79481,-22.55189],[-55.79508,-22.5521],[-55.79531,-22.5522],[-55.7954,-22.55222],[-55.79601,-22.55207],[-55.79648,-22.55202],[-55.79683,-22.55207],[-55.79789,-22.55239],[-55.79829,-22.55245],[-55.8,-22.55248]]}},{"type":"Feature","properties":{"nome":"","tipo":"Córrego"},"geometry":{"type":"LineString","coordinates":[[-55.7932,-22.52552],[-55.79362,-22.52618],[-55.79372,-22.52647],[-55.79372,-22.52686],[-55.79363,-22.52725],[-55.79362,-22.52809],[-55.79355,-22.52844],[-55.79363,-22.52867],[-55.79391,-22.52915],[-55.79396,-22.52947],[-55.7941,-22.52987],[-55.79424,-22.53006],[-55.7943,-22.53032],[-55.79451,-22.53067],[-55.79464,-22.53137],[-55.79474,-22.53148],[-55.79494,-22.532],[-55.79503,-22.53208],[-55.79529,-22.53216],[-55.7957,-22.53237],[-55.79593,-22.53254],[-55.79633,-22.53263],[-55.79701,-22.53267],[-55.79733,-22.53254],[-55.79757,-22.53231],[-55.79789,-22.53213],[-55.7982,-22.53203],[-55.79855,-22.53208],[-55.79882,-22.53201],[-55.79897,-22.53186],[-55.79947,-22.53157],[-55.8,-22.5314]]}},{"type":"Feature","properties":{"nome":"","tipo":"Córrego"},"geometry":{"type":"LineString","coordinates":[[-55.75323,-22.52897],[-55.75332,-22.52887],[-55.75344,-22.52852],[-55.75376,-22.52793],[-55.75417,-22.52739],[-55.75449,-22.52729],[-55.7548,-22.52726],[-55.75558,-22.52699],[-55.75598,-22.52661]]}},{"type":"Feature","properties":{"nome":"","tipo":"Córrego"},"geometry":{"type":"LineString","coordinates":[[-55.7512,-22.52777],[-55.75136,-22.52783],[-55.75197,-22.52784],[-55.7522,-22.52768],[-55.75262,-22.5272],[-55.75288,-22.52715],[-55.75319,-22.52715],[-55.75356,-22.52702],[-55.75374,-22.52701],[-55.75391,-22.52692],[-55.75483,-22.52614]]}},{"type":"Feature","properties":{"nome":"","tipo":"Córrego"},"geometry":{"type":"LineString","coordinates":[[-55.75497,-22.53054],[-55.75521,-22.53027],[-55.75537,-22.53017],[-55.75591,-22.53009],[-55.75643,-22.52991],[-55.75713,-22.52953],[-55.75747,-22.52946],[-55.75902,-22.52944],[-55.75925,-22.5294],[-55.76017,-22.52908],[-55.76056,-22.52882]]}},{"type":"Feature","properties":{"nome":"","tipo":"Córrego"},"geometry":{"type":"LineString","coordinates":[[-55.76009,-22.53261],[-55.76092,-22.53215],[-55.76145,-22.53163],[-55.76154,-22.5313],[-55.76177,-22.531],[-55.76208,-22.53078],[-55.76235,-22.53073],[-55.7632,-22.53032],[-55.76353,-22.53023]]}},{"type":"Feature","properties":{"nome":"","tipo":"Córrego"},"geometry":{"type":"LineString","coordinates":[[-55.76121,-22.53429],[-55.7614,-22.53417],[-55.7617,-22.53382],[-55.7621,-22.53351],[-55.76221,-22.5333],[-55.76263,-22.533],[-55.7629,-22.5327],[-55.76297,-22.53257],[-55.76306,-22.5321],[-55.76315,-22.53195],[-55.76433,-22.53114],[-55.76487,-22.5309]]}},{"type":"Feature","properties":{"nome":"","tipo":"Córrego"},"geometry":{"type":"LineString","coordinates":[[-55.76454,-22.52262],[-55.76457,-22.52318],[-55.76451,-22.52345],[-55.76428,-22.52383],[-55.76407,-22.52443],[-55.76374,-22.52512],[-55.76361,-22.52556],[-55.76357,-22.52581],[-55.7636,-22.52675],[-55.76341,-22.52747],[-55.763,-22.52783],[-55.7628,-22.52825],[-55.7627,-22.52887],[-55.76229,-22.52938]]}},{"type":"Feature","properties":{"nome":"","tipo":"Córrego"},"geometry":{"type":"LineString","coordinates":[[-55.75883,-22.54029],[-55.75917,-22.53987],[-55.75989,-22.53953],[-55.7605,-22.53901],[-55.76077,-22.53893],[-55.76242,-22.53872],[-55.76326,-22.53832],[-55.76375,-22.53796],[-55.76446,-22.53768],[-55.76507,-22.53758],[-55.76544,-22.53733],[-55.76561,-22.53727],[-55.766,-22.5372],[-55.76665,-22.537],[-55.76692,-22.53669],[-55.76725,-22.53651],[-55.76798,-22.53594],[-55.76841,-22.53528],[-55.76866,-22.53509],[-55.76926,-22.53483],[-55.76966,-22.5344],[-55.76983,-22.53435],[-55.77058,-22.53438],[-55.77157,-22.53399]]}},{"type":"Feature","properties":{"nome":"","tipo":"Córrego"},"geometry":{"type":"LineString","coordinates":[[-55.79203,-22.55627],[-55.79241,-22.55598],[-55.79259,-22.55575],[-55.79281,-22.55536],[-55.79292,-22.55483],[-55.79351,-22.5545],[-55.79395,-22.55419],[-55.79451,-22.55395],[-55.79508,-22.55356],[-55.79518,-22.55341],[-55.79529,-22.55273],[-55.79554,-22.5522]]}},{"type":"Feature","properties":{"nome":"","tipo":"Córrego"},"geometry":{"type":"LineString","coordinates":[[-55.73032,-22.58311],[-55.73073,-22.58395],[-55.73108,-22.58427],[-55.7319,-22.58525],[-55.73192,-22.58559],[-55.73164,-22.5865],[-55.73164,-22.58666],[-55.73187,-22.58704],[-55.73227,-22.58734],[-55.73284,-22.58738],[-55.73337,-22.58773],[-55.7338,-22.58768],[-55.73398,-22.58812],[-55.73405,-22.58842],[-55.73416,-22.58853],[-55.73466,-22.58885],[-55.73478,-22.58898],[-55.73482,-22.58933],[-55.7348,-22.58971],[-55.73474,-22.5899],[-55.73502,-22.59032],[-55.73491,-22.5906],[-55.73503,-22.59073],[-55.73462,-22.59127],[-55.73477,-22.59159],[-55.73467,-22.59197],[-55.73479,-22.59219],[-55.73455,-22.59253],[-55.73439,-22.59297],[-55.73445,-22.59322],[-55.73458,-22.59349],[-55.73464,-22.59401],[-55.73463,-22.59429],[-55.73495,-22.59484],[-55.73522,-22.59512],[-55.73553,-22.59554],[-55.73565,-22.59584],[-55.73592,-22.59603],[-55.73612,-22.59666],[-55.73641,-22.59689],[-55.73648,-22.59705],[-55.73652,-22.5973],[-55.7365,-22.5976],[-55.73656,-22.59792],[-55.73648,-22.5982],[-55.73652,-22.59879],[-55.7366,-22.59913],[-55.73684,-22.59957],[-55.73698,-22.6]]}},{"type":"Feature","properties":{"nome":"","tipo":"Córrego"},"geometry":{"type":"LineString","coordinates":[[-55.70774,-22.58673],[-55.708,-22.5873],[-55.70839,-22.58757],[-55.7095,-22.58779],[-55.70971,-22.58787],[-55.71095,-22.588],[-55.7112,-22.58809],[-55.71284,-22.58775],[-55.71312,-22.58779],[-55.7135,-22.58771],[-55.71401,-22.58769],[-55.71451,-22.5876],[-55.7149,-22.58747],[-55.71525,-22.58748],[-55.71546,-22.58733],[-55.71592,-22.58713],[-55.71611,-22.58689],[-55.71634,-22.58682],[-55.71645,-22.5867],[-55.71655,-22.58667]]}},{"type":"Feature","properties":{"nome":"arroyo Falcon","tipo":"Córrego"},"geometry":{"type":"LineString","coordinates":[[-55.69143,-22.58171],[-55.69149,-22.58203],[-55.69159,-22.58352],[-55.6915,-22.58492],[-55.69141,-22.58533],[-55.69153,-22.58644],[-55.69173,-22.58679],[-55.69214,-22.58691],[-55.69244,-22.58712],[-55.69253,-22.58756],[-55.69269,-22.588],[-55.69275,-22.58853],[-55.69271,-22.58904],[-55.69276,-22.59022],[-55.69306,-22.59128],[-55.69312,-22.59143],[-55.69343,-22.59182],[-55.69345,-22.59204],[-55.69342,-22.59226],[-55.6933,-22.59249],[-55.69324,-22.59272],[-55.69325,-22.59313],[-55.69335,-22.59358],[-55.69347,-22.59377],[-55.69393,-22.59403],[-55.69404,-22.59417],[-55.69416,-22.59446],[-55.69415,-22.59467],[-55.69407,-22.59486],[-55.694,-22.59531],[-55.69385,-22.59571],[-55.69377,-22.59613],[-55.69383,-22.59641],[-55.69394,-22.59674],[-55.69409,-22.59698],[-55.69495,-22.59787],[-55.69502,-22.59804],[-55.69497,-22.59905],[-55.695,-22.59957],[-55.69493,-22.6]]}},{"type":"Feature","properties":{"nome":"","tipo":"Córrego"},"geometry":{"type":"LineString","coordinates":[[-55.68248,-22.59749],[-55.68237,-22.59775],[-55.68212,-22.59795],[-55.68206,-22.59807],[-55.68193,-22.59865],[-55.68204,-22.59915],[-55.68228,-22.59964],[-55.68224,-22.6]]}},{"type":"Feature","properties":{"nome":"","tipo":"Córrego"},"geometry":{"type":"LineString","coordinates":[[-55.73719,-22.59201],[-55.73693,-22.59212],[-55.73673,-22.59227],[-55.73636,-22.5924],[-55.73566,-22.59299],[-55.73558,-22.5933],[-55.73521,-22.594],[-55.73506,-22.59414],[-55.73486,-22.59467]]}},{"type":"Feature","properties":{"nome":"","tipo":"Córrego"},"geometry":{"type":"LineString","coordinates":[[-55.79475,-22.5093],[-55.79478,-22.50876],[-55.79491,-22.50847],[-55.79563,-22.50758],[-55.7961,-22.50722],[-55.79646,-22.50707],[-55.79656,-22.50694],[-55.7967,-22.50645],[-55.79665,-22.5059],[-55.79673,-22.50569],[-55.79694,-22.50546]]}},{"type":"Feature","properties":{"nome":"","tipo":"Córrego"},"geometry":{"type":"LineString","coordinates":[[-55.78979,-22.55717],[-55.78993,-22.55699],[-55.78997,-22.55658],[-55.79012,-22.55624],[-55.7901,-22.55607],[-55.79015,-22.55591],[-55.79027,-22.55574],[-55.79053,-22.55561],[-55.79075,-22.5553],[-55.79112,-22.55499],[-55.79144,-22.5549],[-55.79179,-22.5546],[-55.7921,-22.55446],[-55.79264,-22.55448],[-55.79326,-22.55463]]}},{"type":"Feature","properties":{"nome":"","tipo":"Córrego"},"geometry":{"type":"LineString","coordinates":[[-55.78848,-22.55691],[-55.78883,-22.55668],[-55.78959,-22.55643],[-55.78977,-22.55618],[-55.79005,-22.55596],[-55.79015,-22.55594]]}},{"type":"Feature","properties":{"nome":"","tipo":"Córrego"},"geometry":{"type":"LineString","coordinates":[[-55.76394,-22.5736],[-55.76433,-22.57364],[-55.76442,-22.57382],[-55.7646,-22.57387],[-55.76474,-22.57381],[-55.76497,-22.57382],[-55.76512,-22.57374],[-55.76544,-22.57367],[-55.76555,-22.57352],[-55.76571,-22.57345],[-55.76597,-22.57361],[-55.76652,-22.57366],[-55.76686,-22.57388],[-55.76716,-22.57391],[-55.76749,-22.57369],[-55.76779,-22.57375],[-55.76818,-22.57365],[-55.76843,-22.57352],[-55.76942,-22.57341],[-55.76953,-22.57332],[-55.76965,-22.5733],[-55.77034,-22.57329],[-55.7712,-22.57306],[-55.77158,-22.57278],[-55.77192,-22.57267],[-55.77205,-22.57257],[-55.77212,-22.57246],[-55.77208,-22.57239],[-55.77214,-22.57233],[-55.77258,-22.57227],[-55.77261,-22.57218],[-55.77274,-22.5721],[-55.77299,-22.57205],[-55.77324,-22.57178],[-55.77364,-22.5718],[-55.77376,-22.57168],[-55.77413,-22.57161],[-55.77427,-22.57153],[-55.77451,-22.57152],[-55.77498,-22.57137],[-55.77534,-22.57104],[-55.77587,-22.57007],[-55.77595,-22.5694],[-55.776,-22.56927],[-55.77615,-22.5692],[-55.77625,-22.56903],[-55.77648,-22.56907],[-55.77661,-22.56886],[-55.7767,-22.56882],[-55.7768,-22.56863],[-55.7773,-22.56819],[-55.77737,-22.56811],[-55.7774,-22.56795],[-55.7776,-22.56772],[-55.77775,-22.56769]]}},{"type":"Feature","properties":{"nome":"","tipo":"Córrego"},"geometry":{"type":"LineString","coordinates":[[-55.76553,-22.57171],[-55.76555,-22.57186],[-55.76591,-22.57278],[-55.76578,-22.57348]]}},{"type":"Feature","properties":{"nome":"","tipo":"Córrego"},"geometry":{"type":"LineString","coordinates":[[-55.76945,-22.56872],[-55.76951,-22.56863],[-55.76972,-22.5685],[-55.77002,-22.56843],[-55.77009,-22.56837],[-55.77031,-22.5684],[-55.77041,-22.5683],[-55.7707,-22.56821],[-55.77094,-22.56805],[-55.77106,-22.56804],[-55.77173,-22.56759],[-55.77199,-22.56736],[-55.77228,-22.56729],[-55.77239,-22.56719],[-55.77275,-22.56707],[-55.773,-22.56682],[-55.77322,-22.56677],[-55.77348,-22.56664],[-55.77365,-22.56636],[-55.7739,-22.56617]]}},{"type":"Feature","properties":{"nome":"","tipo":"Córrego"},"geometry":{"type":"LineString","coordinates":[[-55.74316,-22.54419],[-55.74349,-22.54448],[-55.74354,-22.54458],[-55.744,-22.54493],[-55.74395,-22.54513],[-55.74401,-22.54525],[-55.74419,-22.54542],[-55.74481,-22.54576],[-55.74488,-22.54594],[-55.74513,-22.54618],[-55.74508,-22.54635],[-55.74523,-22.54648],[-55.74523,-22.54669],[-55.74532,-22.54689],[-55.74577,-22.54711],[-55.74583,-22.54721],[-55.74594,-22.54746],[-55.74595,-22.54782],[-55.74601,-22.5479],[-55.74632,-22.54803],[-55.74668,-22.54828],[-55.74695,-22.5488],[-55.74697,-22.54914]]}},{"type":"Feature","properties":{"nome":"","tipo":"Córrego"},"geometry":{"type":"LineString","coordinates":[[-55.78576,-22.48655],[-55.78593,-22.48557],[-55.78639,-22.48445],[-55.78682,-22.48391],[-55.7872,-22.48367]]}},{"type":"Feature","properties":{"nome":"","tipo":"Córrego"},"geometry":{"type":"LineString","coordinates":[[-55.78503,-22.48543],[-55.78512,-22.48479],[-55.78532,-22.48429],[-55.78551,-22.48341],[-55.78566,-22.48317]]}},{"type":"Feature","properties":{"nome":"","tipo":"Córrego"},"geometry":{"type":"LineString","coordinates":[[-55.78833,-22.48128],[-55.78842,-22.48166],[-55.7887,-22.48224],[-55.78888,-22.4828],[-55.78941,-22.48363]]}},{"type":"Feature","properties":{"nome":"","tipo":"Córrego"},"geometry":{"type":"LineString","coordinates":[[-55.78383,-22.4938],[-55.78383,-22.49355],[-55.78398,-22.49279],[-55.78418,-22.49268],[-55.7849,-22.49249],[-55.78516,-22.49237],[-55.7854,-22.4919],[-55.78557,-22.49174],[-55.78618,-22.49137],[-55.78664,-22.49125],[-55.78678,-22.49114],[-55.78699,-22.49066],[-55.78699,-22.48969],[-55.78702,-22.48947],[-55.78718,-22.48919],[-55.78724,-22.4888],[-55.78773,-22.48793],[-55.78804,-22.48708],[-55.78829,-22.48666],[-55.7885,-22.48646],[-55.7885,-22.4862],[-55.78856,-22.48609],[-55.78865,-22.486],[-55.7892,-22.48583],[-55.78942,-22.48549],[-55.78963,-22.48528],[-55.78997,-22.48505],[-55.79047,-22.48487],[-55.79054,-22.48469],[-55.7907,-22.48453],[-55.79091,-22.48404]]}},{"type":"Feature","properties":{"nome":"","tipo":"Córrego"},"geometry":{"type":"LineString","coordinates":[[-55.79303,-22.4876],[-55.79302,-22.48701],[-55.79287,-22.48654],[-55.79268,-22.48614],[-55.79254,-22.48558],[-55.79258,-22.48501],[-55.79254,-22.48468],[-55.7926,-22.48414]]}},{"type":"Feature","properties":{"nome":"","tipo":"Córrego"},"geometry":{"type":"LineString","coordinates":[[-55.79518,-22.48686],[-55.79478,-22.4863],[-55.79472,-22.4861],[-55.79454,-22.4859],[-55.79441,-22.48556],[-55.79408,-22.48516],[-55.79394,-22.48478],[-55.7939,-22.48449],[-55.79402,-22.48389]]}},{"type":"Feature","properties":{"nome":"","tipo":"Córrego"},"geometry":{"type":"LineString","coordinates":[[-55.79821,-22.48819],[-55.79945,-22.48776],[-55.8,-22.48746]]}},{"type":"Feature","properties":{"nome":"","tipo":"Córrego"},"geometry":{"type":"LineString","coordinates":[[-55.79029,-22.49499],[-55.78949,-22.495],[-55.78914,-22.49513],[-55.78867,-22.49586],[-55.78856,-22.4961],[-55.7887,-22.49706],[-55.78891,-22.49735],[-55.78908,-22.49749],[-55.78922,-22.49773],[-55.78969,-22.49806],[-55.78973,-22.4982],[-55.78959,-22.49886],[-55.78957,-22.49932],[-55.78947,-22.49964],[-55.78908,-22.50011],[-55.78903,-22.50032],[-55.78904,-22.50074],[-55.78898,-22.50091],[-55.7888,-22.50108],[-55.78869,-22.50148],[-55.78882,-22.50185],[-55.78877,-22.50233],[-55.78842,-22.50241],[-55.78836,-22.50262]]}},{"type":"Feature","properties":{"nome":"","tipo":"Córrego"},"geometry":{"type":"LineString","coordinates":[[-55.78687,-22.49646],[-55.7871,-22.49753],[-55.78729,-22.49785],[-55.7877,-22.49876],[-55.78779,-22.49892],[-55.7885,-22.49946],[-55.78872,-22.49992],[-55.78903,-22.50032]]}},{"type":"Feature","properties":{"nome":"","tipo":"Córrego"},"geometry":{"type":"LineString","coordinates":[[-55.78585,-22.49839],[-55.78575,-22.4996],[-55.78565,-22.50001],[-55.78578,-22.50083],[-55.78575,-22.50102],[-55.78559,-22.50129]]}},{"type":"Feature","properties":{"nome":"","tipo":"Córrego"},"geometry":{"type":"LineString","coordinates":[[-55.78396,-22.50547],[-55.78395,-22.50535],[-55.7843,-22.50428],[-55.78437,-22.50418],[-55.78466,-22.50396],[-55.78498,-22.50335],[-55.78504,-22.50313],[-55.78525,-22.50289],[-55.78546,-22.50274],[-55.78556,-22.50255],[-55.7856,-22.50219],[-55.78595,-22.50163]]}},{"type":"Feature","properties":{"nome":"","tipo":"Córrego"},"geometry":{"type":"LineString","coordinates":[[-55.79182,-22.50014],[-55.79166,-22.50053],[-55.79156,-22.5011],[-55.79126,-22.50208],[-55.7906,-22.50285],[-55.79049,-22.50343],[-55.79052,-22.50362],[-55.79048,-22.50395]]}},{"type":"Feature","properties":{"nome":"","tipo":"Córrego"},"geometry":{"type":"LineString","coordinates":[[-55.78278,-22.49445],[-55.78306,-22.4952],[-55.78308,-22.49539],[-55.78305,-22.49566],[-55.7827,-22.49602],[-55.78267,-22.49623],[-55.78269,-22.49649],[-55.78282,-22.49672],[-55.78298,-22.4975],[-55.78293,-22.49768],[-55.78243,-22.49842],[-55.78232,-22.49873],[-55.7821,-22.49899],[-55.782,-22.49925]]}},{"type":"Feature","properties":{"nome":"","tipo":"Córrego"},"geometry":{"type":"LineString","coordinates":[[-55.79741,-22.51353],[-55.79788,-22.51349],[-55.79831,-22.51354],[-55.7985,-22.51327],[-55.79851,-22.51319],[-55.79843,-22.51299],[-55.79829,-22.51289],[-55.79811,-22.5125],[-55.79808,-22.5122],[-55.79812,-22.51205],[-55.7985,-22.51136],[-55.79868,-22.51092],[-55.79877,-22.51022],[-55.79927,-22.50966],[-55.7994,-22.50931],[-55.79953,-22.50912],[-55.79969,-22.50892],[-55.79985,-22.50884],[-55.8,-22.50861]]}},{"type":"Feature","properties":{"nome":"","tipo":"Córrego"},"geometry":{"type":"LineString","coordinates":[[-55.8,-22.51236],[-55.7998,-22.51226],[-55.79965,-22.51207],[-55.79942,-22.5114],[-55.79937,-22.51086],[-55.79947,-22.51049],[-55.79956,-22.51039],[-55.79983,-22.50972],[-55.79987,-22.50913],[-55.79981,-22.50886]]}},{"type":"Feature","properties":{"nome":"","tipo":"Córrego"},"geometry":{"type":"LineString","coordinates":[[-55.79685,-22.50987],[-55.79675,-22.50905],[-55.7967,-22.50887],[-55.79679,-22.50832],[-55.79656,-22.50789],[-55.79638,-22.50775],[-55.7965,-22.50747],[-55.79649,-22.50704]]}},{"type":"Feature","properties":{"nome":"","tipo":"Córrego"},"geometry":{"type":"LineString","coordinates":[[-55.7925,-22.51208],[-55.79282,-22.51199],[-55.793,-22.51177],[-55.79308,-22.51154],[-55.79317,-22.51058],[-55.79309,-22.51034],[-55.79247,-22.50995],[-55.79221,-22.50969],[-55.79212,-22.50945],[-55.79211,-22.50915],[-55.79226,-22.50845],[-55.79245,-22.50778],[-55.79258,-22.50758],[-55.79337,-22.50739],[-55.79344,-22.5072],[-55.79352,-22.50634],[-55.79398,-22.50591]]}},{"type":"Feature","properties":{"nome":"","tipo":"Córrego"},"geometry":{"type":"LineString","coordinates":[[-55.78922,-22.51531],[-55.78975,-22.51495],[-55.79027,-22.51468],[-55.79066,-22.51451],[-55.791,-22.5145],[-55.7914,-22.51474],[-55.79194,-22.51496],[-55.79221,-22.515],[-55.79279,-22.51548],[-55.79347,-22.51577],[-55.79447,-22.51636],[-55.7948,-22.51649],[-55.79495,-22.51662],[-55.79599,-22.51705],[-55.79616,-22.51718],[-55.79627,-22.51741],[-55.7963,-22.51758],[-55.79627,-22.51788],[-55.79636,-22.5184],[-55.7965,-22.51871],[-55.79665,-22.51878],[-55.79687,-22.5188],[-55.79787,-22.5191],[-55.79808,-22.51921],[-55.79857,-22.5199],[-55.79881,-22.52036],[-55.79898,-22.52059],[-55.79934,-22.52088],[-55.79967,-22.52131],[-55.8,-22.52196]]}},{"type":"Feature","properties":{"nome":"Córrego São João Mirim","tipo":"Córrego"},"geometry":{"type":"LineString","coordinates":[[-55.72229,-22.51412],[-55.72216,-22.51404]]}},{"type":"Feature","properties":{"nome":"Córrego São João Mirim","tipo":"Córrego"},"geometry":{"type":"LineString","coordinates":[[-55.72333,-22.51458],[-55.72319,-22.51457],[-55.72279,-22.51434],[-55.72248,-22.51426],[-55.72229,-22.51412]]}},{"type":"Feature","properties":{"nome":"Córrego São João Mirim","tipo":"Córrego"},"geometry":{"type":"LineString","coordinates":[[-55.72482,-22.51499],[-55.72471,-22.51498]]}},{"type":"Feature","properties":{"nome":"","tipo":"Córrego"},"geometry":{"type":"LineString","coordinates":[[-55.79003,-22.5729],[-55.79066,-22.57264],[-55.79104,-22.57231],[-55.79184,-22.5719],[-55.79206,-22.57172],[-55.79254,-22.57101],[-55.7933,-22.57076],[-55.79367,-22.57045],[-55.79429,-22.56945],[-55.79494,-22.56885],[-55.79505,-22.56857],[-55.79559,-22.56789],[-55.79583,-22.56745],[-55.79589,-22.56693],[-55.79606,-22.5666],[-55.79627,-22.56637],[-55.7964,-22.56631],[-55.79714,-22.56621],[-55.79814,-22.56554],[-55.79835,-22.56508],[-55.79861,-22.56471],[-55.79894,-22.56439],[-55.79922,-22.56369],[-55.79953,-22.56318],[-55.8,-22.56289]]}},{"type":"Feature","properties":{"nome":"","tipo":"Córrego"},"geometry":{"type":"LineString","coordinates":[[-55.78225,-22.57437],[-55.78247,-22.57415],[-55.78254,-22.57387],[-55.78269,-22.57365],[-55.78279,-22.57316],[-55.78322,-22.57272],[-55.78326,-22.57252],[-55.78319,-22.57189],[-55.78355,-22.57114],[-55.78358,-22.57064],[-55.78345,-22.57009],[-55.78346,-22.56973],[-55.78361,-22.56888],[-55.78378,-22.56848],[-55.78391,-22.56782],[-55.78381,-22.56743],[-55.78377,-22.56669],[-55.78389,-22.56638],[-55.78392,-22.56612],[-55.78414,-22.56574],[-55.78435,-22.5655],[-55.78446,-22.56521],[-55.78472,-22.56474],[-55.78528,-22.56452],[-55.78566,-22.56424],[-55.78595,-22.56421]]}},{"type":"Feature","properties":{"nome":"","tipo":"Córrego"},"geometry":{"type":"LineString","coordinates":[[-55.79665,-22.55482],[-55.79694,-22.55455],[-55.79729,-22.55407],[-55.79746,-22.55393],[-55.79763,-22.55369],[-55.79786,-22.55312],[-55.79793,-22.55283],[-55.79827,-22.55245]]}},{"type":"Feature","properties":{"nome":"","tipo":"Córrego"},"geometry":{"type":"LineString","coordinates":[[-55.79337,-22.53426],[-55.79345,-22.53442],[-55.79347,-22.53472],[-55.79337,-22.53518],[-55.79313,-22.53562],[-55.79301,-22.53574],[-55.79279,-22.53627],[-55.79306,-22.53702],[-55.79306,-22.53726],[-55.79317,-22.53782],[-55.79304,-22.53801],[-55.79309,-22.53822]]}},{"type":"Feature","properties":{"nome":"","tipo":"Córrego"},"geometry":{"type":"LineString","coordinates":[[-55.77329,-22.54033],[-55.77352,-22.53982],[-55.77387,-22.53954],[-55.77396,-22.53927],[-55.77413,-22.53912],[-55.77488,-22.53881],[-55.77527,-22.53844],[-55.7755,-22.5379],[-55.77569,-22.53766],[-55.77574,-22.53747],[-55.77575,-22.53698],[-55.77589,-22.53646],[-55.77608,-22.53605]]}},{"type":"Feature","properties":{"nome":"","tipo":"Córrego"},"geometry":{"type":"LineString","coordinates":[[-55.79487,-22.5018],[-55.79499,-22.50207],[-55.79526,-22.50218],[-55.79551,-22.50239],[-55.79572,-22.50245],[-55.79654,-22.50247],[-55.79677,-22.50268],[-55.79716,-22.50281],[-55.7973,-22.50293],[-55.79748,-22.50315],[-55.79765,-22.50355],[-55.79778,-22.50367],[-55.79792,-22.50394],[-55.7983,-22.50439],[-55.79827,-22.50471],[-55.79839,-22.505],[-55.79834,-22.50524],[-55.79838,-22.5055]]}},{"type":"Feature","properties":{"nome":"","tipo":"Córrego"},"geometry":{"type":"LineString","coordinates":[[-55.8,-22.50399],[-55.79965,-22.50441],[-55.79932,-22.5047],[-55.79873,-22.50494],[-55.79839,-22.505]]}},{"type":"Feature","properties":{"nome":"","tipo":"Córrego"},"geometry":{"type":"LineString","coordinates":[[-55.79886,-22.50188],[-55.79854,-22.50252],[-55.79848,-22.50288],[-55.79825,-22.50315],[-55.7982,-22.50331],[-55.79821,-22.50366],[-55.798,-22.50406]]}},{"type":"Feature","properties":{"nome":"","tipo":"Córrego"},"geometry":{"type":"LineString","coordinates":[[-55.78234,-22.53364],[-55.78298,-22.53362],[-55.78418,-22.53407],[-55.78479,-22.53411],[-55.78557,-22.53436]]}},{"type":"Feature","properties":{"nome":"","tipo":"Córrego"},"geometry":{"type":"LineString","coordinates":[[-55.79083,-22.52367],[-55.79092,-22.52433],[-55.79068,-22.52561],[-55.79051,-22.52623],[-55.79014,-22.52668],[-55.78979,-22.52753],[-55.78969,-22.52767],[-55.78943,-22.52782],[-55.78876,-22.5285],[-55.78863,-22.5287],[-55.78816,-22.52904],[-55.78788,-22.52931],[-55.78744,-22.52958],[-55.7873,-22.53],[-55.78713,-22.53009],[-55.78665,-22.53017],[-55.78602,-22.53005],[-55.78558,-22.53019],[-55.78515,-22.53024]]}},{"type":"Feature","properties":{"nome":"","tipo":"Córrego"},"geometry":{"type":"LineString","coordinates":[[-55.79855,-22.54547],[-55.79872,-22.54535],[-55.79906,-22.54488],[-55.79904,-22.54434],[-55.79947,-22.54387],[-55.79969,-22.54353],[-55.8,-22.54346]]}},{"type":"Feature","properties":{"nome":"","tipo":"Córrego"},"geometry":{"type":"LineString","coordinates":[[-55.7995,-22.54902],[-55.79964,-22.5487],[-55.79965,-22.54847],[-55.79991,-22.54818]]}},{"type":"Feature","properties":{"nome":"","tipo":"Córrego"},"geometry":{"type":"LineString","coordinates":[[-55.79401,-22.5226],[-55.79456,-22.52285],[-55.79506,-22.52295],[-55.79589,-22.52298],[-55.79668,-22.52322],[-55.79844,-22.5236],[-55.79872,-22.52359],[-55.79887,-22.52348],[-55.79921,-22.52342],[-55.79956,-22.52349],[-55.8,-22.52325]]}},{"type":"Feature","properties":{"nome":"","tipo":"Córrego"},"geometry":{"type":"LineString","coordinates":[[-55.7911,-22.51929],[-55.79192,-22.51952],[-55.79243,-22.51998],[-55.79331,-22.52016],[-55.79366,-22.52012],[-55.79429,-22.51985],[-55.79458,-22.51963],[-55.79558,-22.51927],[-55.79581,-22.51924],[-55.79653,-22.5189],[-55.79665,-22.51878]]}},{"type":"Feature","properties":{"nome":"","tipo":"Córrego"},"geometry":{"type":"LineString","coordinates":[[-55.79642,-22.51469],[-55.79615,-22.51513],[-55.7959,-22.51587],[-55.79568,-22.5161],[-55.79554,-22.51636],[-55.7955,-22.51684]]}},{"type":"Feature","properties":{"nome":"","tipo":"Córrego"},"geometry":{"type":"LineString","coordinates":[[-55.79089,-22.51604],[-55.79106,-22.51589],[-55.79159,-22.51569],[-55.79196,-22.51534],[-55.79236,-22.51536],[-55.79256,-22.51532]]}},{"type":"Feature","properties":{"nome":"","tipo":"Córrego"},"geometry":{"type":"LineString","coordinates":[[-55.7939,-22.5757],[-55.79452,-22.57573],[-55.79491,-22.57568],[-55.79565,-22.57548],[-55.79596,-22.57544],[-55.79645,-22.57556],[-55.79713,-22.57549],[-55.79734,-22.5755],[-55.79752,-22.57556],[-55.79793,-22.5755],[-55.7986,-22.57567],[-55.79912,-22.57563],[-55.79933,-22.57568],[-55.8,-22.57566]]}},{"type":"Feature","properties":{"nome":"","tipo":"Córrego"},"geometry":{"type":"LineString","coordinates":[[-55.7951,-22.57784],[-55.79505,-22.57765],[-55.79517,-22.57738],[-55.79556,-22.57719],[-55.79618,-22.5768],[-55.79666,-22.57676],[-55.79681,-22.57668],[-55.79747,-22.57648],[-55.798,-22.57602],[-55.79822,-22.5759],[-55.79832,-22.57558]]}},{"type":"Feature","properties":{"nome":"","tipo":"Córrego"},"geometry":{"type":"MultiLineString","coordinates":[[[-55.79998,-22.58239],[-55.8,-22.58228]],[[-55.8,-22.58179],[-55.79996,-22.58132],[-55.8,-22.58093]]]}},{"type":"Feature","properties":{"nome":"","tipo":"Córrego"},"geometry":{"type":"LineString","coordinates":[[-55.79929,-22.57843],[-55.8,-22.57806]]}},{"type":"Feature","properties":{"nome":"","tipo":"Córrego"},"geometry":{"type":"LineString","coordinates":[[-55.79453,-22.58027],[-55.79484,-22.57983],[-55.79517,-22.57915],[-55.79538,-22.57889],[-55.79553,-22.57841],[-55.79568,-22.57833],[-55.79605,-22.57833],[-55.79616,-22.57824],[-55.79626,-22.57803],[-55.79631,-22.57763],[-55.79651,-22.57715],[-55.79677,-22.57682],[-55.79681,-22.57668]]}},{"type":"Feature","properties":{"nome":"","tipo":"Córrego"},"geometry":{"type":"LineString","coordinates":[[-55.76278,-22.59671],[-55.76286,-22.59681],[-55.76302,-22.59685],[-55.76322,-22.59714],[-55.76305,-22.59741],[-55.7629,-22.59788]]}},{"type":"Feature","properties":{"nome":"","tipo":"Córrego"},"geometry":{"type":"LineString","coordinates":[[-55.73225,-22.58119],[-55.73213,-22.58166],[-55.73213,-22.582],[-55.73201,-22.58282],[-55.73177,-22.58352],[-55.73177,-22.58476],[-55.7317,-22.58498]]}},{"type":"Feature","properties":{"nome":"","tipo":"Córrego"},"geometry":{"type":"LineString","coordinates":[[-55.75058,-22.50281],[-55.75154,-22.50274],[-55.75173,-22.50266]]}},{"type":"Feature","properties":{"nome":"","tipo":"Córrego"},"geometry":{"type":"LineString","coordinates":[[-55.70588,-22.5803],[-55.70621,-22.5803],[-55.70655,-22.58041],[-55.7068,-22.58055],[-55.70724,-22.58047],[-55.70767,-22.58032],[-55.70806,-22.57998],[-55.70824,-22.58004],[-55.70836,-22.58003],[-55.70871,-22.5798],[-55.70887,-22.57975],[-55.70924,-22.57948],[-55.70947,-22.57943],[-55.70976,-22.57927],[-55.71035,-22.5785],[-55.71055,-22.57838]]}},{"type":"Feature","properties":{"nome":"","tipo":"Córrego"},"geometry":{"type":"LineString","coordinates":[[-55.70289,-22.5706],[-55.70296,-22.57074],[-55.70346,-22.57102],[-55.70352,-22.57137],[-55.70364,-22.57146],[-55.70446,-22.57168],[-55.70468,-22.57178]]}}]}