{"type":"FeatureCollection","name":"lagos","crs":{"type":"name","properties":{"name":"urn:ogc:def:crs:OGC:1.3:CRS84"}},"features":[{"type":"Feature","properties":{"featurecla":"Lake","scalerank":9,"name":null,"name_abb":null,"name_alt":null,"note":"_untitled_7","delta":null,"dam_name":null,"year":-99,"admin":null,"min_zoom":7.0,"min_label":8.0,"label":null,"wikidataid":null,"name_ar":null,"name_bn":null,"name_de":null,"name_en":null,"name_es":null,"name_fr":null,"name_el":null,"name_hi":null,"name_hu":null,"name_id":null,"name_it":null,"name_ja":null,"name_ko":null,"name_nl":null,"name_pl":null,"name_pt":null,"name_ru":null,"name_sv":null,"name_tr":null,"name_vi":null,"name_zh":null,"ne_id":1159122863,"name_fa":null,"name_he":null,"name_uk":null,"name_ur":null,"name_zht":null},"geometry":{"type":"MultiPolygon","coordinates":[[[[-54.998842,-25.343166],[-54.97235,-25.344049],[-54.955571,-25.357295],[-54.956012,-25.364654],[-54.959986,-25.373485],[-54.965579,-25.381727],[-54.971172,-25.387026],[-54.982505,-25.391736],[-54.989128,-25.389381],[-54.995457,-25.383788],[-55.005171,-25.378784],[-55.017682,-25.379667],[-55.029162,-25.385849],[-55.040053,-25.393796],[-55.051386,-25.399389],[-55.044763,-25.391147],[-55.041819,-25.381139],[-55.04285,-25.370247],[-55.048148,-25.360828],[-55.059334,-25.354352],[-55.071403,-25.355823],[-55.095541,-25.367304],[-55.079645,-25.340516],[-55.071403,-25.331097],[-55.067724,-25.326093],[-55.066252,-25.3205],[-55.070373,-25.30637],[-55.081411,-25.307253],[-55.107463,-25.319028],[-55.119532,-25.318145],[-55.132189,-25.315496],[-55.144405,-25.314612],[-55.15618,-25.318145],[-55.164128,-25.327859],[-55.172223,-25.354057],[-55.180023,-25.365832],[-55.180465,-25.337573],[-55.181937,-25.328742],[-55.185322,-25.319322],[-55.190032,-25.316379],[-55.196949,-25.316379],[-55.206958,-25.314907],[-55.222265,-25.305782],[-55.231684,-25.291652],[-55.24655,-25.259861],[-55.259502,-25.248086],[-55.276428,-25.242493],[-55.294237,-25.243082],[-55.310132,-25.249852],[-55.317197,-25.256034],[-55.362235,-25.321972],[-55.367239,-25.324621],[-55.407714,-25.33875],[-55.424346,-25.340516],[-55.482777,-25.335512],[-55.503382,-25.331686],[-55.518689,-25.33198],[-55.525901,-25.331097],[-55.53326,-25.327564],[-55.538265,-25.32256],[-55.541797,-25.31785],[-55.545477,-25.313729],[-55.551217,-25.310786],[-55.5599,-25.309608],[-55.589631,-25.309314],[-55.561961,-25.299894],[-55.563433,-25.293713],[-55.56255,-25.282232],[-55.56358,-25.276345],[-55.566082,-25.271047],[-55.569614,-25.267809],[-55.578445,-25.261627],[-55.588306,-25.251324],[-55.591986,-25.24838],[-55.597726,-25.245731],[-55.616418,-25.241904],[-55.609206,-25.229247],[-55.60067,-25.182737],[-55.59699,-25.191274],[-55.588895,-25.226892],[-55.58551,-25.233662],[-55.580506,-25.240138],[-55.553719,-25.266042],[-55.530317,-25.295773],[-55.526932,-25.304604],[-55.516776,-25.308136],[-55.42567,-25.31108],[-55.39697,-25.304015],[-55.371213,-25.289886],[-55.350607,-25.268986],[-55.345015,-25.259861],[-55.339716,-25.24838],[-55.337803,-25.240138],[-55.338539,-25.233662],[-55.343396,-25.229836],[-55.353257,-25.23013],[-55.363559,-25.235428],[-55.380485,-25.252207],[-55.39123,-25.256917],[-55.398442,-25.256034],[-55.432293,-25.242493],[-55.4398,-25.237195],[-55.446129,-25.231307],[-55.450838,-25.224243],[-55.440977,-25.229541],[-55.422874,-25.231602],[-55.391671,-25.231307],[-55.407567,-25.198044],[-55.386226,-25.208347],[-55.360321,-25.209524],[-55.333829,-25.208053],[-55.310427,-25.209524],[-55.283198,-25.214234],[-55.269069,-25.213351],[-55.263034,-25.206286],[-55.269216,-25.201577],[-55.282462,-25.183915],[-55.291293,-25.177144],[-55.320877,-25.166842],[-55.327058,-25.162132],[-55.333682,-25.151535],[-55.338539,-25.145647],[-55.346339,-25.141526],[-55.365178,-25.138288],[-55.374451,-25.135345],[-55.381957,-25.130046],[-55.387256,-25.123864],[-55.396087,-25.109146],[-55.40168,-25.10267],[-55.40742,-25.099138],[-55.433471,-25.092073],[-55.438622,-25.087952],[-55.444951,-25.069996],[-55.448484,-25.062931],[-55.463496,-25.044975],[-55.503088,-25.009062],[-55.48837,-25.019954],[-55.453929,-25.038793],[-55.425965,-25.061165],[-55.403299,-25.073823],[-55.383429,-25.092073],[-55.370183,-25.100315],[-55.342365,-25.111501],[-55.32956,-25.120626],[-55.298211,-25.151535],[-55.27996,-25.164781],[-55.249346,-25.180088],[-55.244342,-25.184209],[-55.240074,-25.189213],[-55.236983,-25.195689],[-55.233892,-25.208936],[-55.230801,-25.216295],[-55.224178,-25.224537],[-55.215494,-25.231602],[-55.196949,-25.243376],[-55.17134,-25.266925],[-55.161037,-25.27193],[-55.137193,-25.279877],[-55.124389,-25.282821],[-55.11335,-25.282232],[-55.114233,-25.272518],[-55.119679,-25.252502],[-55.120268,-25.242199],[-55.113939,-25.248086],[-55.104372,-25.26251],[-55.09819,-25.268986],[-55.090242,-25.27399],[-55.082295,-25.276345],[-55.065221,-25.279289],[-55.051239,-25.284587],[-55.043291,-25.293418],[-55.039465,-25.304604],[-55.037698,-25.318439],[-55.024305,-25.339928],[-54.998842,-25.343166]]]]}},{"type":"Feature","properties":{"featurecla":"Reservoir","scalerank":5,"name":"Represa Itaipu","name_abb":"Rs. Itaipu","name_alt":null,"note":null,"delta":null,"dam_name":"Itaipu","year":1984,"admin":"admin-0 more","min_zoom":4.7,"min_label":6.0,"label":"Represa Itaipu","wikidataid":"Q10315670","name_ar":"ريبريسا إيتايبو","name_bn":"রেপ্রেসা ইটাইপো","name_de":"Itaipu-Stausee","name_en":"Itaipu","name_es":"Presa de Itapú","name_fr":"Barrage d'Itaipu","name_el":"τεχνητή λίμνη Ιταϊπού","name_hi":"रेप्रेसा इताइपु","name_hu":"Represa Itaipu","name_id":"Reservoir Itaipu","name_it":"Diga di Itaipú","name_ja":"レプレーザ・イタイプ","name_ko":"레프레사 이타이푸","name_nl":"Itaipudam","name_pl":"Zbiornik Itaipu","name_pt":"Itaipu","name_ru":"водохранилище Лагоа-ди-Итайпу","name_sv":"Itaipu","name_tr":"Represa Itaipu","name_vi":"Hồ Itaipu","name_zh":"伊泰普水库","ne_id":1159125135,"name_fa":"رپرسا ایتائیپو","name_he":"סכר איטאיפו","name_uk":"Репреса-Ітайпу","name_ur":"ریپریسا لیپے","name_zht":"伊泰普水庫"},"geometry":{"type":"MultiPolygon","coordinates":[[[[-54.283923,-24.067405],[-54.283859,-24.067474],[-54.28125,-24.071745],[-54.280464,-24.074986],[-54.28054,-24.077671],[-54.282043,-24.080259],[-54.283623,-24.082973],[-54.290245,-24.089272],[-54.300476,-24.098701],[-54.309792,-24.106812],[-54.317036,-24.114162],[-54.32246,-24.119411],[-54.324383,-24.121683],[-54.325798,-24.123362],[-54.327988,-24.128147],[-54.329346,-24.134567],[-54.330441,-24.142069],[-54.33062,-24.148249],[-54.328064,-24.161215],[-54.326508,-24.16824],[-54.325756,-24.171234],[-54.324406,-24.176624],[-54.324688,-24.186296],[-54.325932,-24.198902],[-54.327057,-24.206035],[-54.327374,-24.208042],[-54.329357,-24.216026],[-54.329247,-24.22135],[-54.329235,-24.221945],[-54.32822,-24.227345],[-54.327518,-24.233543],[-54.32563,-24.239239],[-54.323589,-24.242212],[-54.32338,-24.242517],[-54.318226,-24.246944],[-54.31142,-24.252258],[-54.309887,-24.253551],[-54.29961,-24.262712],[-54.292187,-24.26988],[-54.285057,-24.277039],[-54.278271,-24.286074],[-54.274139,-24.295586],[-54.271744,-24.300575],[-54.264992,-24.314619],[-54.260681,-24.328165],[-54.259434,-24.335993],[-54.258633,-24.349186],[-54.258728,-24.350935],[-54.258965,-24.355301],[-54.25919,-24.359388],[-54.259247,-24.360464],[-54.262444,-24.374458],[-54.266655,-24.383415],[-54.273744,-24.397287],[-54.276295,-24.402279],[-54.285225,-24.416586],[-54.289505,-24.4224],[-54.294647,-24.428129],[-54.294827,-24.42833],[-54.298004,-24.431877],[-54.304146,-24.441145],[-54.309078,-24.449091],[-54.315456,-24.4562],[-54.32069,-24.464413],[-54.325035,-24.472376],[-54.328514,-24.480898],[-54.328609,-24.481124],[-54.330555,-24.485764],[-54.33231,-24.489946],[-54.335274,-24.500902],[-54.335964,-24.505478],[-54.336658,-24.510094],[-54.336639,-24.510546],[-54.3377,-24.523701],[-54.338112,-24.537947],[-54.337814,-24.547903],[-54.337151,-24.55545],[-54.33532,-24.563293],[-54.334404,-24.572189],[-54.333462,-24.58028],[-54.332542,-24.589178],[-54.331947,-24.598505],[-54.331532,-24.605068],[-54.330601,-24.613428],[-54.330601,-24.62365],[-54.332584,-24.631132],[-54.334034,-24.640511],[-54.335091,-24.646402],[-54.338005,-24.655479],[-54.339325,-24.659407],[-54.348137,-24.685658],[-54.349293,-24.689095],[-54.355583,-24.704374],[-54.357853,-24.709867],[-54.360573,-24.722174],[-54.363178,-24.730717],[-54.366734,-24.74139],[-54.371189,-24.752579],[-54.374336,-24.759582],[-54.374657,-24.760296],[-54.3759,-24.763313],[-54.377834,-24.768019],[-54.381622,-24.776535],[-54.386002,-24.785036],[-54.38855,-24.79143],[-54.39135,-24.796473],[-54.39343,-24.802116],[-54.397442,-24.813],[-54.404533,-24.833269],[-54.411526,-24.859999],[-54.413689,-24.867701],[-54.415915,-24.875631],[-54.416477,-24.877632],[-54.420494,-24.893677],[-54.423134,-24.905611],[-54.423351,-24.90659],[-54.424934,-24.91374],[-54.428909,-24.928169],[-54.434086,-24.943377],[-54.438025,-24.958138],[-54.44228,-24.974085],[-54.443073,-24.977051],[-54.448711,-24.997156],[-54.453335,-25.013655],[-54.457039,-25.028629],[-54.45916,-25.038429],[-54.459282,-25.038984],[-54.459457,-25.039799],[-54.461849,-25.05084],[-54.462061,-25.05228],[-54.462601,-25.055941],[-54.462959,-25.058371],[-54.464203,-25.066816],[-54.464455,-25.068535],[-54.464985,-25.076323],[-54.46405,-25.084419],[-54.461901,-25.093823],[-54.4617,-25.0947],[-54.459594,-25.101889],[-54.459557,-25.102018],[-54.457966,-25.107977],[-54.453468,-25.115622],[-54.448105,-25.124098],[-54.439087,-25.138851],[-54.436279,-25.143764],[-54.435867,-25.149694],[-54.436012,-25.154533],[-54.439186,-25.16172],[-54.443132,-25.167868],[-54.446327,-25.172848],[-54.446449,-25.173058],[-54.452877,-25.183985],[-54.456657,-25.190117],[-54.459412,-25.194584],[-54.464226,-25.202772],[-54.465336,-25.20466],[-54.468273,-25.209759],[-54.469926,-25.212623],[-54.469967,-25.212694],[-54.472523,-25.217129],[-54.47501,-25.221712],[-54.477856,-25.226952],[-54.479897,-25.231727],[-54.482635,-25.238134],[-54.483139,-25.239418],[-54.486809,-25.248793],[-54.49295,-25.265593],[-54.495975,-25.277357],[-54.500095,-25.286135],[-54.50478,-25.294088],[-54.510109,-25.30364],[-54.517544,-25.314217],[-54.520027,-25.317671],[-54.525902,-25.325846],[-54.530262,-25.332848],[-54.531513,-25.334852],[-54.532917,-25.336636],[-54.544163,-25.350945],[-54.54491,-25.35181],[-54.545443,-25.352426],[-54.550312,-25.358055],[-54.557053,-25.36515],[-54.562847,-25.370384],[-54.569012,-25.378031],[-54.574547,-25.384348],[-54.578262,-25.389364],[-54.582035,-25.396267],[-54.586472,-25.405302],[-54.589714,-25.414097],[-54.59293,-25.422089],[-54.597439,-25.428486],[-54.598518,-25.430017],[-54.600232,-25.433409],[-54.645458,-25.424999],[-54.642662,-25.407631],[-54.641779,-25.391147],[-54.638982,-25.375251],[-54.610134,-25.330802],[-54.607044,-25.324032],[-54.606896,-25.31785],[-54.609987,-25.312258],[-54.637363,-25.292241],[-54.656791,-25.282821],[-54.666358,-25.276934],[-54.671657,-25.269575],[-54.655319,-25.269869],[-54.596741,-25.283704],[-54.586438,-25.284293],[-54.576724,-25.281938],[-54.56598,-25.275756],[-54.55656,-25.268692],[-54.547729,-25.259861],[-54.5414,-25.249558],[-54.539634,-25.238078],[-54.544638,-25.222771],[-54.544491,-25.217472],[-54.5414,-25.211879],[-54.535955,-25.208347],[-54.529626,-25.206581],[-54.52315,-25.205403],[-54.525505,-25.195984],[-54.524769,-25.188919],[-54.520795,-25.183032],[-54.505046,-25.171846],[-54.489887,-25.158305],[-54.484147,-25.150652],[-54.490181,-25.148885],[-54.512553,-25.135933],[-54.51741,-25.133873],[-54.522708,-25.132401],[-54.529332,-25.131518],[-54.581728,-25.135639],[-54.599096,-25.13505],[-54.590854,-25.128574],[-54.571131,-25.117977],[-54.564508,-25.110029],[-54.563625,-25.10267],[-54.567746,-25.09796],[-54.574516,-25.095017],[-54.618818,-25.088541],[-54.637658,-25.088835],[-54.655908,-25.093251],[-54.678574,-25.102965],[-54.691968,-25.106497],[-54.70124,-25.103848],[-54.703006,-25.098844],[-54.702418,-25.08648],[-54.705214,-25.080887],[-54.713015,-25.076766],[-54.72317,-25.076766],[-54.79058,-25.086775],[-54.784251,-25.077944],[-54.777628,-25.07029],[-54.769974,-25.06352],[-54.719196,-25.036438],[-54.701093,-25.019365],[-54.694323,-25.015833],[-54.686816,-25.016127],[-54.679752,-25.01966],[-54.66783,-25.030257],[-54.659735,-25.035555],[-54.651051,-25.038205],[-54.641779,-25.038793],[-54.608957,-25.034378],[-54.601598,-25.034672],[-54.598066,-25.03585],[-54.520059,-25.069113],[-54.510345,-25.069996],[-54.521384,-25.039088],[-54.522267,-25.02849],[-54.517999,-25.009946],[-54.48974,-24.959021],[-54.485913,-24.948129],[-54.485618,-24.938709],[-54.490034,-24.93135],[-54.500337,-24.926641],[-54.527565,-24.923697],[-54.603217,-24.905446],[-54.62603,-24.903091],[-54.686375,-24.905152],[-54.709777,-24.901325],[-54.732443,-24.894555],[-54.76026,-24.889256],[-54.848128,-24.891317],[-54.843418,-24.88543],[-54.837531,-24.881603],[-54.746425,-24.853638],[-54.739066,-24.852461],[-54.729352,-24.853344],[-54.719344,-24.855993],[-54.710513,-24.860997],[-54.704184,-24.868062],[-54.700946,-24.877482],[-54.698444,-24.880425],[-54.695794,-24.882192],[-54.692556,-24.884252],[-54.685933,-24.886901],[-54.675336,-24.888373],[-54.558032,-24.873949],[-54.48503,-24.884546],[-54.463836,-24.883958],[-54.461481,-24.823024],[-54.455741,-24.809484],[-54.44691,-24.797415],[-54.441758,-24.785051],[-54.44691,-24.772394],[-54.464571,-24.759442],[-54.48503,-24.752671],[-54.528154,-24.744135],[-54.628385,-24.71146],[-54.517115,-24.709105],[-54.441611,-24.717348],[-54.428806,-24.716465],[-54.421741,-24.714404],[-54.41556,-24.711755],[-54.391275,-24.694387],[-54.386859,-24.6885],[-54.384652,-24.681141],[-54.382738,-24.657297],[-54.379795,-24.649055],[-54.371847,-24.634631],[-54.369197,-24.626978],[-54.36905,-24.618736],[-54.373319,-24.597541],[-54.375821,-24.591065],[-54.383327,-24.58194],[-54.394071,-24.575758],[-54.475463,-24.555153],[-54.457654,-24.550443],[-54.38892,-24.543084],[-54.381266,-24.540729],[-54.376851,-24.537197],[-54.376262,-24.531898],[-54.379795,-24.520418],[-54.379795,-24.514531],[-54.377292,-24.508938],[-54.374202,-24.503934],[-54.371847,-24.498929],[-54.371405,-24.492748],[-54.373171,-24.485094],[-54.384357,-24.464489],[-54.389214,-24.445944],[-54.392747,-24.440351],[-54.437343,-24.404733],[-54.398781,-24.414153],[-54.345354,-24.435347],[-54.340497,-24.435052],[-54.338142,-24.432992],[-54.336817,-24.429459],[-54.334757,-24.422983],[-54.322835,-24.400023],[-54.317684,-24.375591],[-54.31474,-24.36882],[-54.309,-24.36205],[-54.297225,-24.351453],[-54.293104,-24.345271],[-54.29281,-24.337912],[-54.295754,-24.332025],[-54.324307,-24.298467],[-54.327986,-24.292286],[-54.330194,-24.285515],[-54.332991,-24.272269],[-54.335198,-24.265793],[-54.344618,-24.253135],[-54.358159,-24.243127],[-54.388478,-24.229881],[-54.368314,-24.216929],[-54.359189,-24.208686],[-54.352566,-24.199267],[-54.350211,-24.186903],[-54.353155,-24.175718],[-54.364193,-24.154229],[-54.365665,-24.143043],[-54.362133,-24.133329],[-54.327103,-24.084759],[-54.317389,-24.077106],[-54.307823,-24.071807],[-54.296931,-24.067686],[-54.286226,-24.064869],[-54.283923,-24.067405]]]]}}]}