{
"type": "FeatureCollection",
"name": "rios",
"crs": { "type": "name", "properties": { "name": "urn:ogc:def:crs:OGC:1.3:CRS84" } },
"features": [
{ "type": "Feature", "properties": { "dissolve": "1032River", "scalerank": 9, "featurecla": "River", "name": "Verde", "name_alt": null, "rivernum": 1032, "note": null, "min_zoom": 7.1, "name_en": "Río Verde", "min_label": 8.1, "ne_id": 1159109965, "label": "Verde", "wikidataid": "Q21791781", "name_ar": "فيردي", "name_bn": "ভার্দে", "name_de": "Verde River", "name_es": "Verde", "name_fr": "Verde", "name_el": "Βέρντε", "name_hi": "वर्डे", "name_hu": "Verde", "name_id": "Verde", "name_it": "Verde", "name_ja": "ベルデ川", "name_ko": "베르드", "name_nl": "Verde", "name_pl": "Verde", "name_pt": "Verde", "name_ru": "река Риу-Верде", "name_sv": "Verde", "name_tr": "Verde", "name_vi": "Sông Verde", "name_zh": "佛得角河", "name_fa": "ورده", "name_he": "וֶרְדֶה", "name_uk": "Верде", "name_ur": "وردے", "name_zht": "維德河" }, "geometry": { "type": "MultiLineString", "coordinates": [ [ [ -61.8798828125, -22.310088800005886 ], [ -61.872607421874989, -22.320635675005889 ], [ -61.864599609374991, -22.326495050005889 ], [ -61.845751953124989, -22.336748956255889 ], [ -61.815039062499991, -22.36785247188088 ], [ -61.807543945312489, -22.377959893755886 ], [ -61.799658203124991, -22.40007903438088 ], [ -61.7939453125, -22.40911223750588 ], [ -61.738427734374994, -22.45598723750588 ], [ -61.727465820312489, -22.470245050005886 ], [ -61.722827148437489, -22.483916925005886 ], [ -61.647143554687489, -22.49382903438088 ], [ -61.582446289062489, -22.509307550005886 ], [ -61.5517578125, -22.52825286250588 ], [ -61.532324218749991, -22.53118255000588 ], [ -61.510986328125, -22.53191497188088 ], [ -61.488867187499991, -22.535479425005889 ], [ -61.429443359375, -22.55999114375588 ], [ -61.366064453124991, -22.56682708125588 ], [ -61.347998046874991, -22.570830987505886 ], [ -61.331787109375, -22.57634856563088 ], [ -61.301074218749989, -22.593780206255886 ], [ -61.251660156249997, -22.628936456255886 ], [ -61.235522460937489, -22.635284112505886 ], [ -61.215136718749989, -22.638506768755889 ], [ -61.164160156249991, -22.63689544063088 ], [ -61.128588867187489, -22.64031340938088 ], [ -61.123217773437489, -22.64251067500588 ], [ -61.109545898437489, -22.655303643755886 ], [ -61.104541015624989, -22.658721612505886 ], [ -61.100927734374991, -22.65618255000588 ], [ -61.098437499999989, -22.645342706255889 ], [ -61.08349609375, -22.65422942500588 ], [ -61.078540039062489, -22.65886809688088 ], [ -61.061572265624989, -22.65154387813088 ], [ -61.034033203124991, -22.653155206255889 ], [ -60.971240234374989, -22.66790130000588 ], [ -60.951025390624991, -22.668975518755886 ], [ -60.940771484374991, -22.67253997188088 ], [ -60.933300781249997, -22.679034112505889 ], [ -60.917163085937489, -22.69841887813088 ], [ -60.907275390624989, -22.707354425005889 ], [ -60.887988281249989, -22.718584893755889 ], [ -60.867968749999989, -22.725616143755886 ], [ -60.846972656249989, -22.72869231563088 ], [ -60.82470703125, -22.727862237505889 ], [ -60.8193359375, -22.72503020625588 ], [ -60.817578125, -22.72014739375588 ], [ -60.815185546875, -22.71550872188088 ], [ -60.807666015624989, -22.71355559688088 ], [ -60.801367187499991, -22.71526458125588 ], [ -60.76220703125, -22.743682550005886 ], [ -60.75439453125, -22.75237395625588 ], [ -60.7490234375, -22.762041925005889 ], [ -60.729199218749997, -22.75847747188088 ], [ -60.710498046874989, -22.776202081255889 ], [ -60.691455078124989, -22.798663018755889 ], [ -60.670458984374989, -22.80974700313088 ], [ -60.62646484375, -22.81194426875588 ], [ -60.608496093749991, -22.81804778438088 ], [ -60.502685546875, -22.87590911250588 ], [ -60.492285156249991, -22.877959893755886 ], [ -60.459765624999989, -22.87639739375588 ], [ -60.447314453124989, -22.877959893755886 ], [ -60.389990234374991, -22.896514581255886 ], [ -60.368823242187489, -22.89910247188088 ], [ -60.348803710937489, -22.89470794063088 ], [ -60.30810546875, -22.875518487505886 ], [ -60.283496093749989, -22.871905206255889 ], [ -60.263110351562489, -22.875030206255886 ], [ -60.242919921875, -22.88250090938088 ], [ -60.223193359374989, -22.89397551875588 ], [ -60.204345703125, -22.90911223750588 ], [ -60.190185546875, -22.916534112505886 ], [ -60.10791015625, -22.93010833125588 ], [ -60.09423828125, -22.934405206255889 ], [ -60.0810546875, -22.941436456255886 ], [ -60.064379882812489, -22.95378997188088 ], [ -60.05625, -22.94841887813088 ], [ -60.048876953124989, -22.95403411250588 ], [ -60.039721679687489, -22.96282317500588 ], [ -60.026220703124991, -22.96746184688088 ], [ -60.017675781249991, -22.957061456255886 ], [ -60.011816406249991, -22.952959893755889 ], [ -60.009130859374991, -22.95745208125588 ], [ -59.981787109374991, -22.981768487505889 ], [ -59.937304687499989, -23.00432708125588 ], [ -59.919921875, -23.02019622188088 ], [ -59.912939453124991, -23.045928643755886 ], [ -59.837988281249991, -23.046416925005886 ], [ -59.721118164062489, -23.09099700313088 ], [ -59.70263671875, -23.08904387813088 ], [ -59.695166015624991, -23.08709075313088 ], [ -59.68701171875, -23.083526300005886 ], [ -59.680712890624989, -23.078448175005889 ], [ -59.670703124999989, -23.06560637813088 ], [ -59.66650390625, -23.06292083125588 ], [ -59.649755859374991, -23.066729425005889 ], [ -59.620214843749991, -23.08635833125588 ], [ -59.601367187499989, -23.09099700313088 ], [ -59.567236328124991, -23.09343840938088 ], [ -59.545751953124991, -23.098467706255889 ], [ -59.5361328125, -23.107745050005889 ], [ -59.528613281249989, -23.119170831255886 ], [ -59.512060546874991, -23.119463800005889 ], [ -59.495654296874989, -23.111358331255886 ], [ -59.488378906249991, -23.09710051875588 ], [ -59.483837890624997, -23.09807708125588 ], [ -59.48095703125, -23.099151300005886 ], [ -59.478369140624991, -23.101104425005886 ], [ -59.474707031249991, -23.104522393755886 ], [ -59.475341796875, -23.09392669063088 ], [ -59.474707031249991, -23.09099700313088 ], [ -59.446337890624989, -23.107745050005889 ], [ -59.417285156249989, -23.130401300005886 ], [ -59.387792968749991, -23.14544036250588 ], [ -59.358007812499991, -23.138702081255886 ], [ -59.352294921875, -23.150909112505886 ], [ -59.343017578125, -23.15105559688088 ], [ -59.330981445312489, -23.14837005000588 ], [ -59.317065429687489, -23.152373956255886 ], [ -59.310229492187489, -23.145538018755886 ], [ -59.297412109374989, -23.158721612505886 ], [ -59.278369140624989, -23.17205169063088 ], [ -59.258959960937489, -23.182452081255889 ], [ -59.227587890624989, -23.190752862505889 ], [ -59.198535156249989, -23.209502862505886 ], [ -59.179931640625, -23.21379973750588 ], [ -59.17041015625, -23.211944268755886 ], [ -59.158300781249991, -23.20281340938088 ], [ -59.149169921875, -23.20086028438088 ], [ -59.139453124999989, -23.20281340938088 ], [ -59.117602539062489, -23.21184661250588 ], [ -59.108203124999989, -23.21379973750588 ], [ -59.08837890625, -23.21062590938088 ], [ -59.047558593749997, -23.19646575313088 ], [ -59.025634765625, -23.193389581255886 ], [ -59.015380859375, -23.18840911250588 ], [ -59.002124023437489, -23.17864348750588 ], [ -58.986083984375, -23.17107512813088 ], [ -58.967626953124991, -23.17278411250588 ], [ -58.966650390624991, -23.17669036250588 ], [ -58.955419921874991, -23.197295831255886 ], [ -58.950537109374991, -23.203936456255889 ], [ -58.916357421874991, -23.22747161250588 ], [ -58.897021484374989, -23.22551848750588 ], [ -58.864355468749991, -23.216631768755889 ], [ -58.844091796874991, -23.21379973750588 ], [ -58.821240234374997, -23.21331145625588 ], [ -58.802587890624991, -23.21526458125588 ], [ -58.791015625, -23.22185637813088 ], [ -58.789477539062489, -23.234893487505886 ], [ -58.771484375, -23.237139581255889 ], [ -58.743896484375, -23.246416925005889 ], [ -58.722753906249991, -23.25066497188088 ], [ -58.720947265625, -23.255205987505889 ], [ -58.719775390624989, -23.25969817500588 ], [ -58.713720703124991, -23.26165130000588 ], [ -58.705737304687489, -23.25969817500588 ], [ -58.686450195312489, -23.248565362505886 ], [ -58.633398437499991, -23.249053643755886 ], [ -58.625, -23.251788018755889 ], [ -58.620703125, -23.267901300005889 ], [ -58.601904296874991, -23.290362237505889 ], [ -58.597705078124989, -23.299834893755886 ], [ -58.591113281249989, -23.307159112505886 ], [ -58.575610351562489, -23.31170012813088 ], [ -58.543066406249991, -23.31682708125588 ], [ -58.528173828124991, -23.31267669063088 ], [ -58.519140625, -23.31292083125588 ], [ -58.51513671875, -23.32024505000588 ], [ -58.509814453124989, -23.326202081255886 ], [ -58.486328125, -23.33123137813088 ], [ -58.42578125, -23.358428643755886 ], [ -58.409472656249989, -23.35955169063088 ], [ -58.393359374999989, -23.35686614375588 ], [ -58.379980468749991, -23.34954192500588 ], [ -58.371777343749997, -23.33733489375588 ], [ -58.32958984375, -23.35881926875588 ], [ -58.310717773437489, -23.359893487505886 ], [ -58.302832031249991, -23.34099700313088 ], [ -58.290209960937489, -23.328936456255889 ], [ -58.26171875, -23.332842706255889 ], [ -58.231494140624989, -23.34514739375588 ], [ -58.213476562499991, -23.358428643755886 ], [ -58.205908203124991, -23.35222747188088 ], [ -58.197998046875, -23.348467706255889 ], [ -58.1669921875, -23.343291925005886 ], [ -58.16171875, -23.344073175005889 ], [ -58.156665039062489, -23.34661223750588 ], [ -58.145190429687489, -23.35100676875588 ], [ -58.136279296874989, -23.355010675005886 ], [ -58.129687499999989, -23.35955169063088 ], [ -58.122314453125, -23.363116143755889 ], [ -58.111083984375, -23.36467864375588 ], [ -58.090185546874991, -23.35320403438088 ], [ -58.080322265625, -23.35100676875588 ], [ -58.053808593749991, -23.335772393755889 ], [ -58.031347656249991, -23.305205987505886 ], [ -58.006762695312489, -23.28215911250588 ], [ -57.973876953125, -23.28948333125588 ], [ -57.955517578124997, -23.27263762813088 ], [ -57.940039062499991, -23.262725518755886 ], [ -57.898779296874991, -23.248565362505886 ], [ -57.874853515624991, -23.243194268755886 ], [ -57.865527343749989, -23.237627862505889 ], [ -57.864013671875, -23.22747161250588 ], [ -57.870458984374991, -23.22087981563088 ], [ -57.891162109374989, -23.217315362505886 ], [ -57.898779296874991, -23.20696380000588 ], [ -57.867529296874991, -23.20159270625588 ], [ -57.852148437499991, -23.202178643755886 ], [ -57.836718749999989, -23.20696380000588 ], [ -57.825292968749991, -23.141924737505889 ], [ -57.81689453125, -23.125030206255886 ], [ -57.809741210937489, -23.12127044063088 ], [ -57.800537109375, -23.119952081255889 ], [ -57.792407226562489, -23.11687590938088 ], [ -57.786230468749991, -23.102080987505886 ], [ -57.768408203124991, -23.06975676875588 ], [ -57.788916015624991, -23.06340911250588 ], [ -57.804541015624991, -23.064483331255886 ], [ -57.815771484374991, -23.06145598750588 ], [ -57.823046874999989, -23.042510675005886 ], [ -57.823974609375, -23.02092864375588 ], [ -57.817065429687489, -23.010772393755886 ], [ -57.802905273437489, -23.007842706255886 ], [ -57.782080078124991, -23.00774505000588 ] ] ] } },
{ "type": "Feature", "properties": { "dissolve": "1125River", "scalerank": 9, "featurecla": "River", "name": "Jejuí Guazú", "name_alt": null, "rivernum": 1125, "note": null, "min_zoom": 7.1, "name_en": "Jejuí Guazú", "min_label": 8.1, "ne_id": 1159111501, "label": "Jejuí Guazú", "wikidataid": "Q6176576", "name_ar": "جيجوي غوازو", "name_bn": "জেজুই গুয়াজু", "name_de": "Rio Jejuí Guazú", "name_es": "Jejuí Guazú", "name_fr": "Río Jejuí Guazú", "name_el": "Χεχουί Γκουαζού", "name_hi": "जेजुई गुआज़ू", "name_hu": "Jejuí Guazú", "name_id": "Jejuí Guazú", "name_it": "Jejuí Guazú", "name_ja": "ヘフイ・グアズ川", "name_ko": "제주이 구아수", "name_nl": "Jejuí Guazú", "name_pl": "Jejuí Guazú", "name_pt": "Jejuí", "name_ru": "река Хехуи-Гуасу", "name_sv": "Jejuí Guazú", "name_tr": "Jejuí Guazú", "name_vi": "Sông Jejuí Guazú", "name_zh": "济州瓜苏河", "name_fa": "ججوی گوئازو", "name_he": "ג'ג'וי גואזו", "name_uk": "Хеху Гуазу", "name_ur": "جیجوئی گوازو", "name_zht": "賀會瓜蘇河" }, "geometry": { "type": "MultiLineString", "coordinates": [ [ [ -57.181982421874991, -24.14739348750588 ], [ -57.133959960937489, -24.14568450313088 ], [ -57.1171875, -24.14226653438088 ], [ -57.099609375, -24.13518645625588 ], [ -57.091967773437489, -24.128936456255886 ], [ -57.085986328124989, -24.12175872188088 ], [ -57.0791015625, -24.11516692500588 ], [ -57.068701171874991, -24.11174895625588 ], [ -57.050878906249991, -24.109893487505886 ], [ -56.953857421875, -24.08757903438088 ], [ -56.651782226562489, -24.07195403438088 ], [ -56.612719726562489, -24.063995050005886 ], [ -56.58251953125, -24.05291106563088 ], [ -56.551123046874991, -24.04876067500588 ], [ -56.508886718749991, -24.06243255000588 ], [ -56.448583984374991, -24.09026458125588 ], [ -56.324511718749989, -24.131182550005889 ], [ -56.192236328124991, -24.15886809688088 ], [ -56.171435546874989, -24.15715911250588 ], [ -56.15, -24.146319268755889 ], [ -56.114355468749991, -24.11492278438088 ], [ -56.09130859375, -24.10393645625588 ], [ -56.06787109375, -24.08928801875588 ], [ -56.028857421874989, -24.04290130000588 ], [ -56.004687499999989, -24.029131768755889 ], [ -55.989697265624997, -24.02898528438088 ], [ -55.972827148437489, -24.03337981563088 ], [ -55.929125976562489, -24.053741143755886 ], [ -55.916113281249991, -24.05559661250588 ], [ -55.888427734375, -24.05559661250588 ], [ -55.819433593749991, -24.07073333125588 ], [ -55.756445312499991, -24.102569268755886 ], [ -55.70263671875, -24.146807550005889 ], [ -55.661181640624989, -24.199248956255886 ], [ -55.660253906249991, -24.20354583125588 ], [ -55.66064453125, -24.20867278438088 ], [ -55.660327148437489, -24.214385675005886 ], [ -55.6572265625, -24.220733331255886 ], [ -55.6484375, -24.228350518755889 ], [ -55.615161132812489, -24.24431731563088 ], [ -55.603759765625, -24.25383880000588 ], [ -55.573046874999989, -24.28875090938088 ], [ -55.546679687499989, -24.306475518755889 ], [ -55.522216796875, -24.310088800005886 ], [ -55.497485351562489, -24.30974700313088 ], [ -55.47021484375, -24.315264581255889 ], [ -55.460205078125, -24.323272393755886 ], [ -55.454443359374991, -24.33367278438088 ], [ -55.447558593749989, -24.342608331255889 ], [ -55.434008789062489, -24.34612395625588 ], [ -55.409277343749991, -24.34710051875588 ], [ -55.385595703124991, -24.354034112505886 ], [ -55.365649414062489, -24.356475518755886 ], [ -55.251391601562489, -24.34368255000588 ], [ -55.234472656249991, -24.33709075313088 ], [ -55.150244140624991, -24.28655364375588 ], [ -55.132861328124989, -24.27996184688088 ], [ -55.092871093749991, -24.29680755000588 ], [ -55.067065429687489, -24.346221612505886 ], [ -55.0458984375, -24.40471770625588 ], [ -55.019824218749989, -24.44890715938088 ] ] ] } },
{ "type": "Feature", "properties": { "dissolve": "637River", "scalerank": 8, "featurecla": "River", "name": null, "name_alt": null, "rivernum": 637, "note": null, "min_zoom": 7.0, "name_en": null, "min_label": 8.0, "ne_id": 1159124065, "label": null, "wikidataid": null, "name_ar": null, "name_bn": null, "name_de": null, "name_es": null, "name_fr": null, "name_el": null, "name_hi": null, "name_hu": null, "name_id": null, "name_it": null, "name_ja": null, "name_ko": null, "name_nl": null, "name_pl": null, "name_pt": null, "name_ru": null, "name_sv": null, "name_tr": null, "name_vi": null, "name_zh": null, "name_fa": null, "name_he": null, "name_uk": null, "name_ur": null, "name_zht": null }, "geometry": { "type": "MultiLineString", "coordinates": [ [ [ -54.957446289062489, -25.35271575313088 ], [ -54.938891601562489, -25.34807708125588 ], [ -54.905371093749991, -25.349444268755889 ], [ -54.900146484375, -25.35051848750588 ], [ -54.884521484375, -25.355498956255886 ], [ -54.8779296875, -25.35613372188088 ], [ -54.858154296875, -25.35515715938088 ], [ -54.843994140625, -25.358721612505889 ], [ -54.831298828125, -25.36614348750588 ], [ -54.807226562499991, -25.384112237505889 ], [ -54.79375, -25.39080169063088 ], [ -54.780444335937489, -25.393877862505889 ], [ -54.766650390624989, -25.39421965938088 ], [ -54.751708984375, -25.392120050005886 ], [ -54.721435546875, -25.38298919063088 ], [ -54.706152343749991, -25.38225676875588 ], [ -54.692480468749991, -25.38982512813088 ], [ -54.688574218749991, -25.396514581255886 ], [ -54.686938476562489, -25.403155206255889 ], [ -54.684423828124991, -25.40862395625588 ], [ -54.678149414062489, -25.41228606563088 ], [ -54.670263671874991, -25.41277434688088 ], [ -54.661474609374991, -25.411163018755886 ], [ -54.653002929687489, -25.408233331255886 ], [ -54.64306640625, -25.40569426875588 ] ] ] } },
{ "type": "Feature", "properties": { "dissolve": "858River", "scalerank": 8, "featurecla": "River", "name": "Bermejo", "name_alt": null, "rivernum": 858, "note": null, "min_zoom": 7.0, "name_en": "Bermejo", "min_label": 8.0, "ne_id": 1159128167, "label": "Bermejo", "wikidataid": "Q270467", "name_ar": "برميخو", "name_bn": "বের্মেহো নদী", "name_de": "Bermejo", "name_es": "Bermejo", "name_fr": "Bermejo", "name_el": "Μπερμέχο", "name_hi": "बर्मेजो", "name_hu": "Bermejo", "name_id": "Bermejo", "name_it": "Bermejo", "name_ja": "ベルメホ川", "name_ko": "베르메호", "name_nl": "Bermejo", "name_pl": "Bermejo", "name_pt": "Bermejo", "name_ru": "Рио-Бермехо", "name_sv": "Bermejofloden", "name_tr": "Bermejo", "name_vi": "Bermejo", "name_zh": "貝爾梅霍河", "name_fa": "رود برمهو", "name_he": "ברמחו", "name_uk": "Бермехо", "name_ur": "برمیجو", "name_zht": "貝爾梅霍河" }, "geometry": { "type": "MultiLineString", "coordinates": [ [ [ -58.374341808632416, -26.87132324729119 ], [ -58.358081054687489, -26.880205987505889 ] ] ] } },
{ "type": "Feature", "properties": { "dissolve": "294River", "scalerank": 6, "featurecla": "River", "name": "Pilcomayo", "name_alt": null, "rivernum": 294, "note": null, "min_zoom": 5.0, "name_en": "Pilcomayo River", "min_label": 6.0, "ne_id": 1159116483, "label": "Pilcomayo", "wikidataid": "Q21806688", "name_ar": "بيلكومايو", "name_bn": "পিলকোমেয়ো", "name_de": "Río Pilcomayo", "name_es": "Pilcomayo", "name_fr": "Pilcomayo", "name_el": "Πιλκογάγιο", "name_hi": "पिलकोमायो", "name_hu": "Pilcomayo", "name_id": "Pilcomayo", "name_it": "Pilcomayo", "name_ja": "ピルコマジョ川", "name_ko": "필코마요", "name_nl": "Pilcomayo", "name_pl": "Pilcomayo", "name_pt": "Pilcomayo", "name_ru": "река Пилькома́йо", "name_sv": "Pilcomayo", "name_tr": "Pilcomayo", "name_vi": "Sông Pilcomayo", "name_zh": "皮科马约河", "name_fa": "پیلکومایو", "name_he": "פילקומאיו", "name_uk": "Пілкомайо", "name_ur": "پلکومایو", "name_zht": "皮可馬約河" }, "geometry": { "type": "MultiLineString", "coordinates": [ [ [ -62.640292555430634, -22.236594486043781 ], [ -62.632568359375, -22.24065520625588 ], [ -62.625585937499991, -22.247100518755886 ], [ -62.620361328125, -22.25481536250588 ], [ -62.627197265625, -22.25481536250588 ], [ -62.621020507812489, -22.26824309688088 ], [ -62.623308887883709, -22.274279927743592 ] ], [ [ -62.632744929401461, -22.292863707490923 ], [ -62.633398437499991, -22.29583098750588 ], [ -62.627012001705992, -22.303707591651815 ] ], [ [ -62.59555769493813, -22.315637766780004 ], [ -62.589368692051814, -22.316303250961329 ] ], [ [ -62.570067410698499, -22.32085095647431 ], [ -62.5654296875, -22.32195403438088 ], [ -62.555040379978408, -22.330080913903501 ] ], [ [ -62.544091237108525, -22.340499950670022 ], [ -62.53878416318112, -22.346941197654502 ] ], [ [ -62.533923037907584, -22.352841192442138 ], [ -62.524169921875, -22.36467864375588 ], [ -62.511523437499989, -22.37004973750588 ], [ -62.484952700913148, -22.377788786997193 ] ], [ [ -62.462709251164064, -22.388593337432184 ], [ -62.462695312499989, -22.38860442500588 ], [ -62.456230616627217, -22.40252147862088 ] ], [ [ -62.447690768884826, -22.411182884463372 ], [ -62.443044318619734, -22.415519571377459 ] ], [ [ -62.421297698447759, -22.430735833609418 ], [ -62.399240981259268, -22.444926169143272 ] ], [ [ -62.384837999474286, -22.454192423158787 ], [ -62.373074578230508, -22.461760498364573 ] ], [ [ -62.332386905511058, -22.473356110645128 ], [ -62.306494140624991, -22.476592706255886 ], [ -62.295214843749989, -22.47966887813088 ], [ -62.287939453124991, -22.483916925005886 ], [ -62.285253906249991, -22.488604425005889 ], [ -62.284326171874994, -22.493682550005886 ], [ -62.284521484374991, -22.504717706255889 ], [ -62.282177734374997, -22.512041925005889 ], [ -62.276318359374997, -22.51336028438088 ], [ -62.275103953136707, -22.513272917025606 ] ], [ [ -62.252949933640366, -22.526443861981459 ], [ -62.2464500368107, -22.533509901974899 ] ], [ [ -62.234976658647426, -22.553881171790419 ], [ -62.233984375, -22.55608489375588 ], [ -62.239599609374991, -22.57293059688088 ], [ -62.241688276285025, -22.575595447766094 ] ], [ [ -62.24982307807683, -22.585974332810814 ], [ -62.253759765624991, -22.59099700313088 ], [ -62.253623733032811, -22.60098568204246 ] ], [ [ -62.250331342499948, -22.606045086695868 ], [ -62.248026270464948, -22.607813596339106 ] ], [ [ -62.240391698867718, -22.613641510116775 ], [ -62.229533699835351, -22.618279671120753 ] ], [ [ -62.220457799191387, -22.622156581435195 ], [ -62.215673828124991, -22.62420012813088 ], [ -62.203320312499997, -22.626983331255886 ], [ -62.197314453124989, -22.62639739375588 ], [ -62.193701171874991, -22.62810637813088 ], [ -62.188330078124991, -22.638506768755889 ], [ -62.19109951099086, -22.647161246461735 ] ], [ [ -62.193009176005887, -22.653128949633693 ], [ -62.195361328124989, -22.660479425005889 ], [ -62.195727539062489, -22.67351653438088 ], [ -62.176684570312489, -22.68474700313088 ], [ -62.189013671874989, -22.70818450313088 ], [ -62.188350605652388, -22.709052804136665 ] ], [ [ -62.174105117643151, -22.716424361958794 ], [ -62.171484375, -22.717120050005889 ], [ -62.164843749999989, -22.72576262813088 ], [ -62.162441972535859, -22.731900503872541 ] ], [ [ -62.161085870459829, -22.735366098066837 ], [ -62.160449218749989, -22.73699309688088 ], [ -62.154223632812489, -22.74773528438088 ], [ -62.126953125, -22.77556731563088 ], [ -62.123291015625, -22.783038018755889 ], [ -62.120532226562489, -22.792022393755886 ], [ -62.120076897704536, -22.792905117186024 ] ], [ [ -62.113743941509263, -22.801009513019974 ], [ -62.109545898437489, -22.80291106563088 ], [ -62.108642578125, -22.806475518755889 ], [ -62.100024414062489, -22.81365325313088 ], [ -62.09460018820586, -22.817038396540184 ] ], [ [ -62.07840561910249, -22.836203306409097 ], [ -62.072363281249991, -22.843780206255886 ], [ -62.067732876836303, -22.848303672923301 ] ], [ [ -62.059589024103104, -22.856259445916702 ], [ -62.051828036930225, -22.863841195510531 ] ], [ [ -62.040523364487917, -22.879134488344082 ], [ -62.036474609374991, -22.88469817500588 ], [ -62.017919921874991, -22.921709893755889 ], [ -62.0068359375, -22.93670012813088 ], [ -62.004492187499991, -22.94622161250588 ], [ -62.004950625100456, -22.948287810141775 ] ], [ [ -62.005607164149829, -22.980129699559797 ], [ -61.992773437499991, -22.99797942500588 ], [ -61.957177734374994, -23.03435637813088 ], [ -61.866667629661883, -23.085322848138041 ] ], [ [ -61.863058460838168, -23.087355180275846 ], [ -61.845751953124989, -23.09710051875588 ], [ -61.837744140624991, -23.104522393755886 ], [ -61.815039062499991, -23.135088800005889 ], [ -61.803417968749997, -23.144854425005889 ], [ -61.78076171875, -23.15667083125588 ], [ -61.77001953125, -23.16545989375588 ], [ -61.75927734375, -23.177276300005886 ], [ -61.753027343749991, -23.18694426875588 ], [ -61.753017244208216, -23.186986793142289 ] ], [ [ -61.739475847478722, -23.238926824785835 ], [ -61.736763552938335, -23.241014112323438 ] ], [ [ -61.689680570519641, -23.274162987146891 ], [ -61.689501953124989, -23.27434661250588 ], [ -61.681079101562489, -23.279131768755889 ], [ -61.667578125, -23.282745050005886 ], [ -61.650041815210358, -23.282745050005886 ] ], [ [ -61.62602581690183, -23.282745050005886 ], [ -61.620288085937489, -23.282745050005886 ], [ -61.618292748252252, -23.28361990295388 ] ], [ [ -61.609273426835465, -23.28757441150087 ], [ -61.605810546874991, -23.289092706255886 ], [ -61.601519035498747, -23.293270026473113 ] ], [ [ -61.576479622496933, -23.317643175461814 ], [ -61.555346679687489, -23.338213800005889 ], [ -61.546484375, -23.34246184688088 ], [ -61.537097433632553, -23.344019845448091 ] ], [ [ -61.53615163201831, -23.344176824969125 ], [ -61.534716796874989, -23.34441497188088 ], [ -61.516772460937489, -23.344756768755886 ], [ -61.517281017058693, -23.345649968846931 ] ], [ [ -61.523595886395917, -23.358143279107214 ], [ -61.526220703124991, -23.364580987505889 ], [ -61.526633669125609, -23.369761833695463 ] ], [ [ -61.513054085638409, -23.383118851846948 ], [ -61.511083984374991, -23.384307550005886 ], [ -61.506014260129966, -23.397048218265624 ] ], [ [ -61.499228791134314, -23.409216967202841 ], [ -61.492529296874991, -23.413116143755886 ], [ -61.471044921874991, -23.41399505000588 ], [ -61.452685546874989, -23.417315362505889 ], [ -61.436450195312489, -23.42351653438088 ], [ -61.421191406249989, -23.43352630000588 ], [ -61.409472656249989, -23.443389581255886 ], [ -61.3994140625, -23.44988372188088 ], [ -61.387547545271396, -23.453028558602238 ] ], [ [ -61.352915402075801, -23.458592297917818 ], [ -61.328166792494244, -23.468797142199751 ] ], [ [ -61.315434995822017, -23.474046972580773 ], [ -61.297656249999989, -23.48137786250588 ], [ -61.289721679687489, -23.49407317500588 ], [ -61.286661380841835, -23.502052253777563 ] ], [ [ -61.262587832936326, -23.526372690231124 ], [ -61.252685546875, -23.529131768755889 ], [ -61.243701171874989, -23.533038018755889 ], [ -61.226082715927362, -23.549526234133285 ] ], [ [ -60.901373459687463, -23.830089599781648 ], [ -60.900683593749989, -23.830401300005889 ], [ -60.897173424814376, -23.83306067327786 ] ], [ [ -60.8480855630159, -23.866384508168924 ], [ -60.845724744894966, -23.867691605084264 ] ], [ [ -60.83169220433367, -23.872466725613197 ], [ -60.822515118338117, -23.873438417071551 ] ], [ [ -60.799704518467713, -23.873576359569999 ], [ -60.787541231826367, -23.87331872027659 ] ], [ [ -60.78486533060682, -23.873262040094684 ], [ -60.769244835066885, -23.872931171181353 ] ], [ [ -60.760149057623757, -23.87273850699917 ], [ -60.730029296874989, -23.872100518755886 ], [ -60.720556640624991, -23.875030206255886 ], [ -60.700122070312489, -23.891143487505886 ], [ -60.6904296875, -23.893584893755886 ], [ -60.644384765624991, -23.89128997188088 ], [ -60.632910156249991, -23.89226653438088 ], [ -60.621875, -23.89568450313088 ], [ -60.609198228987452, -23.90223774916279 ] ], [ [ -60.598287026886176, -23.905957517775398 ], [ -60.595385742187489, -23.906573175005889 ], [ -60.594977360140902, -23.908738549578505 ] ], [ [ -60.587786328550216, -23.925178894195525 ], [ -60.578320312499997, -23.94402434688088 ], [ -60.572460937499997, -23.94597747188088 ], [ -60.53671875, -23.94744231563088 ], [ -60.518408203124991, -23.95574309688088 ], [ -60.507588664591331, -23.96287562005114 ] ], [ [ -60.407145087893767, -23.987841858816765 ], [ -60.38818359375, -23.987139581255889 ], [ -60.379003906249991, -23.98845794063088 ], [ -60.368261718749991, -23.99456145625588 ], [ -60.348803710937489, -24.01067473750588 ], [ -60.338134765625, -24.016436456255889 ], [ -60.328710937499991, -24.017901300005889 ], [ -60.297119140625, -24.016436456255889 ], [ -60.218847656249991, -24.02727630000588 ], [ -60.143969726562489, -24.02507903438088 ], [ -60.120043945312489, -24.02019622188088 ], [ -60.073095703124991, -24.004717706255889 ], [ -60.052490234375, -24.00286223750588 ], [ -60.034423828125, -24.006866143755886 ], [ -59.674365234374989, -24.225420831255889 ], [ -59.673499788149066, -24.226230051039106 ] ], [ [ -59.470627714126806, -24.351839369993911 ], [ -59.466650390624991, -24.35344817500588 ], [ -59.46044921875, -24.35833098750588 ], [ -59.456958007812489, -24.36541106563088 ], [ -59.45458984375, -24.374541925005886 ], [ -59.451025390624991, -24.382354425005886 ], [ -59.426806640624989, -24.39251067500588 ], [ -59.396206837757205, -24.417021155400601 ] ], [ [ -59.375831939239951, -24.438192180523941 ], [ -59.370360501770847, -24.44770487156735 ] ], [ [ -59.362217404827874, -24.461862534118087 ], [ -59.358154296875, -24.46892669063088 ], [ -59.341650390624991, -24.48748137813088 ], [ -59.308837890625, -24.49871184688088 ], [ -59.295825195312489, -24.51287200313088 ], [ -59.286376953125, -24.51604583125588 ], [ -59.271166992187489, -24.518096612505886 ], [ -59.265824898386711, -24.521942920042441 ] ], [ [ -59.246291931767338, -24.537921991876605 ], [ -59.207177734374994, -24.55022551875588 ], [ -59.178637695312489, -24.568682550005889 ], [ -59.155078124999989, -24.576202081255886 ], [ -59.117724609374989, -24.59880950313088 ], [ -59.097949218749989, -24.60540130000588 ], [ -59.0791015625, -24.605498956255886 ], [ -59.072924804687489, -24.606768487505889 ], [ -59.063232421875, -24.61223723750588 ], [ -59.043066406249991, -24.63054778438088 ], [ -59.033398437499997, -24.637041925005889 ], [ -59.001708984375, -24.644073175005886 ], [ -58.96984689849441, -24.66612031080615 ] ], [ [ -58.965793905020014, -24.668924800689908 ], [ -58.957486987471476, -24.674672815429449 ] ], [ [ -58.876988203277477, -24.730374367221525 ], [ -58.872447450545728, -24.73351636465658 ] ], [ [ -58.702850015150013, -24.799101160325165 ], [ -58.70263671875, -24.79924895625588 ], [ -58.702516914911662, -24.799621162355571 ] ], [ [ -58.691301984539649, -24.812492764154086 ], [ -58.690707187297598, -24.812598935659135 ] ], [ [ -58.678246465976223, -24.814823178549283 ], [ -58.589933370348369, -24.830587095419812 ] ], [ [ -58.530402789065057, -24.841213323930234 ], [ -58.474169921874989, -24.85125090938088 ], [ -58.451513671874991, -24.861651300005889 ], [ -58.439257812499989, -24.87273528438088 ], [ -58.426605943360293, -24.888875528962394 ] ], [ [ -58.420734638940907, -24.896365670402762 ], [ -58.41552734375, -24.90300872188088 ], [ -58.351245117187489, -24.96843840938088 ], [ -58.34915985009517, -24.971735274348973 ] ], [ [ -58.332937990926425, -24.992734175645886 ], [ -58.323974609375, -24.995147393755886 ], [ -58.312744140625, -24.993487237505889 ], [ -58.311747751896306, -24.993027365784954 ] ], [ [ -58.212093789588778, -24.949124725062767 ], [ -58.205283038855264, -24.953410928040622 ] ], [ [ -58.195243889720835, -24.959728855769704 ], [ -58.176797414875445, -24.971337757417537 ] ], [ [ -58.134985079197889, -24.997651472998164 ], [ -58.134619140624991, -24.997881768755889 ], [ -58.125374953100277, -25.011931103261272 ] ], [ [ -58.121650023751933, -25.012714592358563 ], [ -58.112231445312489, -25.012237237505886 ], [ -58.103183668968335, -25.016409709408709 ] ], [ [ -58.07701633901204, -25.028477033451825 ], [ -58.047235366518805, -25.042210824633241 ] ], [ [ -57.999402167318983, -25.046479004528035 ], [ -57.994311523437489, -25.05266692500588 ], [ -57.990576171874991, -25.063995050005886 ], [ -57.984472656249991, -25.07415130000588 ], [ -57.971885641672429, -25.077892195946763 ] ], [ [ -57.859232325179569, -25.095076334460146 ], [ -57.857226562499989, -25.096709893755886 ], [ -57.81591972609052, -25.140484173933171 ] ], [ [ -57.78071511272281, -25.161554936544313 ], [ -57.766699218749991, -25.167803643755889 ], [ -57.754809570312489, -25.18084075313088 ], [ -57.722460937499989, -25.24602630000588 ], [ -57.703027343749994, -25.270830987505889 ], [ -57.689384903856492, -25.27930616411167 ] ] ] } },
{ "type": "Feature", "properties": { "dissolve": "99Lake Centerline", "scalerank": 4, "featurecla": "Lake Centerline", "name": "Paraná", "name_alt": null, "rivernum": 99, "note": null, "min_zoom": 4.0, "name_en": "Paraná", "min_label": 5.0, "ne_id": 1159129191, "label": "Paraná", "wikidataid": "Q127892", "name_ar": "نهر بارانا", "name_bn": "পারানা", "name_de": "Paraná", "name_es": "Paraná", "name_fr": "Paraná", "name_el": "Παρανά", "name_hi": "पराना नदी", "name_hu": "Paraná", "name_id": "Paraná", "name_it": "Paraná", "name_ja": "パラナ川", "name_ko": "파라나강", "name_nl": "Paraná", "name_pl": "Parana", "name_pt": "Paraná", "name_ru": "Парана", "name_sv": "Paranáfloden", "name_tr": "Paraná", "name_vi": "Paraná", "name_zh": "巴拉那河", "name_fa": "رودخانه پارانا", "name_he": "פרנה", "name_uk": "Парана", "name_ur": "دریائے پارانا", "name_zht": "巴拉那河" }, "geometry": { "type": "MultiLineString", "coordinates": [ [ [ -54.608642578125, -25.419756768755889 ], [ -54.628466796874989, -25.40862395625588 ], [ -54.64306640625, -25.40569426875588 ] ], [ [ -54.280469315297601, -24.075166547023844 ], [ -54.3017578125, -24.08977630000588 ], [ -54.325488281249989, -24.11809661250588 ], [ -54.335400390624997, -24.14885833125588 ], [ -54.332568359374989, -24.16497161250588 ], [ -54.324635613852969, -24.184502993526014 ] ], [ [ -54.280592892680161, -24.282982025022488 ], [ -54.275097656249997, -24.298174737505889 ], [ -54.261767578124989, -24.329424737505889 ], [ -54.262866210937489, -24.358428643755886 ], [ -54.2724609375, -24.38933684688088 ], [ -54.284765625, -24.411163018755886 ], [ -54.323657226562489, -24.464190362505889 ], [ -54.335253906249989, -24.49651458125588 ], [ -54.335297318661247, -24.501058413634322 ] ], [ [ -54.386326609204737, -24.785851560532901 ], [ -54.400488281249991, -24.804717706255886 ], [ -54.408056640624991, -24.82122161250588 ], [ -54.454028320312489, -25.002764581255889 ], [ -54.462988281249991, -25.037139581255886 ], [ -54.464892578124989, -25.05584075313088 ], [ -54.46430164894543, -25.067490499813669 ] ], [ [ -54.449251118002842, -25.177820680999783 ], [ -54.470141601562489, -25.195342706255886 ], [ -54.482177734375, -25.213213800005889 ], [ -54.504248046874991, -25.27849700313088 ], [ -54.529150390624991, -25.314288018755889 ], [ -54.547778320312489, -25.33660247188088 ], [ -54.576342773437489, -25.360186456255889 ], [ -54.598681640624989, -25.39739348750588 ], [ -54.610595703125, -25.432647393755886 ] ] ] } },
{ "type": "Feature", "properties": { "dissolve": "99River", "scalerank": 4, "featurecla": "River", "name": "Paraná", "name_alt": null, "rivernum": 99, "note": null, "min_zoom": 4.0, "name_en": "Paraná", "min_label": 5.0, "ne_id": 1159129199, "label": "Paraná", "wikidataid": "Q127892", "name_ar": "نهر بارانا", "name_bn": "পারানা", "name_de": "Paraná", "name_es": "Paraná", "name_fr": "Paraná", "name_el": "Παρανά", "name_hi": "पराना नदी", "name_hu": "Paraná", "name_id": "Paraná", "name_it": "Paraná", "name_ja": "パラナ川", "name_ko": "파라나강", "name_nl": "Paraná", "name_pl": "Parana", "name_pt": "Paraná", "name_ru": "Парана", "name_sv": "Paranáfloden", "name_tr": "Paraná", "name_vi": "Paraná", "name_zh": "巴拉那河", "name_fa": "رودخانه پارانا", "name_he": "פרנה", "name_uk": "Парана", "name_ur": "دریائے پارانا", "name_zht": "巴拉那河" }, "geometry": { "type": "MultiLineString", "coordinates": [ [ [ -58.564817092977947, -27.298939824665389 ], [ -58.511474609375, -27.278350518755886 ], [ -58.50131050671304, -27.277549048295086 ] ], [ [ -58.474784337293286, -27.275457379021844 ], [ -58.31838131052023, -27.263124523864111 ] ], [ [ -58.161621987878078, -27.265843095725192 ], [ -58.131614817411005, -27.269323740080061 ] ], [ [ -58.121681661172936, -27.269119861314376 ], [ -58.11474609375, -27.26873137813088 ], [ -58.054296875, -27.25896575313088 ], [ -58.022705078125, -27.259795831255886 ], [ -57.944726562499994, -27.274444268755886 ], [ -57.914111328124989, -27.286163018755886 ], [ -57.897473647082464, -27.289393501824975 ] ], [ [ -57.847299958083269, -27.300019186062958 ], [ -57.812304687499989, -27.310577081255886 ], [ -57.734135734293751, -27.325135768815787 ] ], [ [ -57.711822759662596, -27.329291480423308 ], [ -57.710058593749991, -27.329620050005886 ], [ -57.698486328125, -27.33342864375588 ], [ -57.536425781249989, -27.40715911250588 ], [ -57.514086914062489, -27.41399505000588 ], [ -57.488378906249991, -27.416338800005889 ], [ -57.387451171875, -27.40349700313088 ], [ -57.361132812499989, -27.403350518755886 ], [ -57.335986328124989, -27.409502862505889 ], [ -57.328414857833735, -27.414079025868737 ] ], [ [ -57.085174104260965, -27.485583174155654 ], [ -57.076953124999989, -27.483916925005886 ], [ -56.97802734375, -27.43523528438088 ], [ -56.941748046874991, -27.42205169063088 ], [ -56.905029296875, -27.41863372188088 ], [ -56.869970703124991, -27.431475518755889 ], [ -56.808203125, -27.48674895625588 ], [ -56.771899414062489, -27.506670831255889 ], [ -56.734960937499991, -27.500323175005889 ], [ -56.720998026690303, -27.490587812168183 ] ], [ [ -56.667126913892076, -27.460279793334546 ], [ -56.613720703124997, -27.44622161250588 ], [ -56.609128374623687, -27.44682134432777 ] ], [ [ -56.576071174351618, -27.451138425507835 ], [ -56.547167968749989, -27.454913018755889 ], [ -56.506933593749991, -27.500030206255886 ], [ -56.488037109375, -27.527178643755889 ], [ -56.462158203125, -27.553741143755886 ], [ -56.432080078124997, -27.575225518755886 ], [ -56.400439453124989, -27.586748956255889 ], [ -56.368261718749991, -27.58049895625588 ], [ -56.356175928400553, -27.564099164446557 ] ], [ [ -56.337893577300754, -27.5282075189197 ], [ -56.336718749999989, -27.52556731563088 ], [ -56.317187499999989, -27.500323175005889 ], [ -56.297705078124991, -27.480791925005889 ], [ -56.286059570312489, -27.46087005000588 ], [ -56.283733593437439, -27.447470082599914 ] ], [ [ -56.285742922148359, -27.413393496390015 ], [ -56.286059570312489, -27.411163018755886 ], [ -56.280566406249989, -27.389483331255889 ], [ -56.257519531249997, -27.378252862505889 ], [ -56.228686523437489, -27.371123956255886 ], [ -56.206152343749991, -27.36199309688088 ], [ -56.169604492187489, -27.32463958125588 ], [ -56.150634765625, -27.311846612505889 ], [ -56.125244140625, -27.29876067500588 ], [ -56.099658203124989, -27.30046965938088 ], [ -56.077786320317131, -27.304284522661323 ] ], [ [ -56.02747626186116, -27.321223768674937 ], [ -56.007568359375, -27.328155206255886 ], [ -55.985595703125, -27.33220794063088 ], [ -55.96142578125, -27.33147551875588 ], [ -55.937109375, -27.328155206255886 ], [ -55.913818359375, -27.327666925005886 ], [ -55.893603515624989, -27.334795831255889 ], [ -55.878588867187489, -27.353545831255886 ], [ -55.864284741947536, -27.3891554525988 ] ], [ [ -55.862482258392859, -27.392275131563441 ], [ -55.854907226562489, -27.401202081255889 ], [ -55.842822265624989, -27.40740325313088 ], [ -55.81591796875, -27.41399505000588 ], [ -55.75546875, -27.44353606563088 ], [ -55.71826171875, -27.41716887813088 ], [ -55.682421874999989, -27.37932708125588 ], [ -55.654394531249991, -27.36003997188088 ], [ -55.629443359374989, -27.356280206255889 ], [ -55.608203124999989, -27.345538018755889 ], [ -55.593666568636181, -27.329988308463687 ] ], [ [ -55.592088767469725, -27.165865923521181 ], [ -55.572460937499997, -27.161455987505889 ], [ -55.562669411779446, -27.156844777181455 ] ], [ [ -55.541446165469338, -27.108701319667553 ], [ -55.534619140624997, -27.09929778438088 ], [ -55.514697265624989, -27.097491143755889 ], [ -55.487158203124991, -27.099932550005889 ], [ -55.462646484375, -27.097979425005889 ], [ -55.454974318957113, -27.086435983459712 ] ], [ [ -55.449535116291514, -27.035735355052456 ], [ -55.443530273437489, -27.015459893755889 ], [ -55.431567382812489, -26.99627044063088 ], [ -55.414721679687489, -26.97966887813088 ], [ -55.397070312499991, -26.96917083125588 ], [ -55.376953125, -26.963702081255889 ], [ -55.330126953124989, -26.958330987505889 ], [ -55.281347656249991, -26.93425872188088 ], [ -55.257226562499994, -26.93450286250588 ], [ -55.235888671874989, -26.94207122188088 ], [ -55.217382812499991, -26.95110442500588 ], [ -55.201904296875, -26.955401300005889 ], [ -55.162280273437489, -26.95720794063088 ], [ -55.14226214775087, -26.954131470788521 ] ], [ [ -55.116955755656946, -26.854901193438714 ], [ -55.061621093749991, -26.80510833125588 ], [ -55.06049841493239, -26.804732288350955 ] ], [ [ -54.996910975454099, -26.794946664491142 ], [ -54.992529296874991, -26.79461028438088 ], [ -54.975927734374991, -26.78777434688088 ], [ -54.961718749999989, -26.772295831255889 ], [ -54.951904296875, -26.75750090938088 ], [ -54.944580078125, -26.73992278438088 ], [ -54.944435733392993, -26.739416772922585 ] ], [ [ -54.924784243502685, -26.681701066691804 ], [ -54.920654296875, -26.674151300005889 ], [ -54.904101562499989, -26.65984465938088 ], [ -54.880078125, -26.65422942500588 ], [ -54.835693359375, -26.65422942500588 ], [ -54.828173828124989, -26.658038018755889 ], [ -54.823535156249989, -26.66326262813088 ], [ -54.818041992187489, -26.66570403438088 ], [ -54.807714843749991, -26.66106536250588 ], [ -54.795819213365981, -26.647291474692818 ] ], [ [ -54.792514103590037, -26.641407479828125 ], [ -54.785951800111128, -26.623301847338123 ] ], [ [ -54.785360983610744, -26.620393370615741 ], [ -54.784542971031129, -26.614990182260897 ] ], [ [ -54.784541660135446, -26.51698844649054 ], [ -54.781054687499989, -26.510284112505886 ], [ -54.765966796874991, -26.493975518755889 ], [ -54.737890625, -26.473174737505886 ], [ -54.707177734374994, -26.441729425005889 ], [ -54.6984375, -26.428057550005889 ], [ -54.696945604473704, -26.422875176072459 ] ], [ [ -54.686715155183997, -26.367009454544341 ], [ -54.684130859374989, -26.350616143755886 ], [ -54.68115234375, -26.345245050005886 ], [ -54.679785156249991, -26.33977630000588 ], [ -54.664404296874991, -26.30828215938088 ], [ -54.664404296874991, -26.291263457658278 ] ], [ [ -54.666011649177776, -26.250290687491511 ], [ -54.666845703124991, -26.24358489375588 ], [ -54.665087890624989, -26.236163018755889 ], [ -54.656909179687489, -26.222979425005889 ], [ -54.645458984374997, -26.20818450313088 ], [ -54.639013671874991, -26.196807550005886 ], [ -54.639707707666751, -26.194316627027234 ] ], [ [ -54.657224137430013, -26.126412392911181 ], [ -54.643896484374991, -26.08513762813088 ], [ -54.643839801628054, -26.083206216012925 ] ], [ [ -54.662555528506374, -25.97906113865362 ], [ -54.656909179687489, -25.969073175005889 ], [ -54.648681640625, -25.965655206255889 ], [ -54.624365234374991, -25.96428801875588 ], [ -54.615966796875, -25.96160247188088 ], [ -54.61085118138665, -25.953020537700979 ] ], [ [ -54.613948741648258, -25.894376235508403 ], [ -54.615966796875, -25.882842706255886 ], [ -54.61083984375, -25.866534112505889 ], [ -54.599951171874991, -25.850616143755886 ], [ -54.590678823361806, -25.833612945474794 ] ], [ [ -54.643693530163155, -25.666001776377485 ], [ -54.643652343749991, -25.66155364375588 ], [ -54.634448242187489, -25.65203215938088 ], [ -54.599169921874989, -25.65374114375588 ], [ -54.592431556619395, -25.649706847405444 ] ], [ [ -54.598040400401885, -25.60228220057088 ], [ -54.602978515624997, -25.592315362505886 ], [ -54.600634765624989, -25.572588800005889 ], [ -54.59761290953476, -25.560069681917803 ] ], [ [ -54.606703030365743, -25.492188447537153 ], [ -54.609228515624991, -25.487627862505889 ], [ -54.611160611097944, -25.476614918310052 ] ], [ [ -54.612781005957274, -25.451308330706599 ], [ -54.612597656249989, -25.44402434688088 ], [ -54.610595703125, -25.432647393755886 ] ] ] } },
{ "type": "Feature", "properties": { "dissolve": "36River", "scalerank": 2, "featurecla": "River", "name": "Paraná", "name_alt": null, "rivernum": 36, "note": null, "min_zoom": 2.1, "name_en": "Paraná River", "min_label": 3.1, "ne_id": 1159118169, "label": "Paraná", "wikidataid": "Q21847787", "name_ar": "بارانا", "name_bn": "পারানা", "name_de": "Río Paraná", "name_es": "Paraná", "name_fr": "Paraná", "name_el": "Παρανά", "name_hi": "पराना", "name_hu": "Paraná", "name_id": "Parana", "name_it": "Paraná", "name_ja": "パラナ川", "name_ko": "파라나", "name_nl": "Parana", "name_pl": "Paraná", "name_pt": "Paraná", "name_ru": "река Парана", "name_sv": "Parana", "name_tr": "Paraná", "name_vi": "Sông Paraná", "name_zh": "巴拉那河", "name_fa": "پارانا", "name_he": "פאראנה", "name_uk": "Парана", "name_ur": "پارانا", "name_zht": "巴拉那河" }, "geometry": { "type": "MultiLineString", "coordinates": [ [ [ -58.159211718911493, -20.17448132884234 ], [ -58.159033203124991, -20.180987237505889 ], [ -58.153076171875, -20.18450286250588 ], [ -58.144824218749989, -20.18352630000588 ], [ -58.137744140624989, -20.18547942500588 ], [ -58.130664062499989, -20.192413018755886 ], [ -58.126208046547646, -20.197764831729579 ] ], [ [ -58.162189622772324, -20.240361260507253 ], [ -58.163378906249989, -20.24309661250588 ], [ -58.157080078124991, -20.261553643755889 ], [ -58.137744140624989, -20.274248956255889 ], [ -58.131689453124991, -20.272784112505889 ], [ -58.126953125, -20.266924737505889 ], [ -58.120800781249997, -20.261260675005886 ], [ -58.110449218749991, -20.260577081255889 ], [ -58.103808593749989, -20.26433684688088 ], [ -58.095800781249991, -20.27214934688088 ], [ -58.091064453125, -20.281573175005889 ], [ -58.100634765624989, -20.309112237505886 ], [ -58.098437499999989, -20.33440520625588 ], [ -58.091552734375, -20.35930755000588 ], [ -58.083740234375, -20.376006768755886 ], [ -58.06787109375, -20.39348723750588 ], [ -58.04638671875, -20.409209893755886 ], [ -58.023876953124997, -20.420733331255889 ], [ -58.004931640624989, -20.425127862505889 ], [ -58.001072493116475, -20.427184381901874 ] ], [ [ -58.008414936886361, -20.532877555323758 ], [ -58.00546875, -20.54973723750588 ], [ -57.998780580296781, -20.563829655038976 ] ], [ [ -57.98174476772715, -20.635239779938932 ], [ -57.978564453124989, -20.639971612505889 ], [ -57.973876953125, -20.650909112505886 ], [ -57.973972223322974, -20.653062218980129 ] ], [ [ -57.977248279829602, -20.699895141776089 ], [ -57.97509765625, -20.70378997188088 ], [ -57.965673828124991, -20.710967706255886 ], [ -57.957128906249991, -20.709795831255889 ], [ -57.952400855161279, -20.691912009365957 ] ], [ [ -57.941874007530764, -20.671462951636048 ], [ -57.934741210937489, -20.667315362505889 ], [ -57.918798828124991, -20.669756768755889 ], [ -57.909421261934916, -20.675975225768454 ] ], [ [ -57.898615672982437, -20.691202898500073 ], [ -57.895263671875, -20.69988372188088 ], [ -57.891357421875, -20.70623137813088 ], [ -57.885107421874991, -20.71184661250588 ], [ -57.875609239422808, -20.718158695781064 ] ], [ [ -57.938910450586121, -20.795574541625825 ], [ -57.934667968749991, -20.799639581255889 ], [ -57.90869140625, -20.801788018755886 ], [ -57.888427734375, -20.80584075313088 ], [ -57.871386718749989, -20.81633880000588 ], [ -57.8603515625, -20.831573175005886 ], [ -57.858277158646565, -20.846622771589608 ] ], [ [ -57.917397366171627, -20.898894617494264 ], [ -57.915576171874989, -20.905596612505889 ], [ -57.90869140625, -20.910479425005889 ], [ -57.901904296874989, -20.91228606563088 ], [ -57.898779296874991, -20.914873956255889 ], [ -57.893798828125, -20.914873956255889 ], [ -57.874747675359359, -20.929503955426121 ] ], [ [ -57.862653835164465, -20.940749989020158 ], [ -57.847705078124989, -20.955889581255889 ], [ -57.840991210937489, -20.955889581255889 ], [ -57.836718749999989, -20.93840911250588 ], [ -57.821401282172403, -20.951037875874373 ] ], [ [ -57.81764560015931, -20.977518230091682 ], [ -57.81980038887518, -20.982905201881358 ] ], [ [ -57.852778834759214, -21.221925275712497 ], [ -57.866120539675173, -21.240207825458587 ] ], [ [ -57.892413775115848, -21.303881388248655 ], [ -57.891357421875, -21.30584075313088 ], [ -57.883056640625, -21.316241143755889 ], [ -57.866992187499989, -21.320830987505886 ], [ -57.85625, -21.330596612505886 ], [ -57.861684401055058, -21.348916354427359 ] ], [ [ -57.916897120301812, -21.433175083326088 ], [ -57.930590820312489, -21.452959893755889 ], [ -57.945971679687489, -21.487139581255889 ], [ -57.946809767857715, -21.491581962722606 ] ], [ [ -57.919139748451627, -21.581169467216132 ], [ -57.920117187499997, -21.583819268755889 ], [ -57.932788085937489, -21.606475518755886 ], [ -57.939746093749989, -21.623565362505886 ], [ -57.935546875, -21.64055755000588 ], [ -57.933335852273458, -21.644359682544984 ] ], [ [ -57.927098713958713, -21.655085228805845 ], [ -57.925097656249989, -21.658526300005889 ], [ -57.912451171874991, -21.67302825313088 ], [ -57.901904296874989, -21.67888762813088 ], [ -57.896337890624991, -21.688311456255889 ], [ -57.912062965288719, -21.712544698426086 ] ], [ [ -57.939009989549255, -21.75407160870386 ], [ -57.939746093749989, -21.755205987505889 ], [ -57.939208984375, -21.774444268755886 ], [ -57.935498046874997, -21.792803643755889 ], [ -57.936376953124991, -21.81194426875588 ], [ -57.949353754579086, -21.833096930466759 ] ], [ [ -57.952946469992554, -21.85675741811588 ], [ -57.947460937499997, -21.86541106563088 ], [ -57.933520507812489, -21.88176848750588 ], [ -57.931752383930174, -21.887240975849835 ] ], [ [ -57.947051427052457, -21.94598447504352 ], [ -57.953906249999989, -21.958038018755886 ], [ -57.963305664062489, -21.966827081255886 ], [ -57.965625, -21.976592706255886 ], [ -57.978336439873424, -22.010508752956035 ] ], [ [ -57.988880732493818, -22.058249652408279 ], [ -57.98876953125, -22.063995050005886 ], [ -57.987651876140106, -22.070237048355466 ] ], [ [ -57.983983512563583, -22.083811607475731 ], [ -57.981298828124991, -22.090362237505886 ], [ -57.974291992187489, -22.132159112505889 ], [ -57.967041015625, -22.14837005000588 ], [ -57.977392578124991, -22.21062590938088 ], [ -57.973876953125, -22.234405206255886 ], [ -57.965869140624989, -22.256866143755886 ], [ -57.956298828125, -22.269073175005886 ], [ -57.94091796875, -22.27434661250588 ], [ -57.915576171874989, -22.27532317500588 ], [ -57.896826171874991, -22.279327081255886 ], [ -57.887548828124991, -22.289873956255889 ], [ -57.877685546875, -22.32317473750588 ], [ -57.831298828125, -22.377276300005889 ], [ -57.826757812499991, -22.38860442500588 ], [ -57.845385742187489, -22.40447356563088 ], [ -57.851757812499997, -22.411944268755889 ], [ -57.843554687499989, -22.44597747188088 ], [ -57.830664062499991, -22.55925872188088 ], [ -57.816210937499989, -22.59002044063088 ], [ -57.790771484375, -22.617510675005889 ], [ -57.77978515625, -22.63396575313088 ], [ -57.775244140624991, -22.655596612505889 ], [ -57.784838867187489, -22.665362237505889 ], [ -57.807080078124997, -22.66570403438088 ], [ -57.850341796875, -22.65886809688088 ], [ -57.895922851562489, -22.66497161250588 ], [ -57.929370117187489, -22.68645598750588 ], [ -57.940380859374997, -22.716338800005886 ], [ -57.918627929687489, -22.747100518755886 ], [ -57.908984374999989, -22.751299737505889 ], [ -57.886083984374991, -22.75701262813088 ], [ -57.877685546875, -22.762041925005889 ], [ -57.872167968749991, -22.771807550005889 ], [ -57.8671875, -22.79534270625588 ], [ -57.8609375, -22.80632903438088 ], [ -57.851904296874991, -22.81047942500588 ], [ -57.828955078124991, -22.80925872188088 ], [ -57.819628906249989, -22.81316497188088 ], [ -57.812060546874989, -22.821319268755886 ], [ -57.80908203125, -22.826495050005889 ], [ -57.802587890624991, -22.84392669063088 ], [ -57.79248046875, -22.85686614375588 ], [ -57.788500976562489, -22.86614348750588 ], [ -57.78955078125, -22.877959893755886 ], [ -57.798193359374991, -22.888018487505889 ], [ -57.811376953124991, -22.89690520625588 ], [ -57.821142578124991, -22.90593840938088 ], [ -57.819628906249989, -22.91594817500588 ], [ -57.7861328125, -22.94475676875588 ], [ -57.773046875, -22.960772393755889 ], [ -57.767822265625, -22.981768487505889 ], [ -57.78955078125, -23.02141692500588 ], [ -57.774511718749991, -23.03484465938088 ], [ -57.730029296874989, -23.05486419063088 ], [ -57.720629882812489, -23.06633880000588 ], [ -57.714208984374991, -23.085284112505889 ], [ -57.698291015624989, -23.090655206255889 ], [ -57.658618164062489, -23.09099700313088 ], [ -57.639990234374991, -23.09880950313088 ], [ -57.632177734374991, -23.11126067500588 ], [ -57.630786132812489, -23.12810637813088 ], [ -57.631298828124997, -23.148955987505886 ], [ -57.624755859375, -23.165362237505889 ], [ -57.608740234374991, -23.180010675005889 ], [ -57.588623046875, -23.19207122188088 ], [ -57.551074218749989, -23.20891692500588 ], [ -57.544482421874989, -23.213213800005889 ], [ -57.535693359374989, -23.22063567500588 ], [ -57.511279296874989, -23.25017669063088 ], [ -57.500732421875, -23.257842706255886 ], [ -57.484179687499989, -23.27312590938088 ], [ -57.48046875, -23.27898528438088 ], [ -57.480322265624991, -23.300616143755889 ], [ -57.482226562499989, -23.30632903438088 ], [ -57.4873046875, -23.31682708125588 ], [ -57.495654296874989, -23.33025481563088 ], [ -57.5015625, -23.336748956255889 ], [ -57.503759765624991, -23.343584893755889 ], [ -57.500903320312489, -23.35784270625588 ], [ -57.494921874999989, -23.367705987505886 ], [ -57.477294921875, -23.38274505000588 ], [ -57.470507812499989, -23.39397551875588 ], [ -57.456835937499989, -23.403838800005886 ], [ -57.453710937499991, -23.40935637813088 ], [ -57.452880859375, -23.417315362505889 ], [ -57.4462890625, -23.44719817500588 ], [ -57.442626953125, -23.45745208125588 ], [ -57.442309570312489, -23.46477630000588 ], [ -57.4462890625, -23.47454192500588 ], [ -57.448339843749991, -23.48601653438088 ], [ -57.457128906249991, -23.504717706255889 ], [ -57.4599609375, -23.515459893755889 ], [ -57.459765624999989, -23.52776458125588 ], [ -57.455004882812489, -23.54900481563088 ], [ -57.453710937499991, -23.559893487505889 ], [ -57.450537109374991, -23.573760675005886 ], [ -57.425830078124989, -23.61785247188088 ], [ -57.398120117187489, -23.64568450313088 ], [ -57.325976562499989, -23.68279387813088 ], [ -57.295507812499991, -23.707354425005889 ], [ -57.280517578125, -23.723467706255889 ], [ -57.275927734374989, -23.73162200313088 ], [ -57.275634765625, -23.742022393755889 ], [ -57.281298828124989, -23.75139739375588 ], [ -57.299121093749989, -23.75774505000588 ], [ -57.302905273437489, -23.76531340938088 ], [ -57.299560546875, -23.77507903438088 ], [ -57.292041015624989, -23.782061456255889 ], [ -57.284619140624997, -23.78777434688088 ], [ -57.281201171874997, -23.793291925005889 ], [ -57.28173828125, -23.801104425005889 ], [ -57.288623046874989, -23.83074309688088 ], [ -57.291430664062489, -23.861846612505886 ], [ -57.295507812499991, -23.87175872188088 ], [ -57.318286132812489, -23.88591887813088 ], [ -57.322192382812489, -23.88909270625588 ], [ -57.325537109374991, -23.894073175005886 ], [ -57.333056640624989, -23.90154387813088 ], [ -57.340502929687489, -23.91130950313088 ], [ -57.343847656249991, -23.92327239375588 ], [ -57.338671874999989, -23.930498956255889 ], [ -57.326586914062489, -23.93230559688088 ], [ -57.312939453124997, -23.932159112505886 ], [ -57.302905273437489, -23.933916925005889 ], [ -57.284619140624997, -23.95403411250588 ], [ -57.280029296875, -23.978838800005889 ], [ -57.278173828124991, -24.005205987505889 ], [ -57.268164062499991, -24.030108331255889 ], [ -57.248461914062489, -24.02361419063088 ], [ -57.23193359375, -24.03337981563088 ], [ -57.223974609374991, -24.05071380000588 ], [ -57.230566406249991, -24.066924737505886 ], [ -57.236865234374989, -24.07586028438088 ], [ -57.238037109375, -24.086260675005889 ], [ -57.233691406249989, -24.094756768755886 ], [ -57.223803710937489, -24.09832122188088 ], [ -57.188037109374989, -24.096221612505886 ], [ -57.178759765624989, -24.09832122188088 ], [ -57.163134765624989, -24.117510675005889 ], [ -57.17236328125, -24.13713958125588 ], [ -57.189794921874991, -24.156768487505886 ], [ -57.199267578124989, -24.17620208125588 ], [ -57.137792968749991, -24.23552825313088 ], [ -57.127294921874991, -24.24822356563088 ], [ -57.118823242187489, -24.262041925005889 ], [ -57.113208007812489, -24.27874114375588 ], [ -57.107617187499997, -24.32073333125588 ], [ -57.090136718749989, -24.34710051875588 ], [ -57.083178710937489, -24.36516692500588 ], [ -57.082568359374989, -24.388506768755889 ], [ -57.096826171874994, -24.444366143755886 ], [ -57.090869140624989, -24.460967706255886 ], [ -57.07861328125, -24.47747161250588 ], [ -57.068457031249991, -24.49529387813088 ], [ -57.068896484374989, -24.51604583125588 ], [ -57.074755859374989, -24.521319268755889 ], [ -57.100268554687489, -24.537139581255886 ], [ -57.1044921875, -24.54143645625588 ], [ -57.102783203125, -24.55120208125588 ], [ -57.096826171874994, -24.56755950313088 ], [ -57.095898437499997, -24.579620050005886 ], [ -57.09765625, -24.585479425005886 ], [ -57.103686523437489, -24.597979425005889 ], [ -57.111669921874991, -24.60930755000588 ], [ -57.11962890625, -24.616241143755886 ], [ -57.126220703125, -24.62444426875588 ], [ -57.13037109375, -24.63958098750588 ], [ -57.11328125, -24.64910247188088 ], [ -57.09765625, -24.66155364375588 ], [ -57.0908203125, -24.677569268755889 ], [ -57.1123046875, -24.71746184688088 ], [ -57.116796875, -24.73650481563088 ], [ -57.122412109374991, -24.751983331255886 ], [ -57.137792968749991, -24.762530206255889 ], [ -57.149511718749991, -24.76311614375588 ], [ -57.158251953124989, -24.75969817500588 ], [ -57.166918945312489, -24.75774505000588 ], [ -57.178759765624989, -24.762530206255889 ], [ -57.182080078124997, -24.76946380000588 ], [ -57.197314453124989, -24.826690362505886 ], [ -57.248779296875, -24.891436456255889 ], [ -57.248583984374989, -24.897295831255889 ], [ -57.240234375, -24.90642669063088 ], [ -57.231298828124991, -24.90740325313088 ], [ -57.22265625, -24.901885675005886 ], [ -57.216113281249989, -24.901397393755886 ], [ -57.213549804687489, -24.91692473750588 ], [ -57.215747070312489, -24.928252862505886 ], [ -57.219091796874991, -24.93743255000588 ], [ -57.218847656249991, -24.946612237505889 ], [ -57.210131835937489, -24.95794036250588 ], [ -57.198583984374991, -24.969756768755886 ], [ -57.194921875, -24.978057550005886 ], [ -57.199658203124997, -24.98430755000588 ], [ -57.213549804687489, -24.989092706255889 ], [ -57.234790039062489, -24.986358331255886 ], [ -57.262011718749989, -24.980010675005886 ], [ -57.285498046874991, -24.982452081255886 ], [ -57.295507812499991, -25.00603606563088 ], [ -57.343847656249991, -25.064776300005889 ], [ -57.354248046875, -25.07195403438088 ], [ -57.366259765624989, -25.07854583125588 ], [ -57.378076171874994, -25.083330987505889 ], [ -57.387988281249989, -25.08513762813088 ], [ -57.396337890624991, -25.08953215938088 ], [ -57.414965820312489, -25.108233331255889 ], [ -57.422412109374989, -25.11248137813088 ], [ -57.48388671875, -25.11248137813088 ], [ -57.511889648437489, -25.106963800005886 ], [ -57.52392578125, -25.109209893755889 ], [ -57.528857421874989, -25.12273528438088 ], [ -57.532397460937489, -25.14812590938088 ], [ -57.541699218749997, -25.17571380000588 ], [ -57.554736328124989, -25.201690362505886 ], [ -57.56982421875, -25.22234465938088 ], [ -57.58359375, -25.234405206255886 ], [ -57.595996093749989, -25.24016692500588 ], [ -57.624438476562489, -25.24846770625588 ], [ -57.639257812499991, -25.256182550005889 ], [ -57.650683593749989, -25.26555755000588 ], [ -57.669458650313032, -25.286844462208879 ] ], [ [ -57.67138860506757, -25.291897826354759 ], [ -57.650423688047042, -25.340658165618628 ] ], [ [ -57.638596822412502, -25.374670705317477 ], [ -57.629751794798217, -25.380952309671155 ] ], [ [ -57.571145853541154, -25.425128966457148 ], [ -57.566015625, -25.43035247188088 ], [ -57.56336308405708, -25.435224485857656 ] ], [ [ -57.563648445159401, -25.499537054742415 ], [ -57.567565335603717, -25.525556921357587 ] ], [ [ -57.585225329297991, -25.573093435889785 ], [ -57.587890625, -25.57561614375588 ], [ -57.598989138298151, -25.578229924061606 ] ], [ [ -57.632341303950099, -25.615531310448258 ], [ -57.639453124999989, -25.615752862505886 ], [ -57.668798828124991, -25.61223723750588 ], [ -57.670751953124991, -25.61687590938088 ], [ -57.673517160552798, -25.628797605555469 ] ], [ [ -57.699176864336934, -25.653478911039208 ], [ -57.709399414062489, -25.652862237505886 ], [ -57.717804633944517, -25.653520037322735 ] ], [ [ -57.722716837175057, -25.654526428749776 ], [ -57.742041015624991, -25.66179778438088 ], [ -57.754443359374989, -25.672686456255889 ], [ -57.766583298249301, -25.689556981639903 ] ], [ [ -57.778455918058818, -25.757435073052861 ], [ -57.787939453124991, -25.76409270625588 ], [ -57.806323242187489, -25.769854425005889 ], [ -57.814285272104748, -25.774307983203506 ] ], [ [ -57.821064432157293, -25.850128923246864 ], [ -57.833984375, -25.858721612505889 ], [ -57.85498046875, -25.86882903438088 ], [ -57.862177813985426, -25.871278131023494 ] ], [ [ -57.865582724581046, -25.928590808252839 ], [ -57.883887760360473, -25.942217322317703 ] ], [ [ -57.88750726435557, -26.019700473663708 ], [ -57.926655656777427, -26.046218750475475 ] ], [ [ -58.042151543093794, -26.112219297851972 ], [ -58.087255859374991, -26.12712981563088 ], [ -58.097412109375, -26.13665130000588 ], [ -58.10703125, -26.170245050005889 ], [ -58.115966796875, -26.19085051875588 ], [ -58.124755859375, -26.20183684688088 ], [ -58.128344726562489, -26.19451262813088 ], [ -58.134033203125, -26.18889739375588 ], [ -58.141894531249989, -26.184600518755886 ], [ -58.152026367187489, -26.18132903438088 ], [ -58.151047089712222, -26.188739237131916 ] ], [ [ -58.111312878130867, -26.223469651752122 ], [ -58.107348632812489, -26.22600676875588 ], [ -58.106738281249989, -26.23943450313088 ], [ -58.1240234375, -26.25139739375588 ], [ -58.146728515625, -26.25994231563088 ], [ -58.16259765625, -26.263213800005886 ], [ -58.167759743460998, -26.267753948998703 ] ], [ [ -58.182742679764608, -26.364039587629271 ], [ -58.206378152172483, -26.401856343481871 ] ], [ [ -58.189248760845466, -26.461530199386331 ], [ -58.189379882812489, -26.461944268755886 ], [ -58.203417968749989, -26.471514581255889 ], [ -58.206640625, -26.479327081255889 ], [ -58.207872285349936, -26.486971869634832 ] ], [ [ -58.216557636273393, -26.520490259099297 ], [ -58.218017578125, -26.52752044063088 ], [ -58.215201349820809, -26.539665425192698 ] ], [ [ -58.201293152574806, -26.555017523126313 ], [ -58.186132812499991, -26.564971612505886 ], [ -58.180029296874991, -26.572588800005889 ], [ -58.171240234374991, -26.586748956255889 ], [ -58.165698242187489, -26.59221770625588 ], [ -58.172216796874991, -26.59856536250588 ], [ -58.189257812499989, -26.609698175005889 ], [ -58.19296875, -26.61272551875588 ], [ -58.192797851562489, -26.624541925005886 ], [ -58.187939453124997, -26.63347747188088 ], [ -58.18212890625, -26.64153411250588 ], [ -58.179296875, -26.65056731563088 ], [ -58.1845703125, -26.65667083125588 ], [ -58.196459960937489, -26.65740325313088 ], [ -58.212715320010872, -26.654548776712403 ] ], [ [ -58.213594119406679, -26.65439445762658 ], [ -58.227880859374991, -26.651885675005886 ], [ -58.232958984374989, -26.64861419063088 ], [ -58.236328125, -26.649737237505889 ], [ -58.241381835937489, -26.66106536250588 ], [ -58.245849609375, -26.68010833125588 ], [ -58.247351057838216, -26.722201570628325 ] ], [ [ -58.248274523711899, -26.748091017402754 ], [ -58.248632812499991, -26.758135675005889 ], [ -58.25244140625, -26.76311614375588 ], [ -58.259960937499997, -26.76433684688088 ], [ -58.272143554687489, -26.76409270625588 ], [ -58.288671875, -26.76848723750588 ], [ -58.287280273437489, -26.778643487505889 ], [ -58.279223632812489, -26.790069268755886 ], [ -58.275561523437489, -26.79827239375588 ], [ -58.289306640625, -26.81145598750588 ], [ -58.306201171874989, -26.80901458125588 ], [ -58.311868021481949, -26.807342396125961 ] ], [ [ -58.33121083657776, -26.805789694131789 ], [ -58.340747070312489, -26.80852630000588 ], [ -58.350469963556201, -26.825777215543248 ] ], [ [ -58.320653075897781, -26.862721312767263 ], [ -58.316503906249991, -26.87395598750588 ], [ -58.329638671874989, -26.884112237505889 ], [ -58.37548828125, -26.887530206255889 ], [ -58.385351562499991, -26.897002862505886 ], [ -58.394628906249991, -26.90960051875588 ], [ -58.416259765625, -26.917510675005886 ], [ -58.460498046874989, -26.928057550005889 ], [ -58.476171875, -26.93792083125588 ], [ -58.484423828124989, -26.950518487505889 ], [ -58.483392485234738, -26.957119082003491 ] ], [ [ -58.479488469935539, -26.966078566464748 ], [ -58.467333984374989, -26.97576262813088 ], [ -58.475268554687489, -26.990069268755889 ], [ -58.493017578124991, -27.00969817500588 ], [ -58.502124023437489, -27.02361419063088 ], [ -58.504288214336455, -27.028560912685666 ] ], [ [ -58.510550535636973, -27.057843699048743 ], [ -58.512255859374989, -27.05999114375588 ], [ -58.5205078125, -27.058428643755889 ], [ -58.52783203125, -27.05413176875588 ], [ -58.52880859375, -27.051592706255889 ], [ -58.528759765624997, -27.047686456255889 ], [ -58.531201171874997, -27.04045989375588 ], [ -58.534357785686794, -27.037945776560644 ] ], [ [ -58.54077946003909, -27.038169357344788 ], [ -58.546142578125, -27.04094817500588 ], [ -58.552362396375891, -27.04811185672677 ] ], [ [ -58.561611945760546, -27.10610941397017 ], [ -58.566210937499989, -27.11589934688088 ], [ -58.616870117187489, -27.12371184688088 ], [ -58.639501953124991, -27.135772393755886 ], [ -58.654052734375, -27.15618255000588 ], [ -58.658224404574554, -27.179963085442992 ] ], [ [ -58.600967236282237, -27.26935929174622 ], [ -58.60342233138006, -27.298039266298009 ] ] ] } }
]
}
